{
  "type": "FeatureCollection",
  "features": [
    {
      "type": "Feature",
      "properties": {
        "name": "Mitja Marato de Barcelona",
        "status": "demo"
      },
      "geometry": {
        "type": "LineString",
        "coordinates": [
          [2.1811, 41.3910],
          [2.1746, 41.3892],
          [2.1680, 41.3865],
          [2.1605, 41.3842],
          [2.1540, 41.3812],
          [2.1600, 41.3770],
          [2.1700, 41.3745],
          [2.1810, 41.3740],
          [2.1910, 41.3780],
          [2.2010, 41.3830],
          [2.2100, 41.3890],
          [2.2050, 41.3970],
          [2.1940, 41.4000],
          [2.1840, 41.3960],
          [2.1811, 41.3910]
        ]
      }
    }
  ]
}
