<?xml version="1.0" encoding="UTF-8"?>
<gpx creator="StravaGPX" version="1.1" xmlns="http://www.topografix.com/GPX/1/1" xmlns:xsi="http://www.w3.org/2001/XMLSchema-instance" xsi:schemaLocation="http://www.topografix.com/GPX/1/1 http://www.topografix.com/GPX/1/1/gpx.xsd">
 <metadata>
  <name>Hyundai Mitja Marató Barcelona by Brooks</name>
  <author>
   <name>RPM SPORTS</name>
   <link href="https://www.strava.com/athletes/95378958"/>
  </author>
  <copyright author="OpenStreetMap contributors">
   <year>2020</year>
   <license>https://www.openstreetmap.org/copyright</license>
  </copyright>
  <link href="https://www.strava.com/routes/3314658373496892858"/>
 </metadata>
 <trk>
  <name>Hyundai Mitja Marató Barcelona by Brooks</name>
  <link href="https://www.strava.com/routes/3314658373496892858"/>
  <type>running</type>
  <trkseg>
   <trkpt lat="41.386900000000004" lon="2.184">
    <ele>15.370000000000001</ele>
   </trkpt>
   <trkpt lat="41.386275002843924" lon="2.184810007780928">
    <ele>15.070000000000002</ele>
   </trkpt>
   <trkpt lat="41.385650000000005" lon="2.18562">
    <ele>14.940000000000001</ele>
   </trkpt>
   <trkpt lat="41.38561000000001" lon="2.1856">
    <ele>14.940000000000001</ele>
   </trkpt>
   <trkpt lat="41.385540000000006" lon="2.18568">
    <ele>14.85</ele>
   </trkpt>
   <trkpt lat="41.38541" lon="2.1856">
    <ele>14.85</ele>
   </trkpt>
   <trkpt lat="41.384747151337706" lon="2.1850285364783586">
    <ele>16.810000000000002</ele>
   </trkpt>
   <trkpt lat="41.38408429984827" lon="2.184457084607482">
    <ele>16.810000000000002</ele>
   </trkpt>
   <trkpt lat="41.383421445531816" lon="2.18388564438691">
    <ele>16.810000000000002</ele>
   </trkpt>
   <trkpt lat="41.38275858838846" lon="2.183314215816184">
    <ele>19.669999999999998</ele>
   </trkpt>
   <trkpt lat="41.382095728418335" lon="2.182742798894844">
    <ele>19.669999999999998</ele>
   </trkpt>
   <trkpt lat="41.38143286562155" lon="2.182171393622429">
    <ele>19.669999999999998</ele>
   </trkpt>
   <trkpt lat="41.380770000000005" lon="2.1816">
    <ele>19.669999999999998</ele>
   </trkpt>
   <trkpt lat="41.38002167458922" lon="2.180994965193723">
    <ele>19.669999999999998</ele>
   </trkpt>
   <trkpt lat="41.37927334600945" lon="2.1803899443109827">
    <ele>19.669999999999998</ele>
   </trkpt>
   <trkpt lat="41.37852501426083" lon="2.1797849373511524">
    <ele>10.5</ele>
   </trkpt>
   <trkpt lat="41.37777667934353" lon="2.1791799443136033">
    <ele>10.5</ele>
   </trkpt>
   <trkpt lat="41.37702834125771" lon="2.1785749651977078">
    <ele>10.5</ele>
   </trkpt>
   <trkpt lat="41.37628" lon="2.17797">
    <ele>10.5</ele>
   </trkpt>
   <trkpt lat="41.37614000000001" lon="2.1778600000000004">
    <ele>13.1</ele>
   </trkpt>
   <trkpt lat="41.376070000000006" lon="2.1776400000000002">
    <ele>13.160000000000002</ele>
   </trkpt>
   <trkpt lat="41.375980000000006" lon="2.1775100000000003">
    <ele>13.160000000000002</ele>
   </trkpt>
   <trkpt lat="41.375800000000005" lon="2.1773900000000004">
    <ele>13.18</ele>
   </trkpt>
   <trkpt lat="41.375710000000005" lon="2.17736">
    <ele>13.09</ele>
   </trkpt>
   <trkpt lat="41.375640000000004" lon="2.1773700000000002">
    <ele>13.09</ele>
   </trkpt>
   <trkpt lat="41.375530000000005" lon="2.17743">
    <ele>12.84</ele>
   </trkpt>
   <trkpt lat="41.37504000044194" lon="2.1770449969429038">
    <ele>12.16</ele>
   </trkpt>
   <trkpt lat="41.374550000000006" lon="2.17666">
    <ele>12.13</ele>
   </trkpt>
   <trkpt lat="41.37449" lon="2.17655">
    <ele>12.13</ele>
   </trkpt>
   <trkpt lat="41.374460000000006" lon="2.1764200000000002">
    <ele>12.13</ele>
   </trkpt>
   <trkpt lat="41.374430000000004" lon="2.17618">
    <ele>12.64</ele>
   </trkpt>
   <trkpt lat="41.374430000000004" lon="2.17573">
    <ele>12.790000000000001</ele>
   </trkpt>
   <trkpt lat="41.37453" lon="2.17557">
    <ele>13.02</ele>
   </trkpt>
   <trkpt lat="41.37465" lon="2.1753500000000003">
    <ele>13.64</ele>
   </trkpt>
   <trkpt lat="41.374680000000005" lon="2.17516">
    <ele>13.64</ele>
   </trkpt>
   <trkpt lat="41.3747366724389" lon="2.1743433347765313">
    <ele>14.16</ele>
   </trkpt>
   <trkpt lat="41.37479333910416" lon="2.173526668130091">
    <ele>14.730000000000002</ele>
   </trkpt>
   <trkpt lat="41.37485" lon="2.1727100000000004">
    <ele>15.64</ele>
   </trkpt>
   <trkpt lat="41.37490500423723" lon="2.1717200009283752">
    <ele>16.46</ele>
   </trkpt>
   <trkpt lat="41.37496" lon="2.1707300000000003">
    <ele>17.42</ele>
   </trkpt>
   <trkpt lat="41.37501667342501" lon="2.1698466681500226">
    <ele>16.86</ele>
   </trkpt>
   <trkpt lat="41.37507334009526" lon="2.1689633347608828">
    <ele>27.05</ele>
   </trkpt>
   <trkpt lat="41.375130000000006" lon="2.1680800000000002">
    <ele>27.05</ele>
   </trkpt>
   <trkpt lat="41.37514" lon="2.1678200000000003">
    <ele>18.6</ele>
   </trkpt>
   <trkpt lat="41.375240000000005" lon="2.1676900000000003">
    <ele>18.18</ele>
   </trkpt>
   <trkpt lat="41.375816023460445" lon="2.1669140618451403">
    <ele>24.98</ele>
   </trkpt>
   <trkpt lat="41.37639204170864" lon="2.166138109947085">
    <ele>24.98</ele>
   </trkpt>
   <trkpt lat="41.37696805474442" lon="2.1653621443054374">
    <ele>24.98</ele>
   </trkpt>
   <trkpt lat="41.37754406256754" lon="2.1645861649197995">
    <ele>24.98</ele>
   </trkpt>
   <trkpt lat="41.37812006517782" lon="2.1638101717897738">
    <ele>36.81</ele>
   </trkpt>
   <trkpt lat="41.378696062575074" lon="2.1630341649149623">
    <ele>36.81</ele>
   </trkpt>
   <trkpt lat="41.37927205475909" lon="2.162258144294968">
    <ele>36.81</ele>
   </trkpt>
   <trkpt lat="41.37984804172967" lon="2.161482109929393">
    <ele>36.81</ele>
   </trkpt>
   <trkpt lat="41.38042402348662" lon="2.1607060618178395">
    <ele>36.81</ele>
   </trkpt>
   <trkpt lat="41.381" lon="2.15993">
    <ele>36.81</ele>
   </trkpt>
   <trkpt lat="41.381" lon="2.1596900000000003">
    <ele>27.4</ele>
   </trkpt>
   <trkpt lat="41.3804600117952" lon="2.1589516360096455">
    <ele>36.730000000000004</ele>
   </trkpt>
   <trkpt lat="41.379920018870806" lon="2.158213284280762">
    <ele>36.730000000000004</ele>
   </trkpt>
   <trkpt lat="41.379380021226964" lon="2.1574749448130204">
    <ele>37.19</ele>
   </trkpt>
   <trkpt lat="41.37884001886386" lon="2.156736617606091">
    <ele>37.19</ele>
   </trkpt>
   <trkpt lat="41.37830001178167" lon="2.155998302659645">
    <ele>37.19</ele>
   </trkpt>
   <trkpt lat="41.37776" lon="2.15526">
    <ele>37.19</ele>
   </trkpt>
   <trkpt lat="41.377430000782056" lon="2.1548199976929614">
    <ele>28.19</ele>
   </trkpt>
   <trkpt lat="41.377100000000006" lon="2.15438">
    <ele>28.96</ele>
   </trkpt>
   <trkpt lat="41.377120000000005" lon="2.1543400000000004">
    <ele>28.89</ele>
   </trkpt>
   <trkpt lat="41.377100000000006" lon="2.1543">
    <ele>28.89</ele>
   </trkpt>
   <trkpt lat="41.37711" lon="2.15397">
    <ele>29.53</ele>
   </trkpt>
   <trkpt lat="41.37709" lon="2.1539300000000003">
    <ele>30.640000000000004</ele>
   </trkpt>
   <trkpt lat="41.3774800010624" lon="2.153420003141041">
    <ele>30.94</ele>
   </trkpt>
   <trkpt lat="41.37787" lon="2.1529100000000003">
    <ele>31.71</ele>
   </trkpt>
   <trkpt lat="41.377970000000005" lon="2.1530400000000003">
    <ele>31.560000000000006</ele>
   </trkpt>
   <trkpt lat="41.37853167889508" lon="2.15379163421008">
    <ele>40.43</ele>
   </trkpt>
   <trkpt lat="41.379093352899275" lon="2.1545432814026064">
    <ele>40.43</ele>
   </trkpt>
   <trkpt lat="41.37965502201237" lon="2.155294941577948">
    <ele>36.33</ele>
   </trkpt>
   <trkpt lat="41.38021668623421" lon="2.156046614736471">
    <ele>36.33</ele>
   </trkpt>
   <trkpt lat="41.38077834556461" lon="2.1567983008785445">
    <ele>36.33</ele>
   </trkpt>
   <trkpt lat="41.38134" lon="2.15755">
    <ele>36.33</ele>
   </trkpt>
   <trkpt lat="41.38191113169983" lon="2.158321056931284">
    <ele>36.33</ele>
   </trkpt>
   <trkpt lat="41.38248225825264" lon="2.159092127406235">
    <ele>36.33</ele>
   </trkpt>
   <trkpt lat="41.38305337965825" lon="2.1598632114252405">
    <ele>36.33</ele>
   </trkpt>
   <trkpt lat="41.383624495916465" lon="2.1606343089886884">
    <ele>36.33</ele>
   </trkpt>
   <trkpt lat="41.384195607027074" lon="2.1614054200969677">
    <ele>34.04</ele>
   </trkpt>
   <trkpt lat="41.38476671298991" lon="2.1621765447504657">
    <ele>34.04</ele>
   </trkpt>
   <trkpt lat="41.38533781380476" lon="2.1629476829495706">
    <ele>34.04</ele>
   </trkpt>
   <trkpt lat="41.38590890947144" lon="2.16371883469467">
    <ele>34.04</ele>
   </trkpt>
   <trkpt lat="41.386480000000006" lon="2.1644900000000002">
    <ele>34.04</ele>
   </trkpt>
   <trkpt lat="41.38696" lon="2.16513">
    <ele>34.620000000000005</ele>
   </trkpt>
   <trkpt lat="41.38703" lon="2.16526">
    <ele>34.72</ele>
   </trkpt>
   <trkpt lat="41.38698" lon="2.1653200000000004">
    <ele>34.15</ele>
   </trkpt>
   <trkpt lat="41.387575002660355" lon="2.166104992806855">
    <ele>34.65</ele>
   </trkpt>
   <trkpt lat="41.38817" lon="2.16689">
    <ele>35.52</ele>
   </trkpt>
   <trkpt lat="41.38839" lon="2.1672200000000004">
    <ele>35.65</ele>
   </trkpt>
   <trkpt lat="41.388450000000006" lon="2.16717">
    <ele>35.7</ele>
   </trkpt>
   <trkpt lat="41.38855" lon="2.16737">
    <ele>35.95</ele>
   </trkpt>
   <trkpt lat="41.38889500078136" lon="2.167829997379565">
    <ele>35.660000000000004</ele>
   </trkpt>
   <trkpt lat="41.38924" lon="2.1682900000000003">
    <ele>35.43</ele>
   </trkpt>
   <trkpt lat="41.389430000000004" lon="2.16853">
    <ele>35.21000000000001</ele>
   </trkpt>
   <trkpt lat="41.389480000000006" lon="2.16866">
    <ele>35.52</ele>
   </trkpt>
   <trkpt lat="41.389520000000005" lon="2.1687000000000003">
    <ele>36.120000000000005</ele>
   </trkpt>
   <trkpt lat="41.38956" lon="2.16865">
    <ele>36.34</ele>
   </trkpt>
   <trkpt lat="41.389680000000006" lon="2.16875">
    <ele>36.730000000000004</ele>
   </trkpt>
   <trkpt lat="41.39025667154763" lon="2.1695033199267177">
    <ele>39.510000000000005</ele>
   </trkpt>
   <trkpt lat="41.390833338182134" lon="2.170256653217827">
    <ele>38.44</ele>
   </trkpt>
   <trkpt lat="41.39141" lon="2.1710100000000003">
    <ele>38.44</ele>
   </trkpt>
   <trkpt lat="41.391670000000005" lon="2.17137">
    <ele>33.42</ele>
   </trkpt>
   <trkpt lat="41.391920000000006" lon="2.1716300000000004">
    <ele>33.29</ele>
   </trkpt>
   <trkpt lat="41.3922" lon="2.172">
    <ele>33.010000000000005</ele>
   </trkpt>
   <trkpt lat="41.39277667154848" lon="2.1727499867089883">
    <ele>38.41</ele>
   </trkpt>
   <trkpt lat="41.39335333822717" lon="2.1734999867244147">
    <ele>35.04</ele>
   </trkpt>
   <trkpt lat="41.393930000000005" lon="2.1742500000000002">
    <ele>35.04</ele>
   </trkpt>
   <trkpt lat="41.39401" lon="2.17437">
    <ele>31.05</ele>
   </trkpt>
   <trkpt lat="41.39345201055293" lon="2.175150026756352">
    <ele>34.58</ele>
   </trkpt>
   <trkpt lat="41.39289401583829" lon="2.175930040121431">
    <ele>34.58</ele>
   </trkpt>
   <trkpt lat="41.392336015856316" lon="2.1767100400956036">
    <ele>32.900000000000006</ele>
   </trkpt>
   <trkpt lat="41.39177801060718" lon="2.1774900266792367">
    <ele>32.900000000000006</ele>
   </trkpt>
   <trkpt lat="41.391220000000004" lon="2.1782700000000004">
    <ele>32.900000000000006</ele>
   </trkpt>
   <trkpt lat="41.39119" lon="2.17831">
    <ele>23.520000000000003</ele>
   </trkpt>
   <trkpt lat="41.391160000000006" lon="2.1783">
    <ele>23.520000000000003</ele>
   </trkpt>
   <trkpt lat="41.39117" lon="2.17841">
    <ele>23.470000000000002</ele>
   </trkpt>
   <trkpt lat="41.39138000136245" lon="2.178954998438528">
    <ele>23.160000000000004</ele>
   </trkpt>
   <trkpt lat="41.39159" lon="2.1795">
    <ele>22.37</ele>
   </trkpt>
   <trkpt lat="41.3915" lon="2.1796">
    <ele>22.140000000000004</ele>
   </trkpt>
   <trkpt lat="41.391580000000005" lon="2.1798200000000003">
    <ele>22.42</ele>
   </trkpt>
   <trkpt lat="41.39155" lon="2.1802">
    <ele>21.720000000000002</ele>
   </trkpt>
   <trkpt lat="41.39157" lon="2.18053">
    <ele>21.26</ele>
   </trkpt>
   <trkpt lat="41.391600000000004" lon="2.1805700000000003">
    <ele>21.26</ele>
   </trkpt>
   <trkpt lat="41.39155" lon="2.18072">
    <ele>20.91</ele>
   </trkpt>
   <trkpt lat="41.39117000092016" lon="2.1812250031961087">
    <ele>20.26</ele>
   </trkpt>
   <trkpt lat="41.39079" lon="2.1817300000000004">
    <ele>19.340000000000003</ele>
   </trkpt>
   <trkpt lat="41.39083" lon="2.1817900000000003">
    <ele>19.540000000000003</ele>
   </trkpt>
   <trkpt lat="41.390495000799774" lon="2.1822250022666445">
    <ele>19.110000000000003</ele>
   </trkpt>
   <trkpt lat="41.39016" lon="2.1826600000000003">
    <ele>18.250000000000004</ele>
   </trkpt>
   <trkpt lat="41.390150000000006" lon="2.18272">
    <ele>18.02</ele>
   </trkpt>
   <trkpt lat="41.39011" lon="2.18278">
    <ele>18.02</ele>
   </trkpt>
   <trkpt lat="41.39043000078663" lon="2.1832249977114806">
    <ele>18.51</ele>
   </trkpt>
   <trkpt lat="41.390750000000004" lon="2.18367">
    <ele>17.69</ele>
   </trkpt>
   <trkpt lat="41.39133695625578" lon="2.1844691441752704">
    <ele>27.62</ele>
   </trkpt>
   <trkpt lat="41.3919239069825" lon="2.1852683027812767">
    <ele>27.62</ele>
   </trkpt>
   <trkpt lat="41.39251085217995" lon="2.1860674758184415">
    <ele>27.62</ele>
   </trkpt>
   <trkpt lat="41.393097791847914" lon="2.1868666632871876">
    <ele>27.62</ele>
   </trkpt>
   <trkpt lat="41.39368472598618" lon="2.1876658651879373">
    <ele>27.62</ele>
   </trkpt>
   <trkpt lat="41.394271654594554" lon="2.188465081521114">
    <ele>27.62</ele>
   </trkpt>
   <trkpt lat="41.394858577672785" lon="2.18926431228714">
    <ele>11.030000000000001</ele>
   </trkpt>
   <trkpt lat="41.3954454952207" lon="2.1900635574864373">
    <ele>11.030000000000001</ele>
   </trkpt>
   <trkpt lat="41.39603240723805" lon="2.1908628171194295">
    <ele>11.030000000000001</ele>
   </trkpt>
   <trkpt lat="41.396619313724635" lon="2.1916620911865397">
    <ele>11.030000000000001</ele>
   </trkpt>
   <trkpt lat="41.39720621468025" lon="2.1924613796881895">
    <ele>11.030000000000001</ele>
   </trkpt>
   <trkpt lat="41.39779311010465" lon="2.193260682624803">
    <ele>11.030000000000001</ele>
   </trkpt>
   <trkpt lat="41.39838" lon="2.1940600000000003">
    <ele>11.030000000000001</ele>
   </trkpt>
   <trkpt lat="41.39900001112934" lon="2.194861969385865">
    <ele>11.030000000000001</ele>
   </trkpt>
   <trkpt lat="41.39962001669025" lon="2.195663954073169">
    <ele>11.030000000000001</ele>
   </trkpt>
   <trkpt lat="41.40024001668254" lon="2.196465954062401">
    <ele>10.530000000000001</ele>
   </trkpt>
   <trkpt lat="41.400860011105955" lon="2.197267969354049">
    <ele>10.530000000000001</ele>
   </trkpt>
   <trkpt lat="41.40148000000001" lon="2.19807">
    <ele>10.530000000000001</ele>
   </trkpt>
   <trkpt lat="41.401650000000004" lon="2.19808">
    <ele>11.770000000000001</ele>
   </trkpt>
   <trkpt lat="41.40224000705205" lon="2.197342520102192">
    <ele>10.5</ele>
   </trkpt>
   <trkpt lat="41.40283000939518" lon="2.196605026812801">
    <ele>7.9700000000000015</ele>
   </trkpt>
   <trkpt lat="41.4034200070292" lon="2.195867520131412">
    <ele>7.9700000000000015</ele>
   </trkpt>
   <trkpt lat="41.40401000000001" lon="2.1951300000000002">
    <ele>7.9700000000000015</ele>
   </trkpt>
   <trkpt lat="41.40461667241195" lon="2.19431334862204">
    <ele>12.820000000000002</ele>
   </trkpt>
   <trkpt lat="41.40522333904957" lon="2.193496681994721">
    <ele>14.110000000000001</ele>
   </trkpt>
   <trkpt lat="41.40583" lon="2.19268">
    <ele>15.22</ele>
   </trkpt>
   <trkpt lat="41.4064166716784" lon="2.1934399862896443">
    <ele>14.200000000000001</ele>
   </trkpt>
   <trkpt lat="41.40700333835597" lon="2.194199986303554">
    <ele>13.520000000000001</ele>
   </trkpt>
   <trkpt lat="41.407590000000006" lon="2.19496">
    <ele>12.610000000000001</ele>
   </trkpt>
   <trkpt lat="41.407950001147185" lon="2.1954749971450194">
    <ele>12.610000000000001</ele>
   </trkpt>
   <trkpt lat="41.40831" lon="2.19599">
    <ele>12.450000000000001</ele>
   </trkpt>
   <trkpt lat="41.40889772434951" lon="2.196775299357659">
    <ele>12.900000000000002</ele>
   </trkpt>
   <trkpt lat="41.40948544335946" lon="2.197560612923383">
    <ele>12.900000000000002</ele>
   </trkpt>
   <trkpt lat="41.41007315702965" lon="2.1983459406975934">
    <ele>12.900000000000002</ele>
   </trkpt>
   <trkpt lat="41.41066086535988" lon="2.199131282680713">
    <ele>12.900000000000002</ele>
   </trkpt>
   <trkpt lat="41.41124856834996" lon="2.199916638873163">
    <ele>12.900000000000002</ele>
   </trkpt>
   <trkpt lat="41.41183626599963" lon="2.2007020092753655">
    <ele>12.900000000000002</ele>
   </trkpt>
   <trkpt lat="41.412423958308736" lon="2.201487393887742">
    <ele>15.040000000000001</ele>
   </trkpt>
   <trkpt lat="41.41301164527704" lon="2.2022727927107146">
    <ele>15.040000000000001</ele>
   </trkpt>
   <trkpt lat="41.41359932690436" lon="2.203058205744705">
    <ele>15.040000000000001</ele>
   </trkpt>
   <trkpt lat="41.414187003190456" lon="2.203843632990135">
    <ele>15.040000000000001</ele>
   </trkpt>
   <trkpt lat="41.41477467413515" lon="2.2046290744474257">
    <ele>15.040000000000001</ele>
   </trkpt>
   <trkpt lat="41.41536233973823" lon="2.205414530117">
    <ele>15.040000000000001</ele>
   </trkpt>
   <trkpt lat="41.41595" lon="2.2062000000000004">
    <ele>15.040000000000001</ele>
   </trkpt>
   <trkpt lat="41.41592" lon="2.20624">
    <ele>12.68</ele>
   </trkpt>
   <trkpt lat="41.41593" lon="2.2062700000000004">
    <ele>12.68</ele>
   </trkpt>
   <trkpt lat="41.415870000000005" lon="2.20635">
    <ele>12.530000000000001</ele>
   </trkpt>
   <trkpt lat="41.415890000000005" lon="2.2064000000000004">
    <ele>12.81</ele>
   </trkpt>
   <trkpt lat="41.41541667003963" lon="2.2070266758360786">
    <ele>11.89</ele>
   </trkpt>
   <trkpt lat="41.41494333667895" lon="2.207653342538829">
    <ele>11.330000000000002</ele>
   </trkpt>
   <trkpt lat="41.41447" lon="2.2082800000000002">
    <ele>10.8</ele>
   </trkpt>
   <trkpt lat="41.414550000000006" lon="2.20838">
    <ele>11.27</ele>
   </trkpt>
   <trkpt lat="41.414530000000006" lon="2.20841">
    <ele>11.27</ele>
   </trkpt>
   <trkpt lat="41.41454" lon="2.20866">
    <ele>11.170000000000002</ele>
   </trkpt>
   <trkpt lat="41.41452" lon="2.2086900000000003">
    <ele>11.120000000000001</ele>
   </trkpt>
   <trkpt lat="41.41506000712196" lon="2.2094299815576304">
    <ele>10.910000000000002</ele>
   </trkpt>
   <trkpt lat="41.41560000950271" lon="2.2101699754190904">
    <ele>10.560000000000002</ele>
   </trkpt>
   <trkpt lat="41.416140007142126" lon="2.2109099815847104">
    <ele>10.560000000000002</ele>
   </trkpt>
   <trkpt lat="41.41668000000001" lon="2.21165">
    <ele>10.560000000000002</ele>
   </trkpt>
   <trkpt lat="41.41675" lon="2.2117500000000003">
    <ele>11.580000000000002</ele>
   </trkpt>
   <trkpt lat="41.41628000173132" lon="2.212380004541251">
    <ele>11.98</ele>
   </trkpt>
   <trkpt lat="41.41581" lon="2.21301">
    <ele>11.65</ele>
   </trkpt>
   <trkpt lat="41.41523201047765" lon="2.213788027697333">
    <ele>13.27</ele>
   </trkpt>
   <trkpt lat="41.41465401571424" lon="2.2145660415483586">
    <ele>13.27</ele>
   </trkpt>
   <trkpt lat="41.414076015709924" lon="2.215344041553479">
    <ele>12.8</ele>
   </trkpt>
   <trkpt lat="41.41349801046494" lon="2.216122027713096">
    <ele>12.8</ele>
   </trkpt>
   <trkpt lat="41.41292000000001" lon="2.2169000000000003">
    <ele>12.8</ele>
   </trkpt>
   <trkpt lat="41.41272" lon="2.2171800000000004">
    <ele>10.620000000000001</ele>
   </trkpt>
   <trkpt lat="41.41268" lon="2.2171800000000004">
    <ele>10.620000000000001</ele>
   </trkpt>
   <trkpt lat="41.41254" lon="2.2173700000000003">
    <ele>10.440000000000001</ele>
   </trkpt>
   <trkpt lat="41.41239" lon="2.21754">
    <ele>10.41</ele>
   </trkpt>
   <trkpt lat="41.41197500123627" lon="2.218090003610726">
    <ele>10.100000000000001</ele>
   </trkpt>
   <trkpt lat="41.41156" lon="2.21864">
    <ele>9.91</ele>
   </trkpt>
   <trkpt lat="41.41145" lon="2.2186600000000003">
    <ele>9.8</ele>
   </trkpt>
   <trkpt lat="41.411440000000006" lon="2.2186600000000003">
    <ele>5.74</ele>
   </trkpt>
   <trkpt lat="41.411152374570726" lon="2.21752532432201">
    <ele>5.74</ele>
   </trkpt>
   <trkpt lat="41.410864737994146" lon="2.216390658691659">
    <ele>5.74</ele>
   </trkpt>
   <trkpt lat="41.41057709027048" lon="2.215256003109146">
    <ele>5.74</ele>
   </trkpt>
   <trkpt lat="41.410289431399896" lon="2.2141213575746694">
    <ele>5.74</ele>
   </trkpt>
   <trkpt lat="41.41000176138265" lon="2.2129867220884276">
    <ele>5.74</ele>
   </trkpt>
   <trkpt lat="41.40971408021893" lon="2.2118520966506208">
    <ele>5.74</ele>
   </trkpt>
   <trkpt lat="41.40942638790895" lon="2.2107174812614456">
    <ele>10.47</ele>
   </trkpt>
   <trkpt lat="41.409138684452934" lon="2.209582875921102">
    <ele>10.47</ele>
   </trkpt>
   <trkpt lat="41.40885096985107" lon="2.208448280629788">
    <ele>10.47</ele>
   </trkpt>
   <trkpt lat="41.408563244103604" lon="2.2073136953877026">
    <ele>10.47</ele>
   </trkpt>
   <trkpt lat="41.40827550721072" lon="2.2061791201950443">
    <ele>10.47</ele>
   </trkpt>
   <trkpt lat="41.407987759172634" lon="2.205044555052011">
    <ele>10.47</ele>
   </trkpt>
   <trkpt lat="41.407700000000006" lon="2.20391">
    <ele>10.47</ele>
   </trkpt>
   <trkpt lat="41.4074466749768" lon="2.20292999233791">
    <ele>11.19</ele>
   </trkpt>
   <trkpt lat="41.407193341638276" lon="2.201949992317959">
    <ele>11.06</ele>
   </trkpt>
   <trkpt lat="41.406940000000006" lon="2.2009700000000003">
    <ele>10.75</ele>
   </trkpt>
   <trkpt lat="41.40661" lon="2.2007100000000004">
    <ele>10.83</ele>
   </trkpt>
   <trkpt lat="41.40606667103905" lon="2.2014200118639575">
    <ele>10.89</ele>
   </trkpt>
   <trkpt lat="41.405523337713475" lon="2.202130011853632">
    <ele>10.620000000000001</ele>
   </trkpt>
   <trkpt lat="41.40498" lon="2.20284">
    <ele>10.13</ele>
   </trkpt>
   <trkpt lat="41.405170000000005" lon="2.2030800000000004">
    <ele>10.030000000000001</ele>
   </trkpt>
   <trkpt lat="41.405788011922795" lon="2.203909968414135">
    <ele>12.530000000000001</ele>
   </trkpt>
   <trkpt lat="41.40640601788141" lon="2.204739952616629">
    <ele>12.530000000000001</ele>
   </trkpt>
   <trkpt lat="41.40702401787557" lon="2.2055699526079735">
    <ele>8.16</ele>
   </trkpt>
   <trkpt lat="41.40764201190505" lon="2.20639996838866">
    <ele>8.16</ele>
   </trkpt>
   <trkpt lat="41.408260000000006" lon="2.20723">
    <ele>8.16</ele>
   </trkpt>
   <trkpt lat="41.40855002715273" lon="2.208349975006859">
    <ele>8.16</ele>
   </trkpt>
   <trkpt lat="41.40884004344506" lon="2.209469960012787">
    <ele>8.16</ele>
   </trkpt>
   <trkpt lat="41.40913004887674" lon="2.2105899550176002">
    <ele>13.71</ele>
   </trkpt>
   <trkpt lat="41.40942004344764" lon="2.211709960021115">
    <ele>13.71</ele>
   </trkpt>
   <trkpt lat="41.40971002715747" lon="2.2128299750231495">
    <ele>13.71</ele>
   </trkpt>
   <trkpt lat="41.410000000000004" lon="2.21395">
    <ele>13.71</ele>
   </trkpt>
   <trkpt lat="41.41023601649855" lon="2.2149259858318846">
    <ele>13.71</ele>
   </trkpt>
   <trkpt lat="41.410472024749666" lon="2.215901978755045">
    <ele>13.71</ele>
   </trkpt>
   <trkpt lat="41.41070802475322" lon="2.216877978769344">
    <ele>5.410000000000001</ele>
   </trkpt>
   <trkpt lat="41.410944016509085" lon="2.217853985874644">
    <ele>5.410000000000001</ele>
   </trkpt>
   <trkpt lat="41.41118" lon="2.21883">
    <ele>5.410000000000001</ele>
   </trkpt>
   <trkpt lat="41.41123" lon="2.2190100000000004">
    <ele>9.850000000000001</ele>
   </trkpt>
   <trkpt lat="41.411210000000004" lon="2.21904">
    <ele>9.79</ele>
   </trkpt>
   <trkpt lat="41.411060000000006" lon="2.21905">
    <ele>9.670000000000002</ele>
   </trkpt>
   <trkpt lat="41.411" lon="2.21904">
    <ele>9.55</ele>
   </trkpt>
   <trkpt lat="41.41089" lon="2.21896">
    <ele>9.46</ele>
   </trkpt>
   <trkpt lat="41.410880000000006" lon="2.2189900000000002">
    <ele>9.4</ele>
   </trkpt>
   <trkpt lat="41.410225004707364" lon="2.218387481769995">
    <ele>9.9</ele>
   </trkpt>
   <trkpt lat="41.409570006271615" lon="2.217784975689238">
    <ele>10.55</ele>
   </trkpt>
   <trkpt lat="41.40891500469288" lon="2.2171824817572605">
    <ele>11.11</ele>
   </trkpt>
   <trkpt lat="41.408260000000006" lon="2.21658">
    <ele>11.680000000000001</ele>
   </trkpt>
   <trkpt lat="41.40814" lon="2.21675">
    <ele>11.760000000000002</ele>
   </trkpt>
   <trkpt lat="41.408080000000005" lon="2.2167000000000003">
    <ele>11.14</ele>
   </trkpt>
   <trkpt lat="41.4075050024155" lon="2.2174450065766713">
    <ele>11.49</ele>
   </trkpt>
   <trkpt lat="41.40693" lon="2.2181900000000003">
    <ele>11.97</ele>
   </trkpt>
   <trkpt lat="41.40693" lon="2.2182000000000004">
    <ele>9.41</ele>
   </trkpt>
   <trkpt lat="41.40630093800755" lon="2.2173826481480208">
    <ele>9.41</ele>
   </trkpt>
   <trkpt lat="41.405671870231075" lon="2.2165653121225333">
    <ele>9.41</ele>
   </trkpt>
   <trkpt lat="41.4050427966708" lon="2.2157479919230267">
    <ele>9.41</ele>
   </trkpt>
   <trkpt lat="41.40441371732697" lon="2.2149306875489905">
    <ele>9.41</ele>
   </trkpt>
   <trkpt lat="41.403784632199816" lon="2.2141133989999133">
    <ele>9.41</ele>
   </trkpt>
   <trkpt lat="41.4031555412896" lon="2.213296126275283">
    <ele>7.78</ele>
   </trkpt>
   <trkpt lat="41.40252644459654" lon="2.212478869374589">
    <ele>7.78</ele>
   </trkpt>
   <trkpt lat="41.40189734212089" lon="2.2116616282973207">
    <ele>7.78</ele>
   </trkpt>
   <trkpt lat="41.40126823386288" lon="2.210844403042966">
    <ele>7.78</ele>
   </trkpt>
   <trkpt lat="41.40063911982274" lon="2.2100271936110145">
    <ele>7.78</ele>
   </trkpt>
   <trkpt lat="41.40001" lon="2.20921">
    <ele>7.78</ele>
   </trkpt>
   <trkpt lat="41.400040000000004" lon="2.2091700000000003">
    <ele>9.770000000000001</ele>
   </trkpt>
   <trkpt lat="41.39945" lon="2.2084900000000003">
    <ele>9.89</ele>
   </trkpt>
   <trkpt lat="41.39941" lon="2.2085000000000004">
    <ele>9.89</ele>
   </trkpt>
   <trkpt lat="41.399350000000005" lon="2.20846">
    <ele>9.8</ele>
   </trkpt>
   <trkpt lat="41.39931000000001" lon="2.20846">
    <ele>9.8</ele>
   </trkpt>
   <trkpt lat="41.39918" lon="2.2085600000000003">
    <ele>9.64</ele>
   </trkpt>
   <trkpt lat="41.3986" lon="2.20934">
    <ele>13.260000000000002</ele>
   </trkpt>
   <trkpt lat="41.39842" lon="2.20922">
    <ele>13.070000000000002</ele>
   </trkpt>
   <trkpt lat="41.39813" lon="2.2089800000000004">
    <ele>13.170000000000002</ele>
   </trkpt>
   <trkpt lat="41.39784" lon="2.20878">
    <ele>12.730000000000002</ele>
   </trkpt>
   <trkpt lat="41.39764" lon="2.20868">
    <ele>12.31</ele>
   </trkpt>
   <trkpt lat="41.39719" lon="2.20854">
    <ele>11.44</ele>
   </trkpt>
   <trkpt lat="41.3967" lon="2.20831">
    <ele>11.030000000000001</ele>
   </trkpt>
   <trkpt lat="41.39654" lon="2.2082">
    <ele>10.690000000000001</ele>
   </trkpt>
   <trkpt lat="41.396350000000005" lon="2.2080300000000004">
    <ele>10.690000000000001</ele>
   </trkpt>
   <trkpt lat="41.39614" lon="2.20778">
    <ele>10.610000000000001</ele>
   </trkpt>
   <trkpt lat="41.395780001115924" lon="2.2072999974995695">
    <ele>10.72</ele>
   </trkpt>
   <trkpt lat="41.39542" lon="2.20682">
    <ele>11.160000000000002</ele>
   </trkpt>
   <trkpt lat="41.395140000000005" lon="2.20642">
    <ele>11.44</ele>
   </trkpt>
   <trkpt lat="41.39462" lon="2.2057800000000003">
    <ele>11.49</ele>
   </trkpt>
   <trkpt lat="41.394560000000006" lon="2.20576">
    <ele>11.44</ele>
   </trkpt>
   <trkpt lat="41.39414" lon="2.2053800000000003">
    <ele>11.290000000000001</ele>
   </trkpt>
   <trkpt lat="41.393440000000005" lon="2.20492">
    <ele>10.83</ele>
   </trkpt>
   <trkpt lat="41.39323" lon="2.2048300000000003">
    <ele>10.66</ele>
   </trkpt>
   <trkpt lat="41.392790000000005" lon="2.2045500000000002">
    <ele>10.540000000000001</ele>
   </trkpt>
   <trkpt lat="41.392500000000005" lon="2.2042900000000003">
    <ele>10.21</ele>
   </trkpt>
   <trkpt lat="41.39249" lon="2.2042800000000002">
    <ele>10.21</ele>
   </trkpt>
   <trkpt lat="41.39237000000001" lon="2.2041000000000004">
    <ele>10.15</ele>
   </trkpt>
   <trkpt lat="41.39217" lon="2.2038800000000003">
    <ele>10.13</ele>
   </trkpt>
   <trkpt lat="41.39175" lon="2.2031300000000003">
    <ele>10.05</ele>
   </trkpt>
   <trkpt lat="41.39157" lon="2.20268">
    <ele>9.81</ele>
   </trkpt>
   <trkpt lat="41.391360000000006" lon="2.20201">
    <ele>10.100000000000001</ele>
   </trkpt>
   <trkpt lat="41.391220000000004" lon="2.2016400000000003">
    <ele>10.100000000000001</ele>
   </trkpt>
   <trkpt lat="41.391020000000005" lon="2.2012500000000004">
    <ele>10.25</ele>
   </trkpt>
   <trkpt lat="41.390750000000004" lon="2.20081">
    <ele>10.520000000000001</ele>
   </trkpt>
   <trkpt lat="41.39031000000001" lon="2.2002900000000003">
    <ele>10.85</ele>
   </trkpt>
   <trkpt lat="41.390150000000006" lon="2.2001500000000003">
    <ele>11.170000000000002</ele>
   </trkpt>
   <trkpt lat="41.39058" lon="2.19956">
    <ele>11.3</ele>
   </trkpt>
   <trkpt lat="41.38995750963193" lon="2.198697475184953">
    <ele>12.84</ele>
   </trkpt>
   <trkpt lat="41.38933501282329" lon="2.1978349668871258">
    <ele>12.84</ele>
   </trkpt>
   <trkpt lat="41.38871250957433" lon="2.196972475106013">
    <ele>11.63</ele>
   </trkpt>
   <trkpt lat="41.388090000000005" lon="2.19611">
    <ele>11.63</ele>
   </trkpt>
   <trkpt lat="41.38805000000001" lon="2.19606">
    <ele>12.05</ele>
   </trkpt>
   <trkpt lat="41.38803" lon="2.19599">
    <ele>12.17</ele>
   </trkpt>
   <trkpt lat="41.388200000000005" lon="2.19572">
    <ele>12.350000000000001</ele>
   </trkpt>
   <trkpt lat="41.388796269155435" lon="2.194925051031346">
    <ele>12.600000000000001</ele>
   </trkpt>
   <trkpt lat="41.38939253283976" lon="2.1941300874812493">
    <ele>12.600000000000001</ele>
   </trkpt>
   <trkpt lat="41.38998879105278" lon="2.1933351093492703">
    <ele>12.600000000000001</ele>
   </trkpt>
   <trkpt lat="41.39058504379426" lon="2.19254011663497">
    <ele>17.8</ele>
   </trkpt>
   <trkpt lat="41.39118129106402" lon="2.191745109337908">
    <ele>17.8</ele>
   </trkpt>
   <trkpt lat="41.39177753286182" lon="2.190950087457645">
    <ele>17.8</ele>
   </trkpt>
   <trkpt lat="41.392373769187444" lon="2.1901550509937424">
    <ele>17.8</ele>
   </trkpt>
   <trkpt lat="41.392970000000005" lon="2.18936">
    <ele>17.8</ele>
   </trkpt>
   <trkpt lat="41.392880000000005" lon="2.18922">
    <ele>14.350000000000001</ele>
   </trkpt>
   <trkpt lat="41.392880000000005" lon="2.18895">
    <ele>14.16</ele>
   </trkpt>
   <trkpt lat="41.39232250760115" lon="2.1881849803198388">
    <ele>19.23</ele>
   </trkpt>
   <trkpt lat="41.391765010135515" lon="2.1874199737610907">
    <ele>19.23</ele>
   </trkpt>
   <trkpt lat="41.39120750760329" lon="2.1866549803233917">
    <ele>22.310000000000002</ele>
   </trkpt>
   <trkpt lat="41.39065" lon="2.18589">
    <ele>22.310000000000002</ele>
   </trkpt>
   <trkpt lat="41.39065" lon="2.18588">
    <ele>14.950000000000001</ele>
   </trkpt>
  </trkseg>
 </trk>
</gpx>
