{
  "type": "FeatureCollection",
  "features": [
    {
      "type": "Feature",
      "properties": {
        "name": "GENERALI Berliner Halbmarathon",
        "source": "Official event KML",
        "status": "reference"
      },
      "geometry": {
        "type": "LineString",
        "coordinates": [
          [
            13.356815,
            52.514987
          ],
          [
            13.352809,
            52.51475
          ],
          [
            13.351928,
            52.514711
          ],
          [
            13.351779,
            52.514727
          ],
          [
            13.351594,
            52.514755
          ],
          [
            13.350388,
            52.515039
          ],
          [
            13.350308,
            52.515053
          ],
          [
            13.350216,
            52.515058
          ],
          [
            13.350031,
            52.515063
          ],
          [
            13.349854,
            52.515042
          ],
          [
            13.349634,
            52.514982
          ],
          [
            13.348853,
            52.514661
          ],
          [
            13.34863,
            52.514589
          ],
          [
            13.348522,
            52.514561
          ],
          [
            13.348368,
            52.514524
          ],
          [
            13.348138,
            52.514482
          ],
          [
            13.342425,
            52.514019
          ],
          [
            13.34156,
            52.513924
          ],
          [
            13.339049,
            52.513756
          ],
          [
            13.338405,
            52.513734
          ],
          [
            13.331784,
            52.513329
          ],
          [
            13.330394,
            52.513239
          ],
          [
            13.323878,
            52.512833
          ],
          [
            13.32337,
            52.512825
          ],
          [
            13.323244,
            52.512832
          ],
          [
            13.323117,
            52.512853
          ],
          [
            13.322456,
            52.513059
          ],
          [
            13.32238,
            52.513086
          ],
          [
            13.322316,
            52.513101
          ],
          [
            13.322161,
            52.513132
          ],
          [
            13.321318,
            52.513281
          ],
          [
            13.320492,
            52.513487
          ],
          [
            13.320181,
            52.513565
          ],
          [
            13.320021,
            52.513606
          ],
          [
            13.319886,
            52.513633
          ],
          [
            13.319034,
            52.513779
          ],
          [
            13.317819,
            52.514003
          ],
          [
            13.317491,
            52.514073
          ],
          [
            13.317138,
            52.514172
          ],
          [
            13.314838,
            52.514868
          ],
          [
            13.311646,
            52.515874
          ],
          [
            13.308711,
            52.516811
          ],
          [
            13.307681,
            52.517144
          ],
          [
            13.300319,
            52.519482
          ],
          [
            13.300111,
            52.519541
          ],
          [
            13.299983,
            52.519578
          ],
          [
            13.299894,
            52.519592
          ],
          [
            13.299817,
            52.5196
          ],
          [
            13.2969,
            52.519387
          ],
          [
            13.295937,
            52.519318
          ],
          [
            13.295881,
            52.51931
          ],
          [
            13.295824,
            52.519295
          ],
          [
            13.295795,
            52.51927
          ],
          [
            13.296107,
            52.517127
          ],
          [
            13.296455,
            52.515024
          ],
          [
            13.296592,
            52.514207
          ],
          [
            13.296709,
            52.51358
          ],
          [
            13.296727,
            52.51352
          ],
          [
            13.296865,
            52.513306
          ],
          [
            13.297216,
            52.511688
          ],
          [
            13.29739,
            52.510697
          ],
          [
            13.297402,
            52.510663
          ],
          [
            13.297833,
            52.510441
          ],
          [
            13.297982,
            52.510038
          ],
          [
            13.298243,
            52.509321
          ],
          [
            13.298371,
            52.508951
          ],
          [
            13.298691,
            52.508005
          ],
          [
            13.299161,
            52.506723
          ],
          [
            13.300414,
            52.503909
          ],
          [
            13.300709,
            52.503287
          ],
          [
            13.300742,
            52.503103
          ],
          [
            13.30071,
            52.50281
          ],
          [
            13.300496,
            52.501133
          ],
          [
            13.300411,
            52.500388
          ],
          [
            13.300393,
            52.500147
          ],
          [
            13.30032,
            52.498905
          ],
          [
            13.300359,
            52.498883
          ],
          [
            13.300405,
            52.498872
          ],
          [
            13.300494,
            52.498877
          ],
          [
            13.300593,
            52.498894
          ],
          [
            13.306187,
            52.499894
          ],
          [
            13.306768,
            52.500001
          ],
          [
            13.307277,
            52.500076
          ],
          [
            13.312861,
            52.500701
          ],
          [
            13.313339,
            52.500761
          ],
          [
            13.319496,
            52.501697
          ],
          [
            13.322108,
            52.502091
          ],
          [
            13.324875,
            52.502535
          ],
          [
            13.325748,
            52.502698
          ],
          [
            13.327429,
            52.50305
          ],
          [
            13.331091,
            52.503809
          ],
          [
            13.331602,
            52.503816
          ],
          [
            13.334609,
            52.504381
          ],
          [
            13.334799,
            52.50439
          ],
          [
            13.335011,
            52.504385
          ],
          [
            13.335213,
            52.504368
          ],
          [
            13.335444,
            52.504342
          ],
          [
            13.335942,
            52.504299
          ],
          [
            13.3361,
            52.504266
          ],
          [
            13.336224,
            52.50423
          ],
          [
            13.336357,
            52.504181
          ],
          [
            13.336586,
            52.504088
          ],
          [
            13.342051,
            52.501906
          ],
          [
            13.342612,
            52.501691
          ],
          [
            13.342754,
            52.50165
          ],
          [
            13.3429,
            52.501609
          ],
          [
            13.34305,
            52.501589
          ],
          [
            13.343972,
            52.501493
          ],
          [
            13.346121,
            52.501111
          ],
          [
            13.346553,
            52.501108
          ],
          [
            13.351357,
            52.50018
          ],
          [
            13.351697,
            52.500115
          ],
          [
            13.352052,
            52.500065
          ],
          [
            13.353257,
            52.499941
          ],
          [
            13.353544,
            52.499908
          ],
          [
            13.353844,
            52.499859
          ],
          [
            13.354398,
            52.499708
          ],
          [
            13.355187,
            52.499436
          ],
          [
            13.355661,
            52.499295
          ],
          [
            13.355989,
            52.499222
          ],
          [
            13.356723,
            52.499068
          ],
          [
            13.357229,
            52.498959
          ],
          [
            13.358401,
            52.498716
          ],
          [
            13.359778,
            52.498426
          ],
          [
            13.36109,
            52.498149
          ],
          [
            13.361844,
            52.498033
          ],
          [
            13.361918,
            52.498035
          ],
          [
            13.361971,
            52.498056
          ],
          [
            13.36203,
            52.498128
          ],
          [
            13.362566,
            52.499065
          ],
          [
            13.363,
            52.499887
          ],
          [
            13.363096,
            52.50004
          ],
          [
            13.363314,
            52.500292
          ],
          [
            13.363657,
            52.500679
          ],
          [
            13.363987,
            52.501053
          ],
          [
            13.365861,
            52.503205
          ],
          [
            13.366176,
            52.503549
          ],
          [
            13.366529,
            52.503897
          ],
          [
            13.36741,
            52.504745
          ],
          [
            13.36783,
            52.505164
          ],
          [
            13.367984,
            52.505345
          ],
          [
            13.368191,
            52.505613
          ],
          [
            13.369792,
            52.508258
          ],
          [
            13.369852,
            52.508339
          ],
          [
            13.369894,
            52.508382
          ],
          [
            13.369994,
            52.508458
          ],
          [
            13.3703,
            52.508612
          ],
          [
            13.370603,
            52.508762
          ],
          [
            13.370762,
            52.508845
          ],
          [
            13.37093,
            52.50891
          ],
          [
            13.371023,
            52.508927
          ],
          [
            13.371377,
            52.508967
          ],
          [
            13.377396,
            52.50951
          ],
          [
            13.379734,
            52.509733
          ],
          [
            13.380995,
            52.509812
          ],
          [
            13.381784,
            52.509856
          ],
          [
            13.386881,
            52.510178
          ],
          [
            13.39165,
            52.510538
          ],
          [
            13.393466,
            52.510856
          ],
          [
            13.393526,
            52.510879
          ],
          [
            13.393563,
            52.5109
          ],
          [
            13.393594,
            52.510932
          ],
          [
            13.39362,
            52.510974
          ],
          [
            13.393621,
            52.511014
          ],
          [
            13.393125,
            52.51494
          ],
          [
            13.393128,
            52.514949
          ],
          [
            13.393136,
            52.514957
          ],
          [
            13.393159,
            52.514962
          ],
          [
            13.395868,
            52.515203
          ],
          [
            13.396957,
            52.515296
          ],
          [
            13.397524,
            52.515391
          ],
          [
            13.398109,
            52.515496
          ],
          [
            13.400175,
            52.515949
          ],
          [
            13.400686,
            52.516137
          ],
          [
            13.40073,
            52.516146
          ],
          [
            13.40078,
            52.516149
          ],
          [
            13.400842,
            52.516142
          ],
          [
            13.400893,
            52.516123
          ],
          [
            13.401149,
            52.515977
          ],
          [
            13.401188,
            52.515959
          ],
          [
            13.401235,
            52.515951
          ],
          [
            13.401286,
            52.515946
          ],
          [
            13.401342,
            52.515952
          ],
          [
            13.401412,
            52.515978
          ],
          [
            13.402347,
            52.516352
          ],
          [
            13.402745,
            52.51653
          ],
          [
            13.404784,
            52.517371
          ],
          [
            13.406962,
            52.518239
          ],
          [
            13.407076,
            52.51828
          ],
          [
            13.407104,
            52.518289
          ],
          [
            13.407129,
            52.51829
          ],
          [
            13.407154,
            52.518285
          ],
          [
            13.407173,
            52.518277
          ],
          [
            13.408343,
            52.517516
          ],
          [
            13.408452,
            52.517498
          ],
          [
            13.408531,
            52.517498
          ],
          [
            13.408584,
            52.517506
          ],
          [
            13.408628,
            52.517517
          ],
          [
            13.409896,
            52.518107
          ],
          [
            13.412388,
            52.519192
          ],
          [
            13.413137,
            52.519478
          ],
          [
            13.413954,
            52.519855
          ],
          [
            13.414372,
            52.52006
          ],
          [
            13.414721,
            52.520262
          ],
          [
            13.41496,
            52.520457
          ],
          [
            13.416534,
            52.521788
          ],
          [
            13.416581,
            52.521801
          ],
          [
            13.416663,
            52.521799
          ],
          [
            13.416747,
            52.521792
          ],
          [
            13.422216,
            52.520161
          ],
          [
            13.425401,
            52.519238
          ],
          [
            13.42607,
            52.51904
          ],
          [
            13.426345,
            52.518969
          ],
          [
            13.426614,
            52.518906
          ],
          [
            13.426758,
            52.518873
          ],
          [
            13.42679,
            52.518866
          ],
          [
            13.426808,
            52.51887
          ],
          [
            13.426827,
            52.518891
          ],
          [
            13.426844,
            52.518918
          ],
          [
            13.426859,
            52.518939
          ],
          [
            13.426866,
            52.518951
          ],
          [
            13.426847,
            52.518964
          ],
          [
            13.42265,
            52.520231
          ],
          [
            13.418113,
            52.521583
          ],
          [
            13.416775,
            52.521967
          ],
          [
            13.416228,
            52.521925
          ],
          [
            13.415141,
            52.521037
          ],
          [
            13.414714,
            52.520674
          ],
          [
            13.414503,
            52.520504
          ],
          [
            13.414294,
            52.52037
          ],
          [
            13.413573,
            52.519989
          ],
          [
            13.412962,
            52.519715
          ],
          [
            13.410461,
            52.518542
          ],
          [
            13.408532,
            52.517642
          ],
          [
            13.408469,
            52.517633
          ],
          [
            13.40841,
            52.51764
          ],
          [
            13.40836,
            52.517663
          ],
          [
            13.40736,
            52.518328
          ],
          [
            13.40711,
            52.5185
          ],
          [
            13.40698,
            52.518563
          ],
          [
            13.404947,
            52.519806
          ],
          [
            13.40463,
            52.519971
          ],
          [
            13.404612,
            52.519973
          ],
          [
            13.404593,
            52.519969
          ],
          [
            13.402999,
            52.519117
          ],
          [
            13.402008,
            52.518708
          ],
          [
            13.399859,
            52.517932
          ],
          [
            13.399679,
            52.517867
          ],
          [
            13.399514,
            52.517822
          ],
          [
            13.399357,
            52.517789
          ],
          [
            13.39924,
            52.517768
          ],
          [
            13.396217,
            52.517451
          ],
          [
            13.39303,
            52.517188
          ],
          [
            13.379938,
            52.516339
          ],
          [
            13.379629,
            52.516329
          ],
          [
            13.379371,
            52.516344
          ],
          [
            13.377831,
            52.5163
          ],
          [
            13.375196,
            52.516172
          ]
        ]
      }
    }
  ]
}