{
  "type": "FeatureCollection",
  "features": [
    {
      "type": "Feature",
      "properties": {
        "name": "Copenhagen Half Marathon",
        "source": "Official CPH Half interactive map",
        "status": "reference"
      },
      "geometry": {
        "type": "LineString",
        "coordinates": [
          [
            12.567721,
            55.707257
          ],
          [
            12.569855,
            55.707639
          ],
          [
            12.571534,
            55.707928
          ],
          [
            12.57449,
            55.70851
          ],
          [
            12.576854,
            55.708982
          ],
          [
            12.577423,
            55.709074
          ],
          [
            12.577342,
            55.708663
          ],
          [
            12.577338,
            55.708311
          ],
          [
            12.577338,
            55.708038
          ],
          [
            12.577301,
            55.707702
          ],
          [
            12.577375,
            55.707304
          ],
          [
            12.577413,
            55.707031
          ],
          [
            12.57745,
            55.706801
          ],
          [
            12.577375,
            55.706318
          ],
          [
            12.577462,
            55.705898
          ],
          [
            12.577471,
            55.704986
          ],
          [
            12.577534,
            55.704493
          ],
          [
            12.577521,
            55.703554
          ],
          [
            12.577509,
            55.702616
          ],
          [
            12.577496,
            55.701677
          ],
          [
            12.577484,
            55.700738
          ],
          [
            12.577471,
            55.6998
          ],
          [
            12.57802,
            55.699197
          ],
          [
            12.578651,
            55.698195
          ],
          [
            12.579282,
            55.697194
          ],
          [
            12.579431,
            55.696964
          ],
          [
            12.57956,
            55.696645
          ],
          [
            12.57978,
            55.696282
          ],
          [
            12.580073,
            55.69586
          ],
          [
            12.580137,
            55.695782
          ],
          [
            12.580384,
            55.695633
          ],
          [
            12.580969,
            55.695344
          ],
          [
            12.582241,
            55.694642
          ],
          [
            12.583361,
            55.694116
          ],
          [
            12.58334,
            55.6941
          ],
          [
            12.58392,
            55.69379
          ],
          [
            12.5845,
            55.69348
          ],
          [
            12.58462,
            55.69342
          ],
          [
            12.58494,
            55.69315
          ],
          [
            12.58553,
            55.69284
          ],
          [
            12.586448,
            55.692381
          ],
          [
            12.587178,
            55.691998
          ],
          [
            12.587641,
            55.691737
          ],
          [
            12.588016,
            55.691448
          ],
          [
            12.586697,
            55.690572
          ],
          [
            12.586252,
            55.690324
          ],
          [
            12.585167,
            55.690002
          ],
          [
            12.584111,
            55.689933
          ],
          [
            12.583609,
            55.689764
          ],
          [
            12.582159,
            55.689302
          ],
          [
            12.580852,
            55.688616
          ],
          [
            12.579435,
            55.687967
          ],
          [
            12.578018,
            55.687317
          ],
          [
            12.576632,
            55.686558
          ],
          [
            12.57509,
            55.685571
          ],
          [
            12.573549,
            55.684583
          ],
          [
            12.573631,
            55.68456
          ],
          [
            12.574424,
            55.68435
          ],
          [
            12.575408,
            55.684129
          ],
          [
            12.577124,
            55.683673
          ],
          [
            12.578839,
            55.683216
          ],
          [
            12.580552,
            55.682773
          ],
          [
            12.580745,
            55.682659
          ],
          [
            12.581052,
            55.68149
          ],
          [
            12.581072,
            55.681389
          ],
          [
            12.581304,
            55.681298
          ],
          [
            12.581798,
            55.68081
          ],
          [
            12.582061,
            55.680381
          ],
          [
            12.582704,
            55.679239
          ],
          [
            12.582983,
            55.678829
          ],
          [
            12.583168,
            55.678552
          ],
          [
            12.583484,
            55.678154
          ],
          [
            12.583729,
            55.677844
          ],
          [
            12.584455,
            55.67728
          ],
          [
            12.585149,
            55.677458
          ],
          [
            12.585569,
            55.677579
          ],
          [
            12.585816,
            55.677788
          ],
          [
            12.585922,
            55.678024
          ],
          [
            12.585865,
            55.678393
          ],
          [
            12.585378,
            55.679611
          ],
          [
            12.584891,
            55.680828
          ],
          [
            12.584922,
            55.681006
          ],
          [
            12.58536,
            55.681508
          ],
          [
            12.58618,
            55.682493
          ],
          [
            12.587045,
            55.683478
          ],
          [
            12.58819,
            55.684815
          ],
          [
            12.588854,
            55.685685
          ],
          [
            12.589556,
            55.686449
          ],
          [
            12.590276,
            55.687326
          ],
          [
            12.590468,
            55.687321
          ],
          [
            12.592868,
            55.687608
          ],
          [
            12.592884,
            55.687473
          ],
          [
            12.592282,
            55.686811
          ],
          [
            12.591907,
            55.686276
          ],
          [
            12.591194,
            55.685436
          ],
          [
            12.590174,
            55.684225
          ],
          [
            12.589155,
            55.683013
          ],
          [
            12.588238,
            55.681852
          ],
          [
            12.587698,
            55.681234
          ],
          [
            12.587341,
            55.680861
          ],
          [
            12.586996,
            55.680538
          ],
          [
            12.586633,
            55.680111
          ],
          [
            12.586178,
            55.679903
          ],
          [
            12.585642,
            55.679804
          ],
          [
            12.58549,
            55.67971
          ],
          [
            12.585913,
            55.678589
          ],
          [
            12.586052,
            55.678284
          ],
          [
            12.586163,
            55.6781
          ],
          [
            12.586214,
            55.677966
          ],
          [
            12.586287,
            55.677812
          ],
          [
            12.586321,
            55.677728
          ],
          [
            12.586334,
            55.677639
          ],
          [
            12.586385,
            55.677601
          ],
          [
            12.586424,
            55.677488
          ],
          [
            12.58647,
            55.677389
          ],
          [
            12.586504,
            55.677264
          ],
          [
            12.586555,
            55.677138
          ],
          [
            12.586609,
            55.676962
          ],
          [
            12.586711,
            55.676693
          ],
          [
            12.586793,
            55.676505
          ],
          [
            12.587066,
            55.675982
          ],
          [
            12.587188,
            55.675463
          ],
          [
            12.5871,
            55.675267
          ],
          [
            12.586752,
            55.675044
          ],
          [
            12.586453,
            55.674843
          ],
          [
            12.586144,
            55.674689
          ],
          [
            12.585759,
            55.674515
          ],
          [
            12.58534,
            55.674357
          ],
          [
            12.584763,
            55.674219
          ],
          [
            12.583363,
            55.673977
          ],
          [
            12.58309,
            55.673917
          ],
          [
            12.58146,
            55.673337
          ],
          [
            12.581249,
            55.673232
          ],
          [
            12.580333,
            55.672685
          ],
          [
            12.580178,
            55.672558
          ],
          [
            12.579754,
            55.672332
          ],
          [
            12.578947,
            55.671861
          ],
          [
            12.578837,
            55.671819
          ],
          [
            12.578676,
            55.671747
          ],
          [
            12.57852,
            55.671663
          ],
          [
            12.577632,
            55.671139
          ],
          [
            12.577511,
            55.671057
          ],
          [
            12.577188,
            55.670862
          ],
          [
            12.577054,
            55.670798
          ],
          [
            12.57693,
            55.670759
          ],
          [
            12.575805,
            55.670352
          ],
          [
            12.57389,
            55.66932
          ],
          [
            12.57209,
            55.668324
          ],
          [
            12.570953,
            55.669147
          ],
          [
            12.569816,
            55.66997
          ],
          [
            12.56882,
            55.670789
          ],
          [
            12.567824,
            55.671608
          ],
          [
            12.569882,
            55.672371
          ],
          [
            12.571109,
            55.672855
          ],
          [
            12.571432,
            55.673035
          ],
          [
            12.571695,
            55.67322
          ],
          [
            12.571911,
            55.673377
          ],
          [
            12.572102,
            55.673519
          ],
          [
            12.570569,
            55.674304
          ],
          [
            12.568454,
            55.675351
          ],
          [
            12.567899,
            55.67566
          ],
          [
            12.567789,
            55.67566
          ],
          [
            12.567683,
            55.675647
          ],
          [
            12.56758,
            55.67562
          ],
          [
            12.567481,
            55.675578
          ],
          [
            12.566966,
            55.675446
          ],
          [
            12.564826,
            55.67466
          ],
          [
            12.564672,
            55.674627
          ],
          [
            12.564382,
            55.674609
          ],
          [
            12.564229,
            55.674578
          ],
          [
            12.563692,
            55.674399
          ],
          [
            12.563393,
            55.674353
          ],
          [
            12.563195,
            55.674304
          ],
          [
            12.563017,
            55.674236
          ],
          [
            12.562801,
            55.674126
          ],
          [
            12.562524,
            55.674
          ],
          [
            12.561128,
            55.673519
          ],
          [
            12.560987,
            55.673465
          ],
          [
            12.559193,
            55.673077
          ],
          [
            12.557399,
            55.672688
          ],
          [
            12.5573,
            55.672636
          ],
          [
            12.556475,
            55.672466
          ],
          [
            12.555656,
            55.67233
          ],
          [
            12.555511,
            55.672358
          ],
          [
            12.552758,
            55.672644
          ],
          [
            12.551704,
            55.672719
          ],
          [
            12.551536,
            55.672729
          ],
          [
            12.550498,
            55.672673
          ],
          [
            12.550171,
            55.672662
          ],
          [
            12.549929,
            55.672641
          ],
          [
            12.549728,
            55.672591
          ],
          [
            12.54967,
            55.672694
          ],
          [
            12.549521,
            55.672809
          ],
          [
            12.54939,
            55.672858
          ],
          [
            12.548318,
            55.673124
          ],
          [
            12.548143,
            55.67315
          ],
          [
            12.547204,
            55.673258
          ],
          [
            12.545288,
            55.673449
          ],
          [
            12.543371,
            55.67364
          ],
          [
            12.541455,
            55.67383
          ],
          [
            12.538832,
            55.674095
          ],
          [
            12.536564,
            55.674324
          ],
          [
            12.534296,
            55.674553
          ],
          [
            12.532287,
            55.674761
          ],
          [
            12.532492,
            55.675574
          ],
          [
            12.532762,
            55.676499
          ],
          [
            12.533033,
            55.677423
          ],
          [
            12.533303,
            55.678348
          ],
          [
            12.532703,
            55.678461
          ],
          [
            12.532314,
            55.67852
          ],
          [
            12.530396,
            55.678754
          ],
          [
            12.528478,
            55.678987
          ],
          [
            12.527721,
            55.679057
          ],
          [
            12.526126,
            55.67926
          ],
          [
            12.52453,
            55.679463
          ],
          [
            12.523803,
            55.679551
          ],
          [
            12.523501,
            55.679576
          ],
          [
            12.523225,
            55.67957
          ],
          [
            12.522846,
            55.679534
          ],
          [
            12.521379,
            55.67936
          ],
          [
            12.521841,
            55.680416
          ],
          [
            12.522018,
            55.680721
          ],
          [
            12.522134,
            55.680828
          ],
          [
            12.522671,
            55.681552
          ],
          [
            12.523315,
            55.682391
          ],
          [
            12.52396,
            55.683229
          ],
          [
            12.524604,
            55.684068
          ],
          [
            12.524659,
            55.684278
          ],
          [
            12.525616,
            55.68549
          ],
          [
            12.52606,
            55.686055
          ],
          [
            12.526205,
            55.686192
          ],
          [
            12.526684,
            55.686829
          ],
          [
            12.526734,
            55.686949
          ],
          [
            12.527193,
            55.687501
          ],
          [
            12.527287,
            55.687595
          ],
          [
            12.527499,
            55.687864
          ],
          [
            12.527662,
            55.687956
          ],
          [
            12.527775,
            55.688097
          ],
          [
            12.529051,
            55.68945
          ],
          [
            12.52997,
            55.690425
          ],
          [
            12.530788,
            55.691291
          ],
          [
            12.531065,
            55.691583
          ],
          [
            12.531323,
            55.691874
          ],
          [
            12.531467,
            55.69201
          ],
          [
            12.531846,
            55.692413
          ],
          [
            12.532369,
            55.692998
          ],
          [
            12.53293,
            55.693616
          ],
          [
            12.533934,
            55.69469
          ],
          [
            12.534199,
            55.694991
          ],
          [
            12.534616,
            55.695416
          ],
          [
            12.534942,
            55.695783
          ],
          [
            12.535248,
            55.69609
          ],
          [
            12.535479,
            55.696351
          ],
          [
            12.535695,
            55.696638
          ],
          [
            12.535941,
            55.696657
          ],
          [
            12.536521,
            55.696728
          ],
          [
            12.537566,
            55.696848
          ],
          [
            12.538036,
            55.69691
          ],
          [
            12.538354,
            55.696933
          ],
          [
            12.53884,
            55.697
          ],
          [
            12.53918,
            55.697044
          ],
          [
            12.539671,
            55.697102
          ],
          [
            12.539982,
            55.69714
          ],
          [
            12.540234,
            55.697175
          ],
          [
            12.540507,
            55.697229
          ],
          [
            12.540811,
            55.697252
          ],
          [
            12.541063,
            55.697306
          ],
          [
            12.541389,
            55.697327
          ],
          [
            12.541714,
            55.697353
          ],
          [
            12.542092,
            55.697418
          ],
          [
            12.543274,
            55.697557
          ],
          [
            12.543822,
            55.697646
          ],
          [
            12.545109,
            55.696764
          ],
          [
            12.545649,
            55.696381
          ],
          [
            12.54567,
            55.69639
          ],
          [
            12.54666,
            55.69577
          ],
          [
            12.54734,
            55.69532
          ],
          [
            12.54802,
            55.69487
          ],
          [
            12.549059,
            55.694162
          ],
          [
            12.550484,
            55.693225
          ],
          [
            12.55191,
            55.692288
          ],
          [
            12.552453,
            55.691913
          ],
          [
            12.553029,
            55.691531
          ],
          [
            12.553954,
            55.690921
          ],
          [
            12.55456,
            55.690529
          ],
          [
            12.555048,
            55.690189
          ],
          [
            12.55581,
            55.689716
          ],
          [
            12.557415,
            55.689121
          ],
          [
            12.55812,
            55.688842
          ],
          [
            12.559598,
            55.688273
          ],
          [
            12.561027,
            55.68776
          ],
          [
            12.561762,
            55.687475
          ],
          [
            12.561925,
            55.687396
          ],
          [
            12.562425,
            55.687211
          ],
          [
            12.562973,
            55.687014
          ],
          [
            12.56317,
            55.686955
          ],
          [
            12.564418,
            55.686487
          ],
          [
            12.565235,
            55.686212
          ],
          [
            12.566737,
            55.685591
          ],
          [
            12.56824,
            55.684969
          ],
          [
            12.569191,
            55.685677
          ],
          [
            12.570104,
            55.686417
          ],
          [
            12.571179,
            55.687141
          ],
          [
            12.572254,
            55.687865
          ],
          [
            12.573776,
            55.688851
          ],
          [
            12.574365,
            55.689452
          ],
          [
            12.574917,
            55.690074
          ],
          [
            12.575526,
            55.690739
          ],
          [
            12.575925,
            55.691189
          ],
          [
            12.576192,
            55.691425
          ],
          [
            12.576468,
            55.691746
          ],
          [
            12.576648,
            55.692004
          ],
          [
            12.576918,
            55.692274
          ],
          [
            12.577219,
            55.692626
          ],
          [
            12.577523,
            55.692926
          ],
          [
            12.577975,
            55.693406
          ],
          [
            12.578413,
            55.693974
          ],
          [
            12.57866,
            55.694328
          ],
          [
            12.579364,
            55.695036
          ],
          [
            12.58006,
            55.695735
          ],
          [
            12.579847,
            55.696055
          ],
          [
            12.579899,
            55.696082
          ],
          [
            12.57976,
            55.696262
          ],
          [
            12.579523,
            55.696647
          ],
          [
            12.579402,
            55.696961
          ],
          [
            12.579126,
            55.697399
          ],
          [
            12.578597,
            55.698208
          ],
          [
            12.578041,
            55.699104
          ],
          [
            12.576872,
            55.69912
          ],
          [
            12.576459,
            55.699153
          ],
          [
            12.576278,
            55.699215
          ],
          [
            12.576005,
            55.699369
          ],
          [
            12.575865,
            55.699421
          ],
          [
            12.575586,
            55.699572
          ],
          [
            12.575458,
            55.699687
          ],
          [
            12.574201,
            55.700365
          ],
          [
            12.572943,
            55.701043
          ],
          [
            12.572728,
            55.701204
          ],
          [
            12.571428,
            55.701885
          ],
          [
            12.570127,
            55.702566
          ],
          [
            12.568827,
            55.703246
          ]
        ]
      }
    }
  ]
}