{
  "type": "FeatureCollection",
  "features": [
    {
      "type": "Feature",
      "properties": {
        "name": "AJ Bell Great North Run",
        "source": "Reference GPX validated against event course",
        "status": "reference"
      },
      "geometry": {
        "type": "LineString",
        "coordinates": [
          [
            -1.6228200000000002,
            54.98398
          ],
          [
            -1.6220549962160684,
            54.98378500238272
          ],
          [
            -1.6212900000000001,
            54.98359000000001
          ],
          [
            -1.62026,
            54.983320000000006
          ],
          [
            -1.61925,
            54.98310000000001
          ],
          [
            -1.61803,
            54.98295
          ],
          [
            -1.6174600000000001,
            54.982910000000004
          ],
          [
            -1.6169200000000001,
            54.98290000000001
          ],
          [
            -1.61603,
            54.98292000000001
          ],
          [
            -1.6150100013505688,
            54.982980004276996
          ],
          [
            -1.61399,
            54.98304
          ],
          [
            -1.61345,
            54.983050000000006
          ],
          [
            -1.61311,
            54.98303000000001
          ],
          [
            -1.61257,
            54.982960000000006
          ],
          [
            -1.6120100000000002,
            54.982870000000005
          ],
          [
            -1.6122,
            54.98290000000001
          ],
          [
            -1.6113000000000002,
            54.982710000000004
          ],
          [
            -1.610474995328847,
            54.98248000280677
          ],
          [
            -1.60965,
            54.98225000000001
          ],
          [
            -1.6084800000000001,
            54.98180000000001
          ],
          [
            -1.6078649949093526,
            54.98147500149197
          ],
          [
            -1.60725,
            54.98115000000001
          ],
          [
            -1.60681,
            54.98078
          ],
          [
            -1.60606,
            54.98001000000001
          ],
          [
            -1.6056700000000002,
            54.97952000000001
          ],
          [
            -1.6056700000000002,
            54.979510000000005
          ],
          [
            -1.6054300000000001,
            54.97923
          ],
          [
            -1.60515,
            54.97874
          ],
          [
            -1.60508,
            54.978370000000005
          ],
          [
            -1.60511,
            54.97815000000001
          ],
          [
            -1.60528,
            54.977720000000005
          ],
          [
            -1.60572,
            54.97690000000001
          ],
          [
            -1.6059350025306451,
            54.97642000027768
          ],
          [
            -1.6061500000000002,
            54.97594
          ],
          [
            -1.60633,
            54.975500000000004
          ],
          [
            -1.6065900000000002,
            54.974700000000006
          ],
          [
            -1.60671,
            54.9742
          ],
          [
            -1.6067500000000001,
            54.97397
          ],
          [
            -1.60678,
            54.973690000000005
          ],
          [
            -1.60678,
            54.973400000000005
          ],
          [
            -1.60681,
            54.973110000000005
          ],
          [
            -1.60691,
            54.97281
          ],
          [
            -1.6070200000000001,
            54.97258000000001
          ],
          [
            -1.60721,
            54.97236
          ],
          [
            -1.607810008257039,
            54.97181000143983
          ],
          [
            -1.6084100000000001,
            54.97126000000001
          ],
          [
            -1.60847,
            54.971120000000006
          ],
          [
            -1.6085,
            54.970940000000006
          ],
          [
            -1.6085,
            54.97070000000001
          ],
          [
            -1.60847,
            54.97059
          ],
          [
            -1.6081400000000001,
            54.97012
          ],
          [
            -1.6081,
            54.96998000000001
          ],
          [
            -1.6074059524689055,
            54.96929200792219
          ],
          [
            -1.60671192871452,
            54.968604011892836
          ],
          [
            -1.606017928735557,
            54.96791601191218
          ],
          [
            -1.6053239525307326,
            54.967228007980474
          ],
          [
            -1.6046300000000002,
            54.96654
          ],
          [
            -1.6039,
            54.96585
          ],
          [
            -1.60362,
            54.96571
          ],
          [
            -1.6033700000000002,
            54.965540000000004
          ],
          [
            -1.6030300000000002,
            54.96535000000001
          ],
          [
            -1.6028200000000001,
            54.96526000000001
          ],
          [
            -1.6021400000000001,
            54.965050000000005
          ],
          [
            -1.60189,
            54.965
          ],
          [
            -1.6013600000000001,
            54.964980000000004
          ],
          [
            -1.60101,
            54.96488000000001
          ],
          [
            -1.6005900000000002,
            54.964740000000006
          ],
          [
            -1.60006,
            54.96453
          ],
          [
            -1.5996500000000002,
            54.964290000000005
          ],
          [
            -1.5991900000000001,
            54.963570000000004
          ],
          [
            -1.59881,
            54.96282000000001
          ],
          [
            -1.5984600000000002,
            54.962450000000004
          ],
          [
            -1.5977700000000001,
            54.962250000000004
          ],
          [
            -1.59681,
            54.96222
          ],
          [
            -1.5968200000000001,
            54.962210000000006
          ],
          [
            -1.595506680768486,
            54.96242668082828
          ],
          [
            -1.5941933473707666,
            54.96264334750564
          ],
          [
            -1.59288,
            54.962860000000006
          ],
          [
            -1.5926000000000002,
            54.96289
          ],
          [
            -1.5925900000000002,
            54.962900000000005
          ],
          [
            -1.5918500000000002,
            54.962880000000006
          ],
          [
            -1.5912600000000001,
            54.962830000000004
          ],
          [
            -1.5902500000000002,
            54.962480000000006
          ],
          [
            -1.59024,
            54.962480000000006
          ],
          [
            -1.589489993144513,
            54.9621150022872
          ],
          [
            -1.58874,
            54.96175
          ],
          [
            -1.58823,
            54.96152000000001
          ],
          [
            -1.5877400000000002,
            54.96135
          ],
          [
            -1.58708,
            54.96121
          ],
          [
            -1.5867600000000002,
            54.96117
          ],
          [
            -1.5856149952714906,
            54.96100500537433
          ],
          [
            -1.58447,
            54.960840000000005
          ],
          [
            -1.58376,
            54.9607
          ],
          [
            -1.58275,
            54.96041
          ],
          [
            -1.5815466037576782,
            54.95999002969592
          ],
          [
            -1.5803432326726616,
            54.9595700475106
          ],
          [
            -1.5791398867447435,
            54.95915005344448
          ],
          [
            -1.577936565973717,
            54.95873004749799
          ],
          [
            -1.576733270359376,
            54.95831002967156
          ],
          [
            -1.57553,
            54.957890000000006
          ],
          [
            -1.5743266393021966,
            54.95743334520904
          ],
          [
            -1.573123305955733,
            54.95697667853721
          ],
          [
            -1.5719200000000002,
            54.956520000000005
          ],
          [
            -1.57095,
            54.956210000000006
          ],
          [
            -1.56959,
            54.955870000000004
          ],
          [
            -1.5686449957510429,
            54.955690003660564
          ],
          [
            -1.5677,
            54.955510000000004
          ],
          [
            -1.5663899942348551,
            54.955330007054414
          ],
          [
            -1.56508,
            54.95515
          ],
          [
            -1.56455,
            54.955040000000004
          ],
          [
            -1.5642,
            54.954950000000004
          ],
          [
            -1.56356,
            54.954730000000005
          ],
          [
            -1.5627449925295962,
            54.95436500269451
          ],
          [
            -1.56193,
            54.95400000000001
          ],
          [
            -1.5611400000000002,
            54.95373000000001
          ],
          [
            -1.56072,
            54.953610000000005
          ],
          [
            -1.5598200000000002,
            54.953410000000005
          ],
          [
            -1.5586399951406995,
            54.953240005731516
          ],
          [
            -1.55746,
            54.953070000000004
          ],
          [
            -1.55675,
            54.95295
          ],
          [
            -1.5561800000000001,
            54.952830000000006
          ],
          [
            -1.55586,
            54.95273
          ],
          [
            -1.5555100000000002,
            54.952600000000004
          ],
          [
            -1.55475,
            54.95225000000001
          ],
          [
            -1.5537400000000001,
            54.95183
          ],
          [
            -1.55342,
            54.95168
          ],
          [
            -1.55319,
            54.95161
          ],
          [
            -1.55186,
            54.951330000000006
          ],
          [
            -1.55139,
            54.951190000000004
          ],
          [
            -1.55095,
            54.95103
          ],
          [
            -1.5502899943872384,
            54.950685001814584
          ],
          [
            -1.54963,
            54.950340000000004
          ],
          [
            -1.5487300000000002,
            54.94982
          ],
          [
            -1.547959990973784,
            54.94935500236113
          ],
          [
            -1.54719,
            54.948890000000006
          ],
          [
            -1.54651,
            54.948530000000005
          ],
          [
            -1.54587,
            54.948240000000006
          ],
          [
            -1.54506,
            54.947950000000006
          ],
          [
            -1.54424,
            54.94771000000001
          ],
          [
            -1.54295,
            54.94742
          ],
          [
            -1.5420199964426227,
            54.94725500359474
          ],
          [
            -1.54109,
            54.94709
          ],
          [
            -1.54,
            54.94693
          ],
          [
            -1.5390199978413397,
            54.94684000394372
          ],
          [
            -1.53804,
            54.94675
          ],
          [
            -1.5368966639707209,
            54.946703344058506
          ],
          [
            -1.5357533305957494,
            54.94665667739014
          ],
          [
            -1.53461,
            54.94661000000001
          ],
          [
            -1.53309,
            54.94657
          ],
          [
            -1.53238,
            54.946580000000004
          ],
          [
            -1.5311675042739128,
            54.946627518096896
          ],
          [
            -1.5299550056816391,
            54.946675024129874
          ],
          [
            -1.5287425042238947,
            54.946722518098895
          ],
          [
            -1.52753,
            54.94677000000001
          ],
          [
            -1.5266600000000001,
            54.94679000000001
          ],
          [
            -1.52523,
            54.94675
          ],
          [
            -1.52381,
            54.94666
          ],
          [
            -1.522729995325548,
            54.946573342903314
          ],
          [
            -1.521649995307727,
            54.946486676235196
          ],
          [
            -1.5205700000000002,
            54.946400000000004
          ],
          [
            -1.5195,
            54.946400000000004
          ],
          [
            -1.5183433300872584,
            54.94634334431262
          ],
          [
            -1.5171866634352085,
            54.946286677646654
          ],
          [
            -1.5160300000000002,
            54.94623000000001
          ],
          [
            -1.5160200000000001,
            54.946270000000005
          ],
          [
            -1.5160300000000002,
            54.94623000000001
          ],
          [
            -1.5157100000000001,
            54.946250000000006
          ],
          [
            -1.5156100000000001,
            54.94628
          ],
          [
            -1.5153100000000002,
            54.94644
          ],
          [
            -1.5151000000000001,
            54.94662
          ],
          [
            -1.514720004028272,
            54.94704000052845
          ],
          [
            -1.51434,
            54.94746000000001
          ],
          [
            -1.5138800000000001,
            54.947900000000004
          ],
          [
            -1.51356,
            54.948170000000005
          ],
          [
            -1.51265,
            54.948780000000006
          ],
          [
            -1.5116780501012992,
            54.94929801550742
          ],
          [
            -1.5107060751500518,
            54.949816023262905
          ],
          [
            -1.5097340751455057,
            54.950334023266066
          ],
          [
            -1.508762050086908,
            54.950852015516595
          ],
          [
            -1.5077900000000002,
            54.951370000000004
          ],
          [
            -1.50706,
            54.95174000000001
          ],
          [
            -1.5066300000000001,
            54.951980000000006
          ],
          [
            -1.50648,
            54.952130000000004
          ],
          [
            -1.50645,
            54.95223000000001
          ],
          [
            -1.5063900000000001,
            54.95228
          ],
          [
            -1.50624,
            54.952360000000006
          ],
          [
            -1.5061300000000002,
            54.95239
          ],
          [
            -1.50601,
            54.952400000000004
          ],
          [
            -1.5055800000000001,
            54.95253
          ],
          [
            -1.50465252926509,
            54.952952510581866
          ],
          [
            -1.503725039029016,
            54.95337501410538
          ],
          [
            -1.5027975292913864,
            54.95379751057032
          ],
          [
            -1.50187,
            54.95422000000001
          ],
          [
            -1.50085,
            54.95458000000001
          ],
          [
            -1.4995066935840293,
            54.954983348153995
          ],
          [
            -1.4981633602027058,
            54.9553866815019
          ],
          [
            -1.49682,
            54.95579000000001
          ],
          [
            -1.49598,
            54.95613
          ],
          [
            -1.49513,
            54.956570000000006
          ],
          [
            -1.4944400072607122,
            54.95698000182218
          ],
          [
            -1.4937500000000001,
            54.957390000000004
          ],
          [
            -1.4930900063695969,
            54.95777000171333
          ],
          [
            -1.4924300000000001,
            54.95815
          ],
          [
            -1.49144,
            54.958780000000004
          ],
          [
            -1.490795007198147,
            54.95923000172455
          ],
          [
            -1.49015,
            54.959680000000006
          ],
          [
            -1.4893200000000002,
            54.960300000000004
          ],
          [
            -1.48869,
            54.96072
          ],
          [
            -1.48784,
            54.96125000000001
          ],
          [
            -1.4874800000000001,
            54.96146
          ],
          [
            -1.4868000000000001,
            54.961830000000006
          ],
          [
            -1.48608,
            54.962160000000004
          ],
          [
            -1.48547,
            54.962390000000006
          ],
          [
            -1.48492,
            54.96257000000001
          ],
          [
            -1.48397,
            54.96282000000001
          ],
          [
            -1.4833,
            54.96296
          ],
          [
            -1.4819200068822822,
            54.96316000781028
          ],
          [
            -1.4805400000000002,
            54.96336
          ],
          [
            -1.47984,
            54.9635
          ],
          [
            -1.4792,
            54.96367000000001
          ],
          [
            -1.47869,
            54.96383
          ],
          [
            -1.4774800121270637,
            54.96423500602979
          ],
          [
            -1.4762700000000002,
            54.96464
          ],
          [
            -1.4754750054956558,
            54.96493000268139
          ],
          [
            -1.4746800000000002,
            54.96522
          ],
          [
            -1.47455,
            54.96531
          ],
          [
            -1.47449,
            54.96538
          ],
          [
            -1.47449,
            54.96542
          ],
          [
            -1.4744100000000002,
            54.96558
          ],
          [
            -1.4743000000000002,
            54.96571
          ],
          [
            -1.4741600000000001,
            54.965790000000005
          ],
          [
            -1.47374,
            54.96594
          ],
          [
            -1.4735500000000001,
            54.96595000000001
          ],
          [
            -1.4734,
            54.965920000000004
          ],
          [
            -1.4731100000000001,
            54.965900000000005
          ],
          [
            -1.47286,
            54.965920000000004
          ],
          [
            -1.4716,
            54.96640000000001
          ],
          [
            -1.4707050070880685,
            54.96672000330072
          ],
          [
            -1.46981,
            54.967040000000004
          ],
          [
            -1.4689100078508914,
            54.967395003363265
          ],
          [
            -1.46801,
            54.96775
          ],
          [
            -1.4678300000000002,
            54.967850000000006
          ],
          [
            -1.4676500000000001,
            54.96801000000001
          ],
          [
            -1.46757,
            54.96810000000001
          ],
          [
            -1.4674,
            54.96824
          ],
          [
            -1.4672,
            54.96831
          ],
          [
            -1.46693,
            54.968300000000006
          ],
          [
            -1.46676,
            54.968250000000005
          ],
          [
            -1.46665,
            54.968180000000004
          ],
          [
            -1.4666100000000002,
            54.968070000000004
          ],
          [
            -1.46662,
            54.96797
          ],
          [
            -1.4665800000000002,
            54.96786
          ],
          [
            -1.46649,
            54.967760000000006
          ],
          [
            -1.46621,
            54.96761000000001
          ],
          [
            -1.46567,
            54.96737
          ],
          [
            -1.4652,
            54.967180000000006
          ],
          [
            -1.46449,
            54.96696000000001
          ],
          [
            -1.4634449925359165,
            54.966680004431225
          ],
          [
            -1.4624000000000001,
            54.96640000000001
          ],
          [
            -1.461383319008612,
            54.96611667515114
          ],
          [
            -1.4603666523591303,
            54.96583334182255
          ],
          [
            -1.4593500000000001,
            54.96555000000001
          ],
          [
            -1.4580099867767196,
            54.96515500735167
          ],
          [
            -1.4566700000000001,
            54.964760000000005
          ],
          [
            -1.45656,
            54.964740000000006
          ],
          [
            -1.4565700000000001,
            54.964740000000006
          ],
          [
            -1.45619,
            54.964710000000004
          ],
          [
            -1.45577,
            54.96459
          ],
          [
            -1.45558,
            54.96455
          ],
          [
            -1.45493,
            54.96446
          ],
          [
            -1.4540300000000002,
            54.96441000000001
          ],
          [
            -1.4531,
            54.96443000000001
          ],
          [
            -1.4526700000000001,
            54.96446
          ],
          [
            -1.4513800000000001,
            54.96466
          ],
          [
            -1.4504400000000002,
            54.96484
          ],
          [
            -1.4491475262867501,
            54.96511252056116
          ],
          [
            -1.4478550350374855,
            54.96538502741746
          ],
          [
            -1.4465625262526731,
            54.96565752056857
          ],
          [
            -1.44527,
            54.96593000000001
          ],
          [
            -1.444440002955752,
            54.96608000285179
          ],
          [
            -1.44361,
            54.96623
          ],
          [
            -1.4422300244765773,
            54.96646752343522
          ],
          [
            -1.4408500326336913,
            54.96670503124739
          ],
          [
            -1.439470024472079,
            54.96694252343619
          ],
          [
            -1.43809,
            54.967180000000006
          ],
          [
            -1.4378700000000002,
            54.96725000000001
          ],
          [
            -1.4379600000000001,
            54.967220000000005
          ],
          [
            -1.4375600000000002,
            54.96743000000001
          ],
          [
            -1.4366,
            54.96744
          ],
          [
            -1.4366100000000002,
            54.96744
          ],
          [
            -1.4352450265430095,
            54.96770002292105
          ],
          [
            -1.4338800354140269,
            54.96796003055707
          ],
          [
            -1.432515026613693,
            54.9682200229078
          ],
          [
            -1.4311500000000001,
            54.96848000000001
          ],
          [
            -1.43026,
            54.96867
          ],
          [
            -1.4292600061389227,
            54.96891000406252
          ],
          [
            -1.42826,
            54.969150000000006
          ],
          [
            -1.42738,
            54.96938
          ],
          [
            -1.4259800111128844,
            54.9697000080489
          ],
          [
            -1.4245800000000002,
            54.970020000000005
          ],
          [
            -1.4233575266566292,
            54.970312518402736
          ],
          [
            -1.4221350355063556,
            54.97060502454571
          ],
          [
            -1.4209125265494726,
            54.970897518428615
          ],
          [
            -1.4196900000000001,
            54.97119000000001
          ],
          [
            -1.4184850088566239,
            54.97148500595438
          ],
          [
            -1.41728,
            54.97178
          ],
          [
            -1.41717,
            54.97186000000001
          ],
          [
            -1.4172,
            54.97196
          ],
          [
            -1.41717,
            54.972030000000004
          ],
          [
            -1.41711,
            54.97209
          ],
          [
            -1.41701,
            54.972150000000006
          ],
          [
            -1.41687,
            54.972190000000005
          ],
          [
            -1.4165800000000002,
            54.972170000000006
          ],
          [
            -1.4163700000000001,
            54.97205
          ],
          [
            -1.4159400000000002,
            54.971920000000004
          ],
          [
            -1.4147574954056001,
            54.971867517208004
          ],
          [
            -1.4135749939021605,
            54.971815022945236
          ],
          [
            -1.4123924954903433,
            54.971762517211744
          ],
          [
            -1.41121,
            54.97171
          ],
          [
            -1.41111,
            54.97169
          ],
          [
            -1.4106,
            54.971740000000004
          ],
          [
            -1.4101100000000002,
            54.971680000000006
          ],
          [
            -1.41013,
            54.971680000000006
          ],
          [
            -1.40975,
            54.97169
          ],
          [
            -1.4086800000000002,
            54.9718
          ],
          [
            -1.40765,
            54.97195000000001
          ],
          [
            -1.40632,
            54.97218
          ],
          [
            -1.4060700000000002,
            54.97229
          ],
          [
            -1.40596,
            54.972280000000005
          ],
          [
            -1.4058700000000002,
            54.97232
          ],
          [
            -1.40562,
            54.97232
          ],
          [
            -1.4045600093750696,
            54.97249667587561
          ],
          [
            -1.4035000094238939,
            54.97267334253417
          ],
          [
            -1.4024400000000001,
            54.97285
          ],
          [
            -1.4009950067224088,
            54.9730350085558
          ],
          [
            -1.39955,
            54.973220000000005
          ],
          [
            -1.3986400040589675,
            54.973395003378556
          ],
          [
            -1.3977300000000001,
            54.97357
          ],
          [
            -1.3966733452871407,
            54.97379667582033
          ],
          [
            -1.3956166786456703,
            54.97402334248164
          ],
          [
            -1.39456,
            54.974250000000005
          ],
          [
            -1.393470013340058,
            54.97449334305025
          ],
          [
            -1.3923800134701034,
            54.974736676354595
          ],
          [
            -1.3912900000000001,
            54.97498
          ],
          [
            -1.3904800000000002,
            54.975210000000004
          ],
          [
            -1.38935,
            54.97560000000001
          ],
          [
            -1.3889200000000002,
            54.975770000000004
          ],
          [
            -1.38826,
            54.976060000000004
          ],
          [
            -1.38778,
            54.9763
          ],
          [
            -1.38683336001441,
            54.976866674040934
          ],
          [
            -1.3858866933092844,
            54.97743334073094
          ],
          [
            -1.38494,
            54.978
          ],
          [
            -1.3849600000000002,
            54.978
          ],
          [
            -1.38473,
            54.978280000000005
          ],
          [
            -1.3843100000000002,
            54.97842000000001
          ],
          [
            -1.3843200000000002,
            54.97842000000001
          ],
          [
            -1.3841100000000002,
            54.978500000000004
          ],
          [
            -1.3830500000000001,
            54.9791
          ],
          [
            -1.38304,
            54.979110000000006
          ],
          [
            -1.38284,
            54.97943000000001
          ],
          [
            -1.38325,
            54.979800000000004
          ],
          [
            -1.38324,
            54.979800000000004
          ],
          [
            -1.3842449859894952,
            54.980360004146526
          ],
          [
            -1.38525,
            54.980920000000005
          ],
          [
            -1.38621498768786,
            54.98143500385479
          ],
          [
            -1.38718,
            54.981950000000005
          ],
          [
            -1.3882349866588861,
            54.98246000459437
          ],
          [
            -1.3892900000000001,
            54.98297
          ],
          [
            -1.39047,
            54.98350000000001
          ],
          [
            -1.39134,
            54.98387
          ],
          [
            -1.3925266404521486,
            54.984313344881905
          ],
          [
            -1.3937133071155345,
            54.98475667821422
          ],
          [
            -1.3949,
            54.985200000000006
          ],
          [
            -1.3961956171742476,
            54.985701469881846
          ],
          [
            -1.3974912667206008,
            54.98620292599551
          ],
          [
            -1.3987869486395819,
            54.98670436834039
          ],
          [
            -1.400082662931714,
            54.987205796915916
          ],
          [
            -1.4013784095975197,
            54.987707211721464
          ],
          [
            -1.4026741886375218,
            54.988208612756424
          ],
          [
            -1.4039700000000002,
            54.988710000000005
          ],
          [
            -1.40398,
            54.9887
          ],
          [
            -1.4050200000000002,
            54.989110000000004
          ]
        ]
      }
    }
  ]
}