{
  "type": "FeatureCollection",
  "features": [
    {
      "type": "Feature",
      "properties": {
        "name": "EDP Lisbon Half Marathon",
        "source": "Official event KML",
        "status": "reference"
      },
      "geometry": {
        "type": "LineString",
        "coordinates": [
          [
            -9.174849,
            38.679498
          ],
          [
            -9.176339,
            38.686164
          ],
          [
            -9.177479,
            38.69145
          ],
          [
            -9.178837,
            38.697848
          ],
          [
            -9.179546,
            38.700727
          ],
          [
            -9.179681,
            38.701686
          ],
          [
            -9.179664,
            38.702701
          ],
          [
            -9.17963,
            38.702935
          ],
          [
            -9.179443,
            38.70408
          ],
          [
            -9.179411,
            38.704215
          ],
          [
            -9.179308,
            38.704576
          ],
          [
            -9.179174,
            38.704968
          ],
          [
            -9.178441,
            38.706729
          ],
          [
            -9.17811,
            38.70758
          ],
          [
            -9.177931,
            38.708183
          ],
          [
            -9.177917,
            38.709127
          ],
          [
            -9.177841,
            38.710031
          ],
          [
            -9.177786,
            38.710485
          ],
          [
            -9.177755,
            38.710821
          ],
          [
            -9.177621,
            38.712517
          ],
          [
            -9.177533,
            38.713585
          ],
          [
            -9.177441,
            38.714504
          ],
          [
            -9.177321,
            38.715212
          ],
          [
            -9.17714,
            38.715778
          ],
          [
            -9.176343,
            38.717466
          ],
          [
            -9.176219,
            38.718011
          ],
          [
            -9.176221,
            38.718607
          ],
          [
            -9.176312,
            38.719041
          ],
          [
            -9.176183,
            38.719061
          ],
          [
            -9.176078,
            38.718171
          ],
          [
            -9.176206,
            38.717394
          ],
          [
            -9.176549,
            38.716609
          ],
          [
            -9.176817,
            38.716139
          ],
          [
            -9.177179,
            38.715375
          ],
          [
            -9.177353,
            38.714302
          ],
          [
            -9.177379,
            38.714037
          ],
          [
            -9.177466,
            38.713325
          ],
          [
            -9.177566,
            38.712021
          ],
          [
            -9.177613,
            38.711259
          ],
          [
            -9.177701,
            38.710711
          ],
          [
            -9.177729,
            38.709461
          ],
          [
            -9.177639,
            38.709447
          ],
          [
            -9.177329,
            38.710381
          ],
          [
            -9.177383,
            38.710596
          ],
          [
            -9.177499,
            38.710776
          ],
          [
            -9.177723,
            38.710961
          ],
          [
            -9.177891,
            38.711027
          ],
          [
            -9.178366,
            38.71109
          ],
          [
            -9.178686,
            38.710986
          ],
          [
            -9.179046,
            38.710788
          ],
          [
            -9.179211,
            38.710489
          ],
          [
            -9.179251,
            38.710209
          ],
          [
            -9.179291,
            38.709587
          ],
          [
            -9.179363,
            38.708367
          ],
          [
            -9.179329,
            38.707943
          ],
          [
            -9.179114,
            38.707581
          ],
          [
            -9.178657,
            38.707337
          ],
          [
            -9.17773,
            38.707108
          ],
          [
            -9.1765,
            38.706914
          ],
          [
            -9.174387,
            38.706674
          ],
          [
            -9.174095,
            38.706541
          ],
          [
            -9.174054,
            38.70644
          ],
          [
            -9.174185,
            38.705787
          ],
          [
            -9.174604,
            38.704385
          ],
          [
            -9.17478,
            38.703501
          ],
          [
            -9.174842,
            38.703085
          ],
          [
            -9.174818,
            38.702917
          ],
          [
            -9.174679,
            38.702822
          ],
          [
            -9.174531,
            38.702807
          ],
          [
            -9.174132,
            38.702814
          ],
          [
            -9.173913,
            38.702841
          ],
          [
            -9.173595,
            38.702938
          ],
          [
            -9.173175,
            38.70308
          ],
          [
            -9.171655,
            38.703477
          ],
          [
            -9.171077,
            38.703586
          ],
          [
            -9.170654,
            38.703622
          ],
          [
            -9.168149,
            38.703675
          ],
          [
            -9.165389,
            38.703645
          ],
          [
            -9.164334,
            38.703638
          ],
          [
            -9.16364,
            38.703674
          ],
          [
            -9.162849,
            38.703797
          ],
          [
            -9.16198,
            38.70396
          ],
          [
            -9.160996,
            38.704172
          ],
          [
            -9.160229,
            38.70443
          ],
          [
            -9.15891,
            38.705036
          ],
          [
            -9.158258,
            38.705343
          ],
          [
            -9.156217,
            38.70629
          ],
          [
            -9.155538,
            38.706503
          ],
          [
            -9.155158,
            38.70657
          ],
          [
            -9.155148,
            38.706513
          ],
          [
            -9.155773,
            38.706352
          ],
          [
            -9.156333,
            38.706145
          ],
          [
            -9.158939,
            38.704915
          ],
          [
            -9.159973,
            38.704457
          ],
          [
            -9.160461,
            38.704287
          ],
          [
            -9.160899,
            38.704138
          ],
          [
            -9.161304,
            38.704025
          ],
          [
            -9.161727,
            38.703944
          ],
          [
            -9.162377,
            38.703805
          ],
          [
            -9.163328,
            38.703623
          ],
          [
            -9.163839,
            38.703578
          ],
          [
            -9.164797,
            38.703562
          ],
          [
            -9.165602,
            38.703571
          ],
          [
            -9.16685,
            38.703575
          ],
          [
            -9.167496,
            38.703572
          ],
          [
            -9.168274,
            38.703559
          ],
          [
            -9.16945,
            38.70355
          ],
          [
            -9.16971,
            38.703557
          ],
          [
            -9.170626,
            38.703523
          ],
          [
            -9.170872,
            38.703489
          ],
          [
            -9.171337,
            38.703419
          ],
          [
            -9.171744,
            38.703332
          ],
          [
            -9.172553,
            38.703137
          ],
          [
            -9.173166,
            38.702958
          ],
          [
            -9.17369,
            38.702785
          ],
          [
            -9.17407,
            38.702601
          ],
          [
            -9.17507,
            38.701997
          ],
          [
            -9.175818,
            38.701636
          ],
          [
            -9.176271,
            38.701385
          ],
          [
            -9.177911,
            38.700578
          ],
          [
            -9.179805,
            38.699651
          ],
          [
            -9.180276,
            38.699451
          ],
          [
            -9.180688,
            38.699289
          ],
          [
            -9.181489,
            38.698991
          ],
          [
            -9.18222,
            38.698732
          ],
          [
            -9.183229,
            38.698429
          ],
          [
            -9.183643,
            38.698313
          ],
          [
            -9.184636,
            38.698077
          ],
          [
            -9.185237,
            38.697938
          ],
          [
            -9.185766,
            38.697841
          ],
          [
            -9.187134,
            38.69763
          ],
          [
            -9.187715,
            38.697543
          ],
          [
            -9.188195,
            38.697458
          ],
          [
            -9.188847,
            38.69734
          ],
          [
            -9.192765,
            38.696719
          ],
          [
            -9.193382,
            38.69664
          ],
          [
            -9.194182,
            38.696564
          ],
          [
            -9.196153,
            38.696435
          ],
          [
            -9.197025,
            38.696381
          ],
          [
            -9.198023,
            38.69629
          ],
          [
            -9.198505,
            38.696242
          ],
          [
            -9.199278,
            38.696108
          ],
          [
            -9.200373,
            38.695917
          ],
          [
            -9.201419,
            38.695734
          ],
          [
            -9.202631,
            38.695515
          ],
          [
            -9.203233,
            38.695404
          ],
          [
            -9.206027,
            38.694898
          ],
          [
            -9.208402,
            38.694474
          ],
          [
            -9.209226,
            38.694332
          ],
          [
            -9.209611,
            38.694299
          ],
          [
            -9.21125,
            38.694135
          ],
          [
            -9.212595,
            38.694007
          ],
          [
            -9.214221,
            38.693863
          ],
          [
            -9.215086,
            38.693793
          ],
          [
            -9.215711,
            38.693732
          ],
          [
            -9.216061,
            38.693702
          ],
          [
            -9.216463,
            38.693672
          ],
          [
            -9.216858,
            38.693641
          ],
          [
            -9.217329,
            38.693615
          ],
          [
            -9.217757,
            38.693644
          ],
          [
            -9.218123,
            38.693696
          ],
          [
            -9.21873,
            38.693878
          ],
          [
            -9.21963,
            38.694162
          ],
          [
            -9.220241,
            38.694352
          ],
          [
            -9.220795,
            38.694517
          ],
          [
            -9.221559,
            38.694822
          ],
          [
            -9.222307,
            38.695226
          ],
          [
            -9.223681,
            38.695995
          ],
          [
            -9.22676,
            38.697688
          ],
          [
            -9.227195,
            38.697888
          ],
          [
            -9.227901,
            38.698178
          ],
          [
            -9.228542,
            38.698341
          ],
          [
            -9.229111,
            38.698486
          ],
          [
            -9.22976,
            38.698616
          ],
          [
            -9.230189,
            38.698671
          ],
          [
            -9.230613,
            38.698712
          ],
          [
            -9.231164,
            38.698745
          ],
          [
            -9.231629,
            38.698742
          ],
          [
            -9.232363,
            38.698731
          ],
          [
            -9.23336,
            38.698728
          ],
          [
            -9.234509,
            38.698724
          ],
          [
            -9.234903,
            38.698721
          ],
          [
            -9.23535,
            38.69875
          ],
          [
            -9.236651,
            38.698864
          ],
          [
            -9.247935,
            38.699594
          ],
          [
            -9.247933,
            38.699674
          ],
          [
            -9.244501,
            38.699449
          ],
          [
            -9.242724,
            38.699337
          ],
          [
            -9.242619,
            38.699334
          ],
          [
            -9.242234,
            38.699318
          ],
          [
            -9.241004,
            38.699235
          ],
          [
            -9.238122,
            38.699037
          ],
          [
            -9.236153,
            38.698876
          ],
          [
            -9.23541,
            38.698821
          ],
          [
            -9.234711,
            38.698797
          ],
          [
            -9.233637,
            38.698809
          ],
          [
            -9.232323,
            38.698811
          ],
          [
            -9.231632,
            38.698826
          ],
          [
            -9.231088,
            38.698813
          ],
          [
            -9.230629,
            38.69878
          ],
          [
            -9.229465,
            38.698626
          ],
          [
            -9.228644,
            38.698459
          ],
          [
            -9.227256,
            38.698063
          ],
          [
            -9.226778,
            38.69783
          ],
          [
            -9.225214,
            38.696951
          ],
          [
            -9.222942,
            38.695695
          ],
          [
            -9.22252,
            38.695404
          ],
          [
            -9.22181,
            38.695015
          ],
          [
            -9.221415,
            38.694811
          ],
          [
            -9.220998,
            38.694667
          ],
          [
            -9.22025,
            38.694411
          ],
          [
            -9.218441,
            38.693854
          ],
          [
            -9.217987,
            38.693736
          ],
          [
            -9.217469,
            38.693686
          ],
          [
            -9.216795,
            38.693713
          ],
          [
            -9.215664,
            38.693823
          ],
          [
            -9.215322,
            38.693847
          ],
          [
            -9.213159,
            38.694008
          ],
          [
            -9.21121,
            38.69421
          ],
          [
            -9.209615,
            38.694356
          ],
          [
            -9.209078,
            38.694419
          ],
          [
            -9.208557,
            38.69452
          ],
          [
            -9.206902,
            38.694854
          ],
          [
            -9.206854,
            38.694905
          ],
          [
            -9.207079,
            38.695456
          ]
        ]
      }
    }
  ]
}