<?xml version="1.0" encoding="UTF-8"?>
<kml xmlns="http://www.opengis.net/kml/2.2">
  <Document>
    <name>EDP Lisbon Half Marathon 2026</name>
    <description/>
    <Style id="icon-1518-673AB7-normal">
      <IconStyle>
        <color>ffb73a67</color>
        <scale>1</scale>
        <Icon>
          <href>https://www.gstatic.com/mapspro/images/stock/503-wht-blank_maps.png</href>
        </Icon>
      </IconStyle>
      <LabelStyle>
        <scale>0</scale>
      </LabelStyle>
    </Style>
    <Style id="icon-1518-673AB7-highlight">
      <IconStyle>
        <color>ffb73a67</color>
        <scale>1</scale>
        <Icon>
          <href>https://www.gstatic.com/mapspro/images/stock/503-wht-blank_maps.png</href>
        </Icon>
      </IconStyle>
      <LabelStyle>
        <scale>1</scale>
      </LabelStyle>
    </Style>
    <StyleMap id="icon-1518-673AB7">
      <Pair>
        <key>normal</key>
        <styleUrl>#icon-1518-673AB7-normal</styleUrl>
      </Pair>
      <Pair>
        <key>highlight</key>
        <styleUrl>#icon-1518-673AB7-highlight</styleUrl>
      </Pair>
    </StyleMap>
    <Style id="icon-1574-673AB7-nodesc-normal">
      <IconStyle>
        <color>ffb73a67</color>
        <scale>1</scale>
        <Icon>
          <href>https://www.gstatic.com/mapspro/images/stock/503-wht-blank_maps.png</href>
        </Icon>
      </IconStyle>
      <LabelStyle>
        <scale>0</scale>
      </LabelStyle>
      <BalloonStyle>
        <text><![CDATA[<h3>$[name]</h3>]]></text>
      </BalloonStyle>
    </Style>
    <Style id="icon-1574-673AB7-nodesc-highlight">
      <IconStyle>
        <color>ffb73a67</color>
        <scale>1</scale>
        <Icon>
          <href>https://www.gstatic.com/mapspro/images/stock/503-wht-blank_maps.png</href>
        </Icon>
      </IconStyle>
      <LabelStyle>
        <scale>1</scale>
      </LabelStyle>
      <BalloonStyle>
        <text><![CDATA[<h3>$[name]</h3>]]></text>
      </BalloonStyle>
    </Style>
    <StyleMap id="icon-1574-673AB7-nodesc">
      <Pair>
        <key>normal</key>
        <styleUrl>#icon-1574-673AB7-nodesc-normal</styleUrl>
      </Pair>
      <Pair>
        <key>highlight</key>
        <styleUrl>#icon-1574-673AB7-nodesc-highlight</styleUrl>
      </Pair>
    </StyleMap>
    <Style id="icon-1661-673AB7-nodesc-normal">
      <IconStyle>
        <color>ffb73a67</color>
        <scale>1</scale>
        <Icon>
          <href>https://www.gstatic.com/mapspro/images/stock/503-wht-blank_maps.png</href>
        </Icon>
      </IconStyle>
      <LabelStyle>
        <scale>0</scale>
      </LabelStyle>
      <BalloonStyle>
        <text><![CDATA[<h3>$[name]</h3>]]></text>
      </BalloonStyle>
    </Style>
    <Style id="icon-1661-673AB7-nodesc-highlight">
      <IconStyle>
        <color>ffb73a67</color>
        <scale>1</scale>
        <Icon>
          <href>https://www.gstatic.com/mapspro/images/stock/503-wht-blank_maps.png</href>
        </Icon>
      </IconStyle>
      <LabelStyle>
        <scale>1</scale>
      </LabelStyle>
      <BalloonStyle>
        <text><![CDATA[<h3>$[name]</h3>]]></text>
      </BalloonStyle>
    </Style>
    <StyleMap id="icon-1661-673AB7-nodesc">
      <Pair>
        <key>normal</key>
        <styleUrl>#icon-1661-673AB7-nodesc-normal</styleUrl>
      </Pair>
      <Pair>
        <key>highlight</key>
        <styleUrl>#icon-1661-673AB7-nodesc-highlight</styleUrl>
      </Pair>
    </StyleMap>
    <Style id="icon-1680-673AB7-nodesc-normal">
      <IconStyle>
        <color>ffb73a67</color>
        <scale>1</scale>
        <Icon>
          <href>https://www.gstatic.com/mapspro/images/stock/503-wht-blank_maps.png</href>
        </Icon>
      </IconStyle>
      <LabelStyle>
        <scale>0</scale>
      </LabelStyle>
      <BalloonStyle>
        <text><![CDATA[<h3>$[name]</h3>]]></text>
      </BalloonStyle>
    </Style>
    <Style id="icon-1680-673AB7-nodesc-highlight">
      <IconStyle>
        <color>ffb73a67</color>
        <scale>1</scale>
        <Icon>
          <href>https://www.gstatic.com/mapspro/images/stock/503-wht-blank_maps.png</href>
        </Icon>
      </IconStyle>
      <LabelStyle>
        <scale>1</scale>
      </LabelStyle>
      <BalloonStyle>
        <text><![CDATA[<h3>$[name]</h3>]]></text>
      </BalloonStyle>
    </Style>
    <StyleMap id="icon-1680-673AB7-nodesc">
      <Pair>
        <key>normal</key>
        <styleUrl>#icon-1680-673AB7-nodesc-normal</styleUrl>
      </Pair>
      <Pair>
        <key>highlight</key>
        <styleUrl>#icon-1680-673AB7-nodesc-highlight</styleUrl>
      </Pair>
    </StyleMap>
    <Style id="line-673AB7-2000-nodesc-normal">
      <LineStyle>
        <color>ffb73a67</color>
        <width>2</width>
      </LineStyle>
      <BalloonStyle>
        <text><![CDATA[<h3>$[name]</h3>]]></text>
      </BalloonStyle>
    </Style>
    <Style id="line-673AB7-2000-nodesc-highlight">
      <LineStyle>
        <color>ffb73a67</color>
        <width>3</width>
      </LineStyle>
      <BalloonStyle>
        <text><![CDATA[<h3>$[name]</h3>]]></text>
      </BalloonStyle>
    </Style>
    <StyleMap id="line-673AB7-2000-nodesc">
      <Pair>
        <key>normal</key>
        <styleUrl>#line-673AB7-2000-nodesc-normal</styleUrl>
      </Pair>
      <Pair>
        <key>highlight</key>
        <styleUrl>#line-673AB7-2000-nodesc-highlight</styleUrl>
      </Pair>
    </StyleMap>
    <Folder>
      <name>35ª EDP Meia Maratona Lisboa JT</name>
      <Placemark>
        <name>Partida Meia Maratona</name>
        <styleUrl>#icon-1574-673AB7-nodesc</styleUrl>
        <Point>
          <coordinates>
            -9.174854,38.679501,0
          </coordinates>
        </Point>
      </Placemark>
      <Placemark>
        <name>M.M. Lisboa ponte  2026 final</name>
        <styleUrl>#line-673AB7-2000-nodesc</styleUrl>
        <LineString>
          <tessellate>1</tessellate>
          <coordinates>
            -9.174849,38.679498,0
            -9.176339,38.686164,0
            -9.177479,38.69145,0
            -9.178837,38.697848,0
            -9.179546,38.700727,0
            -9.179681,38.701686,0
            -9.179664,38.702701,0
            -9.17963,38.702935,0
            -9.179443,38.70408,0
            -9.179411,38.704215,0
            -9.179308,38.704576,0
            -9.179174,38.704968,0
            -9.178441,38.706729,0
            -9.17811,38.70758,0
            -9.177931,38.708183,0
            -9.177917,38.709127,0
            -9.177841,38.710031,0
            -9.177786,38.710485,0
            -9.177755,38.710821,0
            -9.177621,38.712517,0
            -9.177533,38.713585,0
            -9.177441,38.714504,0
            -9.177321,38.715212,0
            -9.17714,38.715778,0
            -9.176343,38.717466,0
            -9.176219,38.718011,0
            -9.176221,38.718607,0
            -9.176312,38.719041,0
            -9.176183,38.719061,0
            -9.176078,38.718171,0
            -9.176206,38.717394,0
            -9.176549,38.716609,0
            -9.176817,38.716139,0
            -9.177179,38.715375,0
            -9.177353,38.714302,0
            -9.177379,38.714037,0
            -9.177466,38.713325,0
            -9.177566,38.712021,0
            -9.177613,38.711259,0
            -9.177701,38.710711,0
            -9.177729,38.709461,0
            -9.177639,38.709447,0
            -9.177329,38.710381,0
            -9.177383,38.710596,0
            -9.177499,38.710776,0
            -9.177723,38.710961,0
            -9.177891,38.711027,0
            -9.178366,38.71109,0
            -9.178686,38.710986,0
            -9.179046,38.710788,0
            -9.179211,38.710489,0
            -9.179251,38.710209,0
            -9.179291,38.709587,0
            -9.179363,38.708367,0
            -9.179329,38.707943,0
            -9.179114,38.707581,0
            -9.178657,38.707337,0
            -9.17773,38.707108,0
            -9.1765,38.706914,0
            -9.174387,38.706674,0
            -9.174095,38.706541,0
            -9.174054,38.70644,0
            -9.174185,38.705787,0
            -9.174604,38.704385,0
            -9.17478,38.703501,0
            -9.174842,38.703085,0
            -9.174818,38.702917,0
            -9.174679,38.702822,0
            -9.174531,38.702807,0
            -9.174132,38.702814,0
            -9.173913,38.702841,0
            -9.173595,38.702938,0
            -9.173175,38.70308,0
            -9.171655,38.703477,0
            -9.171077,38.703586,0
            -9.170654,38.703622,0
            -9.168149,38.703675,0
            -9.165389,38.703645,0
            -9.164334,38.703638,0
            -9.16364,38.703674,0
            -9.162849,38.703797,0
            -9.16198,38.70396,0
            -9.160996,38.704172,0
            -9.160229,38.70443,0
            -9.15891,38.705036,0
            -9.158258,38.705343,0
            -9.156217,38.70629,0
            -9.155538,38.706503,0
            -9.155158,38.70657,0
            -9.155148,38.706513,0
            -9.155773,38.706352,0
            -9.156333,38.706145,0
            -9.158939,38.704915,0
            -9.159973,38.704457,0
            -9.160461,38.704287,0
            -9.160899,38.704138,0
            -9.161304,38.704025,0
            -9.161727,38.703944,0
            -9.162377,38.703805,0
            -9.163328,38.703623,0
            -9.163839,38.703578,0
            -9.164797,38.703562,0
            -9.165602,38.703571,0
            -9.16685,38.703575,0
            -9.167496,38.703572,0
            -9.168274,38.703559,0
            -9.16945,38.70355,0
            -9.16971,38.703557,0
            -9.170626,38.703523,0
            -9.170872,38.703489,0
            -9.171337,38.703419,0
            -9.171744,38.703332,0
            -9.172553,38.703137,0
            -9.173166,38.702958,0
            -9.17369,38.702785,0
            -9.17407,38.702601,0
            -9.17507,38.701997,0
            -9.175818,38.701636,0
            -9.176271,38.701385,0
            -9.177911,38.700578,0
            -9.179805,38.699651,0
            -9.180276,38.699451,0
            -9.180688,38.699289,0
            -9.181489,38.698991,0
            -9.18222,38.698732,0
            -9.183229,38.698429,0
            -9.183643,38.698313,0
            -9.184636,38.698077,0
            -9.185237,38.697938,0
            -9.185766,38.697841,0
            -9.187134,38.69763,0
            -9.187715,38.697543,0
            -9.188195,38.697458,0
            -9.188847,38.69734,0
            -9.192765,38.696719,0
            -9.193382,38.69664,0
            -9.194182,38.696564,0
            -9.196153,38.696435,0
            -9.197025,38.696381,0
            -9.198023,38.69629,0
            -9.198505,38.696242,0
            -9.199278,38.696108,0
            -9.200373,38.695917,0
            -9.201419,38.695734,0
            -9.202631,38.695515,0
            -9.203233,38.695404,0
            -9.206027,38.694898,0
            -9.208402,38.694474,0
            -9.209226,38.694332,0
            -9.209611,38.694299,0
            -9.21125,38.694135,0
            -9.212595,38.694007,0
            -9.214221,38.693863,0
            -9.215086,38.693793,0
            -9.215711,38.693732,0
            -9.216061,38.693702,0
            -9.216463,38.693672,0
            -9.216858,38.693641,0
            -9.217329,38.693615,0
            -9.217757,38.693644,0
            -9.218123,38.693696,0
            -9.21873,38.693878,0
            -9.21963,38.694162,0
            -9.220241,38.694352,0
            -9.220795,38.694517,0
            -9.221559,38.694822,0
            -9.222307,38.695226,0
            -9.223681,38.695995,0
            -9.22676,38.697688,0
            -9.227195,38.697888,0
            -9.227901,38.698178,0
            -9.228542,38.698341,0
            -9.229111,38.698486,0
            -9.22976,38.698616,0
            -9.230189,38.698671,0
            -9.230613,38.698712,0
            -9.231164,38.698745,0
            -9.231629,38.698742,0
            -9.232363,38.698731,0
            -9.23336,38.698728,0
            -9.234509,38.698724,0
            -9.234903,38.698721,0
            -9.23535,38.69875,0
            -9.236651,38.698864,0
            -9.247935,38.699594,0
            -9.247933,38.699674,0
            -9.244501,38.699449,0
            -9.242724,38.699337,0
            -9.242619,38.699334,0
            -9.242234,38.699318,0
            -9.241004,38.699235,0
            -9.238122,38.699037,0
            -9.236153,38.698876,0
            -9.23541,38.698821,0
            -9.234711,38.698797,0
            -9.233637,38.698809,0
            -9.232323,38.698811,0
            -9.231632,38.698826,0
            -9.231088,38.698813,0
            -9.230629,38.69878,0
            -9.229465,38.698626,0
            -9.228644,38.698459,0
            -9.227256,38.698063,0
            -9.226778,38.69783,0
            -9.225214,38.696951,0
            -9.222942,38.695695,0
            -9.22252,38.695404,0
            -9.22181,38.695015,0
            -9.221415,38.694811,0
            -9.220998,38.694667,0
            -9.22025,38.694411,0
            -9.218441,38.693854,0
            -9.217987,38.693736,0
            -9.217469,38.693686,0
            -9.216795,38.693713,0
            -9.215664,38.693823,0
            -9.215322,38.693847,0
            -9.213159,38.694008,0
            -9.21121,38.69421,0
            -9.209615,38.694356,0
            -9.209078,38.694419,0
            -9.208557,38.69452,0
            -9.206902,38.694854,0
            -9.206854,38.694905,0
            -9.207079,38.695456,0
          </coordinates>
        </LineString>
      </Placemark>
      <Placemark>
        <name>KM 1</name>
        <styleUrl>#icon-1680-673AB7-nodesc</styleUrl>
        <Point>
          <coordinates>
            -9.176867,38.688499,0
          </coordinates>
        </Point>
      </Placemark>
      <Placemark>
        <name>KM 2</name>
        <styleUrl>#icon-1680-673AB7-nodesc</styleUrl>
        <Point>
          <coordinates>
            -9.178815,38.697345,0
          </coordinates>
        </Point>
      </Placemark>
      <Placemark>
        <name>KM 3</name>
        <styleUrl>#icon-1680-673AB7-nodesc</styleUrl>
        <Point>
          <coordinates>
            -9.17875,38.706103,0
          </coordinates>
        </Point>
      </Placemark>
      <Placemark>
        <name>KM 4</name>
        <styleUrl>#icon-1680-673AB7-nodesc</styleUrl>
        <Point>
          <coordinates>
            -9.177408,38.715057,0
          </coordinates>
        </Point>
      </Placemark>
      <Placemark>
        <name>KM 5</name>
        <description>Água Vitalis / Vitalis Water</description>
        <styleUrl>#icon-1518-673AB7</styleUrl>
        <Point>
          <coordinates>
            -9.17732,38.714634,0
          </coordinates>
        </Point>
      </Placemark>
      <Placemark>
        <name>KM 6</name>
        <styleUrl>#icon-1680-673AB7-nodesc</styleUrl>
        <Point>
          <coordinates>
            -9.17932,38.709336,0
          </coordinates>
        </Point>
      </Placemark>
      <Placemark>
        <name>KM 7</name>
        <description>Água Vitalis / Vitalis Water</description>
        <styleUrl>#icon-1518-673AB7</styleUrl>
        <Point>
          <coordinates>
            -9.17488,38.703788,0
          </coordinates>
        </Point>
      </Placemark>
      <Placemark>
        <name>KM 8</name>
        <styleUrl>#icon-1680-673AB7-nodesc</styleUrl>
        <Point>
          <coordinates>
            -9.164765,38.703661,0
          </coordinates>
        </Point>
      </Placemark>
      <Placemark>
        <name>KM 9</name>
        <styleUrl>#icon-1680-673AB7-nodesc</styleUrl>
        <Point>
          <coordinates>
            -9.155283,38.706459,0
          </coordinates>
        </Point>
      </Placemark>
      <Placemark>
        <name>KM 10</name>
        <description>Água Vitalis + 226ERS GEL / Vitalis Water + 226ERS Gel</description>
        <styleUrl>#icon-1518-673AB7</styleUrl>
        <Point>
          <coordinates>
            -9.166763,38.703597,0
          </coordinates>
        </Point>
      </Placemark>
      <Placemark>
        <name>KM 11</name>
        <styleUrl>#icon-1680-673AB7-nodesc</styleUrl>
        <Point>
          <coordinates>
            -9.17802,38.700527,0
          </coordinates>
        </Point>
      </Placemark>
      <Placemark>
        <name>KM 12</name>
        <styleUrl>#icon-1680-673AB7-nodesc</styleUrl>
        <Point>
          <coordinates>
            -9.190026,38.697122,0
          </coordinates>
        </Point>
      </Placemark>
      <Placemark>
        <name>KM 13</name>
        <description>Água Vitalis + Powerade / Vitalis Water + Powerade</description>
        <styleUrl>#icon-1518-673AB7</styleUrl>
        <Point>
          <coordinates>
            -9.19825,38.696282,0
          </coordinates>
        </Point>
      </Placemark>
      <Placemark>
        <name>KM 14</name>
        <styleUrl>#icon-1680-673AB7-nodesc</styleUrl>
        <Point>
          <coordinates>
            -9.212159,38.694034,0
          </coordinates>
        </Point>
      </Placemark>
      <Placemark>
        <name>KM 15</name>
        <styleUrl>#icon-1680-673AB7-nodesc</styleUrl>
        <Point>
          <coordinates>
            -9.220981,38.694581,0
          </coordinates>
        </Point>
      </Placemark>
      <Placemark>
        <name>KM 16</name>
        <styleUrl>#icon-1680-673AB7-nodesc</styleUrl>
        <Point>
          <coordinates>
            -9.23271,38.698732,0
          </coordinates>
        </Point>
      </Placemark>
      <Placemark>
        <name>KM 17</name>
        <styleUrl>#icon-1680-673AB7-nodesc</styleUrl>
        <Point>
          <coordinates>
            -9.243757,38.699336,0
          </coordinates>
        </Point>
      </Placemark>
      <Placemark>
        <name>KM 18</name>
        <styleUrl>#icon-1680-673AB7-nodesc</styleUrl>
        <Point>
          <coordinates>
            -9.239452,38.699124,0
          </coordinates>
        </Point>
      </Placemark>
      <Placemark>
        <name>KM 19</name>
        <styleUrl>#icon-1680-673AB7-nodesc</styleUrl>
        <Point>
          <coordinates>
            -9.228461,38.69841,0
          </coordinates>
        </Point>
      </Placemark>
      <Placemark>
        <name>KM 20</name>
        <styleUrl>#icon-1680-673AB7-nodesc</styleUrl>
        <Point>
          <coordinates>
            -9.218192,38.693807,0
          </coordinates>
        </Point>
      </Placemark>
      <Placemark>
        <name>KM 21</name>
        <styleUrl>#icon-1680-673AB7-nodesc</styleUrl>
        <Point>
          <coordinates>
            -9.207042,38.694829,0
          </coordinates>
        </Point>
      </Placemark>
      <Placemark>
        <name>Meta / Finish line</name>
        <styleUrl>#icon-1661-673AB7-nodesc</styleUrl>
        <Point>
          <coordinates>
            -9.207188,38.695744,0
          </coordinates>
        </Point>
      </Placemark>
    </Folder>
  </Document>
</kml>
