{
  "type": "FeatureCollection",
  "features": [
    {
      "type": "Feature",
      "properties": {
        "name": "Movistar Madrid Medio Maraton",
        "source": "GPX published by the event organization",
        "status": "reference"
      },
      "geometry": {
        "type": "LineString",
        "coordinates": [
          [
            -3.690599231869129,
            40.424444733601035
          ],
          [
            -3.6904374228940924,
            40.424807426718104
          ],
          [
            -3.6904374228940924,
            40.424807426718104
          ],
          [
            -3.69030258178978,
            40.42503667535402
          ],
          [
            -3.69030258178978,
            40.42503667535402
          ],
          [
            -3.6902522519268075,
            40.425484700052806
          ],
          [
            -3.690250942979162,
            40.425496351999385
          ],
          [
            -3.690250942979162,
            40.425496351999385
          ],
          [
            -3.690246448275957,
            40.4257119119639
          ],
          [
            -3.690136125331078,
            40.4261536606684
          ],
          [
            -3.6900258023861983,
            40.426595409372894
          ],
          [
            -3.689915479441319,
            40.42703715807738
          ],
          [
            -3.6898051564964396,
            40.42747890678188
          ],
          [
            -3.6896948335515605,
            40.427920655486375
          ],
          [
            -3.689584510606681,
            40.42836240419087
          ],
          [
            -3.689474187661802,
            40.42880415289536
          ],
          [
            -3.6893638647169222,
            40.429245901599856
          ],
          [
            -3.689253541772043,
            40.42968765030435
          ],
          [
            -3.6891432188271636,
            40.43012939900885
          ],
          [
            -3.6890328958822844,
            40.43057114771334
          ],
          [
            -3.688922572937405,
            40.43101289641783
          ],
          [
            -3.6888122499925258,
            40.43145464512233
          ],
          [
            -3.6887019270476467,
            40.431896393826825
          ],
          [
            -3.688591604102767,
            40.43233814253132
          ],
          [
            -3.688481281157888,
            40.43277989123581
          ],
          [
            -3.6883709582130084,
            40.43322163994031
          ],
          [
            -3.688362216,
            40.433256645
          ],
          [
            -3.688362216,
            40.433256645
          ],
          [
            -3.688571192,
            40.434364295
          ],
          [
            -3.688598752,
            40.434845129
          ],
          [
            -3.688571854,
            40.435231642
          ],
          [
            -3.688617768,
            40.435353981
          ],
          [
            -3.689136711,
            40.435854426
          ],
          [
            -3.689525026,
            40.436394818
          ],
          [
            -3.69031083,
            40.437620003
          ],
          [
            -3.690574665,
            40.438038964
          ],
          [
            -3.690781393,
            40.438517712
          ],
          [
            -3.691472235,
            40.440706057
          ],
          [
            -3.69151153,
            40.441311972
          ],
          [
            -3.6915366,
            40.441813562
          ],
          [
            -3.69131009,
            40.444334449
          ],
          [
            -3.691204114,
            40.445184358
          ],
          [
            -3.691129266,
            40.446003741
          ],
          [
            -3.691096776,
            40.446811592
          ],
          [
            -3.691030283,
            40.447565387
          ],
          [
            -3.690966261,
            40.448229419
          ],
          [
            -3.690712026,
            40.450850136
          ],
          [
            -3.6906602,
            40.451448277
          ],
          [
            -3.690629684,
            40.451855853
          ],
          [
            -3.690592027,
            40.452415999
          ],
          [
            -3.690485603,
            40.453287895
          ],
          [
            -3.690355351,
            40.454762995
          ],
          [
            -3.690222083,
            40.456169864
          ],
          [
            -3.690182403,
            40.456478398
          ],
          [
            -3.690005433,
            40.458302153
          ],
          [
            -3.689941859,
            40.459159848
          ],
          [
            -3.689863896,
            40.459714023
          ],
          [
            -3.689608101,
            40.462521501
          ],
          [
            -3.689387665,
            40.463052229
          ],
          [
            -3.689294893,
            40.463268181
          ],
          [
            -3.689063128,
            40.464221132
          ],
          [
            -3.689034429,
            40.464693228
          ],
          [
            -3.689022601,
            40.465338578
          ],
          [
            -3.688938641,
            40.46567543
          ],
          [
            -3.688782458,
            40.465889673
          ],
          [
            -3.688868969,
            40.466220282
          ],
          [
            -3.689179107,
            40.466368079
          ],
          [
            -3.689498749,
            40.466416052
          ],
          [
            -3.689804079,
            40.466252935
          ],
          [
            -3.689961998,
            40.465915357
          ],
          [
            -3.691059524,
            40.465584881
          ],
          [
            -3.691522253,
            40.465502313
          ],
          [
            -3.692312585,
            40.465407979
          ],
          [
            -3.693488866,
            40.465108315
          ],
          [
            -3.694143595,
            40.464885571
          ],
          [
            -3.695407082,
            40.464412901
          ],
          [
            -3.695990251,
            40.463922868
          ],
          [
            -3.696588349,
            40.463283721
          ],
          [
            -3.697127367,
            40.462719886
          ],
          [
            -3.697858474,
            40.461541917
          ],
          [
            -3.698212976,
            40.460839438
          ],
          [
            -3.698443736,
            40.460517327
          ],
          [
            -3.700300798,
            40.45880394
          ],
          [
            -3.701147581,
            40.458006908
          ],
          [
            -3.702144312,
            40.456526503
          ],
          [
            -3.70269905,
            40.454698423
          ],
          [
            -3.703027853,
            40.453057279
          ],
          [
            -3.703134959,
            40.45200398
          ],
          [
            -3.703485473,
            40.45007993
          ],
          [
            -3.703679287,
            40.448530582
          ],
          [
            -3.703750008,
            40.447803199
          ],
          [
            -3.703799152,
            40.447482537
          ],
          [
            -3.703641056,
            40.447236419
          ],
          [
            -3.703570518,
            40.447033747
          ],
          [
            -3.703599217,
            40.446889649
          ],
          [
            -3.703629304,
            40.446763902
          ],
          [
            -3.703549659,
            40.446724562
          ],
          [
            -3.703324995,
            40.446708411
          ],
          [
            -3.702374241,
            40.44665573
          ],
          [
            -3.701291993,
            40.446597675
          ],
          [
            -3.700476352,
            40.446570996
          ],
          [
            -3.700028643,
            40.446537037
          ],
          [
            -3.698765925,
            40.446525004
          ],
          [
            -3.697459279,
            40.446477123
          ],
          [
            -3.696432339,
            40.446444188
          ],
          [
            -3.695016698,
            40.44634783
          ],
          [
            -3.69327205,
            40.446294789
          ],
          [
            -3.691625657,
            40.446192803
          ],
          [
            -3.690411187,
            40.446168064
          ],
          [
            -3.689262941,
            40.446068993
          ],
          [
            -3.687729003,
            40.445985625
          ],
          [
            -3.686830876,
            40.445961719
          ],
          [
            -3.686448933,
            40.445909305
          ],
          [
            -3.686070175,
            40.445656024
          ],
          [
            -3.685886193,
            40.445386262
          ],
          [
            -3.685769569,
            40.445133796
          ],
          [
            -3.685592015,
            40.444958794
          ],
          [
            -3.685401617,
            40.444863773
          ],
          [
            -3.684989443,
            40.444533173
          ],
          [
            -3.684638296,
            40.444142274
          ],
          [
            -3.684111666,
            40.443663331
          ],
          [
            -3.683604868,
            40.443208151
          ],
          [
            -3.68320293,
            40.442831227
          ],
          [
            -3.682979365,
            40.442643989
          ],
          [
            -3.682628953,
            40.442312752
          ],
          [
            -3.682437782,
            40.442107055
          ],
          [
            -3.682088527,
            40.441789265
          ],
          [
            -3.681719769,
            40.441436076
          ],
          [
            -3.681273841,
            40.441050269
          ],
          [
            -3.680907663,
            40.440675967
          ],
          [
            -3.680637849,
            40.440454044
          ],
          [
            -3.679494291,
            40.439307634
          ],
          [
            -3.679204128,
            40.439043843
          ],
          [
            -3.678331679,
            40.438237355
          ],
          [
            -3.677873965,
            40.437828495
          ],
          [
            -3.677654346,
            40.437645533
          ],
          [
            -3.677077919,
            40.437091523
          ],
          [
            -3.676888063,
            40.436922018
          ],
          [
            -3.67566701,
            40.43567301
          ],
          [
            -3.675035164,
            40.435078257
          ],
          [
            -3.674527106,
            40.434620256
          ],
          [
            -3.674188388,
            40.434241653
          ],
          [
            -3.673509729,
            40.433612295
          ],
          [
            -3.673021866,
            40.432995001
          ],
          [
            -3.672783786,
            40.432760035
          ],
          [
            -3.672776471,
            40.432750159
          ],
          [
            -3.671914793,
            40.431748048
          ],
          [
            -3.671498246,
            40.431251124
          ],
          [
            -3.670846583,
            40.430531943
          ],
          [
            -3.670414878,
            40.430058632
          ],
          [
            -3.668767,
            40.428042378
          ],
          [
            -3.668420528,
            40.427707737
          ],
          [
            -3.668420528,
            40.427707737
          ],
          [
            -3.668440026104096,
            40.42725832193202
          ],
          [
            -3.668445060248871,
            40.42714228908571
          ],
          [
            -3.668445060248871,
            40.42714228908571
          ],
          [
            -3.6684979562740483,
            40.426694435566276
          ],
          [
            -3.6685508522992256,
            40.42624658204685
          ],
          [
            -3.668603748324403,
            40.42579872852742
          ],
          [
            -3.6686566443495803,
            40.425350875007986
          ],
          [
            -3.6687095403747576,
            40.42490302148856
          ],
          [
            -3.6687624363999345,
            40.42445516796913
          ],
          [
            -3.668815332425112,
            40.424007314449696
          ],
          [
            -3.668868228450289,
            40.423559460930264
          ],
          [
            -3.6689211244754665,
            40.42311160741084
          ],
          [
            -3.668974020500644,
            40.422663753891406
          ],
          [
            -3.669026916525821,
            40.422215900371974
          ],
          [
            -3.6690798125509985,
            40.42176804685255
          ],
          [
            -3.6691313339605927,
            40.42133183175821
          ],
          [
            -3.6691313339605927,
            40.42133183175821
          ],
          [
            -3.669242158270009,
            40.42126058576642
          ],
          [
            -3.669831828276181,
            40.421286497790206
          ],
          [
            -3.6704214982823524,
            40.42131240981399
          ],
          [
            -3.671011168288524,
            40.42133832183778
          ],
          [
            -3.671600838294695,
            40.42136423386157
          ],
          [
            -3.672190508300867,
            40.42139014588535
          ],
          [
            -3.6727801783070384,
            40.421416057909134
          ],
          [
            -3.67336984831321,
            40.42144196993292
          ],
          [
            -3.6739595183193816,
            40.42146788195671
          ],
          [
            -3.674549188325553,
            40.421493793980495
          ],
          [
            -3.675138858331725,
            40.42151970600428
          ],
          [
            -3.6757285283378964,
            40.42154561802807
          ],
          [
            -3.6763181983440676,
            40.42157153005186
          ],
          [
            -3.676907868350239,
            40.42159744207564
          ],
          [
            -3.677497538356411,
            40.421623354099424
          ],
          [
            -3.6780872083625824,
            40.42164926612321
          ],
          [
            -3.678676878368754,
            40.421675178147
          ],
          [
            -3.6792665483749256,
            40.421701090170785
          ],
          [
            -3.679429937,
            40.42170827
          ],
          [
            -3.679429937,
            40.42170827
          ],
          [
            -3.679930201,
            40.421664662
          ],
          [
            -3.680866696,
            40.421533498
          ],
          [
            -3.681902373,
            40.42126218
          ],
          [
            -3.682539455,
            40.421127283
          ],
          [
            -3.683343467,
            40.420976023
          ],
          [
            -3.684080174,
            40.420859959
          ],
          [
            -3.684460157,
            40.420781069
          ],
          [
            -3.68499257,
            40.42068572
          ],
          [
            -3.685724426,
            40.420533846
          ],
          [
            -3.686433149,
            40.420368637
          ],
          [
            -3.687307808,
            40.420177001
          ],
          [
            -3.687816384,
            40.42004986
          ],
          [
            -3.688041913,
            40.419996203
          ],
          [
            -3.688302084,
            40.419797749
          ],
          [
            -3.688325453,
            40.419793456
          ],
          [
            -3.688347853,
            40.419784397
          ],
          [
            -3.688550036,
            40.419684242
          ],
          [
            -3.688556129,
            40.419684379
          ],
          [
            -3.688792469,
            40.419684859
          ],
          [
            -3.689003684,
            40.419727435
          ],
          [
            -3.689125972,
            40.41997728
          ],
          [
            -3.689113897,
            40.420145762
          ],
          [
            -3.688909171,
            40.420256965
          ],
          [
            -3.688683149,
            40.42040036
          ],
          [
            -3.688592761,
            40.420530447
          ],
          [
            -3.688462931,
            40.42182467
          ],
          [
            -3.688239488,
            40.42284814
          ],
          [
            -3.688080302,
            40.424026851
          ],
          [
            -3.687893283,
            40.424902682
          ],
          [
            -3.687797645,
            40.42561576
          ],
          [
            -3.687604956,
            40.426478791
          ],
          [
            -3.687437142,
            40.427238951
          ],
          [
            -3.687132921,
            40.428984262
          ],
          [
            -3.686889118,
            40.430408857
          ],
          [
            -3.686733287,
            40.431613858
          ],
          [
            -3.686702219,
            40.43227968
          ],
          [
            -3.686612779,
            40.432778377
          ],
          [
            -3.686666243,
            40.432984058
          ],
          [
            -3.687237438,
            40.43304406
          ],
          [
            -3.690274683,
            40.432987266
          ],
          [
            -3.691055663,
            40.432986647
          ],
          [
            -3.691138685,
            40.432854377
          ],
          [
            -3.691680751,
            40.43219098
          ],
          [
            -3.692087075,
            40.431349832
          ],
          [
            -3.692440322,
            40.430701822
          ],
          [
            -3.693106836,
            40.430054974
          ],
          [
            -3.693805339,
            40.429378607
          ],
          [
            -3.694468577,
            40.428787041
          ],
          [
            -3.695171871,
            40.428131214
          ],
          [
            -3.695427595,
            40.427884143
          ],
          [
            -3.695723445,
            40.427714557
          ],
          [
            -3.695936195,
            40.427689005
          ],
          [
            -3.696217487,
            40.42771785
          ],
          [
            -3.696524787,
            40.427788152
          ],
          [
            -3.697489427,
            40.42796451
          ],
          [
            -3.698498684,
            40.428176685
          ],
          [
            -3.698963488,
            40.428273684
          ],
          [
            -3.699347539,
            40.428341128
          ],
          [
            -3.700044553,
            40.428496962
          ],
          [
            -3.701629828,
            40.428827083
          ],
          [
            -3.70241045,
            40.429011362
          ],
          [
            -3.702920008,
            40.429060683
          ],
          [
            -3.704296755,
            40.429301523
          ],
          [
            -3.70511723,
            40.429460082
          ],
          [
            -3.705433304,
            40.429415139
          ],
          [
            -3.705632587,
            40.429320065
          ],
          [
            -3.705927682,
            40.429190477
          ],
          [
            -3.70601023,
            40.428667902
          ],
          [
            -3.706269276,
            40.427731898
          ],
          [
            -3.70645815,
            40.426988654
          ],
          [
            -3.707089516,
            40.426011697
          ],
          [
            -3.707317601,
            40.425445145
          ],
          [
            -3.707412815,
            40.424641728
          ],
          [
            -3.707456,
            40.423671495
          ],
          [
            -3.707499158,
            40.423148566
          ],
          [
            -3.707764462,
            40.421866344
          ],
          [
            -3.707828538,
            40.421604252
          ],
          [
            -3.707509562,
            40.421381175
          ],
          [
            -3.707011031,
            40.421034061
          ],
          [
            -3.706622137,
            40.420736769
          ],
          [
            -3.706027975,
            40.420435789
          ],
          [
            -3.705858863,
            40.420329192
          ],
          [
            -3.705858863,
            40.420329192
          ],
          [
            -3.7052703066649526,
            40.420291452009096
          ],
          [
            -3.7046817503299057,
            40.420253712018194
          ],
          [
            -3.7040931939948583,
            40.4202159720273
          ],
          [
            -3.703504637659811,
            40.4201782320364
          ],
          [
            -3.7029160813247635,
            40.4201404920455
          ],
          [
            -3.7023275249897165,
            40.420102752054596
          ],
          [
            -3.702121661089336,
            40.420089551446154
          ],
          [
            -3.70168724,
            40.419990763
          ],
          [
            -3.70168724,
            40.419990763
          ],
          [
            -3.70168724,
            40.419990763
          ],
          [
            -3.7015194063804415,
            40.41986160949813
          ],
          [
            -3.7015194063804415,
            40.41986160949813
          ],
          [
            -3.701761642862029,
            40.41945150727507
          ],
          [
            -3.702003879343616,
            40.41904140505201
          ],
          [
            -3.702116862637098,
            40.418850126267245
          ],
          [
            -3.702116862637098,
            40.418850126267245
          ],
          [
            -3.702353405620512,
            40.418438103369674
          ],
          [
            -3.7025899486039258,
            40.418026080472096
          ],
          [
            -3.7027505543892403,
            40.41774632894416
          ],
          [
            -3.7027505543892403,
            40.41774632894416
          ],
          [
            -3.7029885380944196,
            40.417334788441266
          ],
          [
            -3.7031352015149537,
            40.417081166296015
          ],
          [
            -3.703225952943626,
            40.41703280107299
          ],
          [
            -3.703225952943626,
            40.41703280107299
          ],
          [
            -3.703225952943626,
            40.41703280107299
          ],
          [
            -3.703466444227928,
            40.41687388652423
          ],
          [
            -3.703466444227928,
            40.41687388652423
          ],
          [
            -3.7038067620831328,
            40.41680479312507
          ],
          [
            -3.7038158371362613,
            40.41663205927617
          ],
          [
            -3.7038158371362613,
            40.41663205927617
          ],
          [
            -3.703230023890943,
            40.4166892488318
          ],
          [
            -3.7026442106456243,
            40.41674643838743
          ],
          [
            -3.7025274875602463,
            40.4167578333865
          ],
          [
            -3.7025274875602463,
            40.4167578333865
          ],
          [
            -3.7025274875602463,
            40.4167578333865
          ],
          [
            -3.701938296258542,
            40.416726694056955
          ],
          [
            -3.7013491049568374,
            40.41669555472742
          ],
          [
            -3.700759913655133,
            40.416664415397875
          ],
          [
            -3.7001707223534286,
            40.41663327606834
          ],
          [
            -3.699581531051724,
            40.416602136738796
          ],
          [
            -3.6989923397500197,
            40.41657099740926
          ],
          [
            -3.6988600535717637,
            40.41656400595693
          ],
          [
            -3.6983021976689523,
            40.41641634806259
          ],
          [
            -3.698250079773146,
            40.416402553068735
          ],
          [
            -3.698250079773146,
            40.416402553068735
          ],
          [
            -3.6976939226581713,
            40.41625123198485
          ],
          [
            -3.697137765543196,
            40.41609991090097
          ],
          [
            -3.6965816084282213,
            40.415948589817084
          ],
          [
            -3.6960254513132464,
            40.4157972687332
          ],
          [
            -3.6958540006991427,
            40.41575061987794
          ],
          [
            -3.6958540006991427,
            40.41575061987794
          ],
          [
            -3.6958540006991427,
            40.41575061987794
          ],
          [
            -3.6953100568174992,
            40.41557545202042
          ],
          [
            -3.6951282778424286,
            40.41551691319927
          ],
          [
            -3.6947203338037298,
            40.41533141910523
          ],
          [
            -3.6947203338037298,
            40.41533141910523
          ],
          [
            -3.6947203338037298,
            40.41533141910523
          ],
          [
            -3.6943520508712595,
            40.4150963160229
          ],
          [
            -3.6943520508712595,
            40.4150963160229
          ],
          [
            -3.6941962388611103,
            40.415042393182205
          ],
          [
            -3.69396062,
            40.415047311
          ],
          [
            -3.69396062,
            40.415047311
          ],
          [
            -3.69396062,
            40.415047311
          ],
          [
            -3.6936181131483465,
            40.41508987629214
          ],
          [
            -3.693491860005878,
            40.41517643229173
          ],
          [
            -3.693491860005878,
            40.41517643229173
          ],
          [
            -3.693491860005878,
            40.41517643229173
          ],
          [
            -3.693569717334163,
            40.415622168439626
          ],
          [
            -3.693584114625935,
            40.41570459347932
          ],
          [
            -3.693464816473494,
            40.41576195984808
          ],
          [
            -3.693464816473494,
            40.41576195984808
          ],
          [
            -3.693464816473494,
            40.41576195984808
          ],
          [
            -3.6928924543862656,
            40.41587284620285
          ],
          [
            -3.692714404028237,
            40.41590734072233
          ],
          [
            -3.692343540916113,
            40.416110721530316
          ],
          [
            -3.692343540916113,
            40.416110721530316
          ],
          [
            -3.692238479901931,
            40.416362114549116
          ],
          [
            -3.692238479901931,
            40.416362114549116
          ],
          [
            -3.692298514766094,
            40.416607793183005
          ],
          [
            -3.692298514766094,
            40.416607793183005
          ],
          [
            -3.6925536629445332,
            40.41680776350174
          ],
          [
            -3.6925536629445332,
            40.41680776350174
          ],
          [
            -3.6930564549411997,
            40.416922031988776
          ],
          [
            -3.6930564549411997,
            40.416922031988776
          ],
          [
            -3.6930564549411997,
            40.416922031988776
          ],
          [
            -3.693405573032379,
            40.41697985582664
          ],
          [
            -3.693405573032379,
            40.41697985582664
          ],
          [
            -3.6933161013517304,
            40.417424326477786
          ],
          [
            -3.693226629671081,
            40.41786879712893
          ],
          [
            -3.6931371579904324,
            40.41831326778008
          ],
          [
            -3.693076215592754,
            40.418616012816074
          ],
          [
            -3.6929144028647576,
            40.4190484688473
          ],
          [
            -3.6927525901367613,
            40.41948092487853
          ],
          [
            -3.692590777408765,
            40.419913380909755
          ],
          [
            -3.692580164,
            40.419941746
          ],
          [
            -3.692580164,
            40.419941746
          ],
          [
            -3.692580164,
            40.419941746
          ],
          [
            -3.692388173226596,
            40.42036698885415
          ],
          [
            -3.6921961824531917,
            40.4207922317083
          ],
          [
            -3.692004191679787,
            40.421217474562454
          ],
          [
            -3.6918122009063827,
            40.4216427174166
          ],
          [
            -3.6916202101329785,
            40.42206796027075
          ],
          [
            -3.691428219359574,
            40.4224932031249
          ],
          [
            -3.69123622858617,
            40.42291844597905
          ],
          [
            -3.6910442378127657,
            40.42334368883321
          ],
          [
            -3.690852247039361,
            40.423768931687356
          ],
          [
            -3.6906602562659567,
            40.424194174541505
          ],
          [
            -3.690565061700653,
            40.42440502221888
          ]
        ]
      }
    }
  ]
}