{
  "type": "FeatureCollection",
  "features": [
    {
      "type": "Feature",
      "properties": {
        "name": "United Airlines NYC Half",
        "source": "Reference GPX validated against published race course",
        "status": "reference"
      },
      "geometry": {
        "type": "LineString",
        "coordinates": [
          [
            -73.962248,
            40.669901
          ],
          [
            -73.962238,
            40.669846
          ],
          [
            -73.962194,
            40.669641
          ],
          [
            -73.962127,
            40.669341
          ],
          [
            -73.962112,
            40.669257
          ],
          [
            -73.962101,
            40.669194
          ],
          [
            -73.962015,
            40.668759
          ],
          [
            -73.961996,
            40.668663
          ],
          [
            -73.96198,
            40.668579
          ],
          [
            -73.96182,
            40.667753
          ],
          [
            -73.961806,
            40.667681
          ],
          [
            -73.961782,
            40.667558
          ],
          [
            -73.961719,
            40.667225
          ],
          [
            -73.961616,
            40.666695
          ],
          [
            -73.961598,
            40.666601
          ],
          [
            -73.961572,
            40.666465
          ],
          [
            -73.961424,
            40.665704
          ],
          [
            -73.961294,
            40.665027
          ],
          [
            -73.961201,
            40.664541
          ],
          [
            -73.961123,
            40.664133
          ],
          [
            -73.96111,
            40.664063
          ],
          [
            -73.961097,
            40.663997
          ],
          [
            -73.961024,
            40.663615
          ],
          [
            -73.960983,
            40.663401
          ],
          [
            -73.960957,
            40.663295
          ],
          [
            -73.961076,
            40.663288
          ],
          [
            -73.961115,
            40.663287
          ],
          [
            -73.961632,
            40.663259
          ],
          [
            -73.961995,
            40.66324
          ],
          [
            -73.962167,
            40.663214
          ],
          [
            -73.962281,
            40.663179
          ],
          [
            -73.962308,
            40.663216
          ],
          [
            -73.962348,
            40.6632
          ],
          [
            -73.962308,
            40.663216
          ],
          [
            -73.962281,
            40.663179
          ],
          [
            -73.962384,
            40.663097
          ],
          [
            -73.9625,
            40.663267
          ],
          [
            -73.962666,
            40.663508
          ],
          [
            -73.962885,
            40.663805
          ],
          [
            -73.963641,
            40.664924
          ],
          [
            -73.964241,
            40.665793
          ],
          [
            -73.964284,
            40.665855
          ],
          [
            -73.964326,
            40.665917
          ],
          [
            -73.965289,
            40.66731
          ],
          [
            -73.964326,
            40.665917
          ],
          [
            -73.964284,
            40.665855
          ],
          [
            -73.964241,
            40.665793
          ],
          [
            -73.963641,
            40.664924
          ],
          [
            -73.962885,
            40.663805
          ],
          [
            -73.962929,
            40.663786
          ],
          [
            -73.963004,
            40.663753
          ],
          [
            -73.963043,
            40.663736
          ],
          [
            -73.963287,
            40.663631
          ],
          [
            -73.963619,
            40.663486
          ],
          [
            -73.963711,
            40.663432
          ],
          [
            -73.963812,
            40.663358
          ],
          [
            -73.963846,
            40.663325
          ],
          [
            -73.963901,
            40.663273
          ],
          [
            -73.963975,
            40.663179
          ],
          [
            -73.964018,
            40.663083
          ],
          [
            -73.964045,
            40.662976
          ],
          [
            -73.964063,
            40.662851
          ],
          [
            -73.964082,
            40.662752
          ],
          [
            -73.964084,
            40.662569
          ],
          [
            -73.964103,
            40.662476
          ],
          [
            -73.964166,
            40.662304
          ],
          [
            -73.964195,
            40.662253
          ],
          [
            -73.964212,
            40.662223
          ],
          [
            -73.964328,
            40.662115
          ],
          [
            -73.964403,
            40.662068
          ],
          [
            -73.964505,
            40.662038
          ],
          [
            -73.964602,
            40.662028
          ],
          [
            -73.964699,
            40.662034
          ],
          [
            -73.964786,
            40.662054
          ],
          [
            -73.965017,
            40.662137
          ],
          [
            -73.965036,
            40.662169
          ],
          [
            -73.965093,
            40.66227
          ],
          [
            -73.965165,
            40.662399
          ],
          [
            -73.965211,
            40.662492
          ],
          [
            -73.965242,
            40.662603
          ],
          [
            -73.965261,
            40.662758
          ],
          [
            -73.965241,
            40.663227
          ],
          [
            -73.965248,
            40.663341
          ],
          [
            -73.965263,
            40.663468
          ],
          [
            -73.965305,
            40.663611
          ],
          [
            -73.965351,
            40.663703
          ],
          [
            -73.965461,
            40.663906
          ],
          [
            -73.965587,
            40.664122
          ],
          [
            -73.966091,
            40.665141
          ],
          [
            -73.96632,
            40.665599
          ],
          [
            -73.966394,
            40.665732
          ],
          [
            -73.966449,
            40.665823
          ],
          [
            -73.966573,
            40.665976
          ],
          [
            -73.966695,
            40.666089
          ],
          [
            -73.966724,
            40.666109
          ],
          [
            -73.967151,
            40.666418
          ],
          [
            -73.967531,
            40.666659
          ],
          [
            -73.967658,
            40.666729
          ],
          [
            -73.967794,
            40.666792
          ],
          [
            -73.968174,
            40.666949
          ],
          [
            -73.968315,
            40.667019
          ],
          [
            -73.968428,
            40.667087
          ],
          [
            -73.968522,
            40.667162
          ],
          [
            -73.968582,
            40.667222
          ],
          [
            -73.968696,
            40.667375
          ],
          [
            -73.968731,
            40.667452
          ],
          [
            -73.968753,
            40.667526
          ],
          [
            -73.968786,
            40.667694
          ],
          [
            -73.968788,
            40.667742
          ],
          [
            -73.968795,
            40.668061
          ],
          [
            -73.968809,
            40.668199
          ],
          [
            -73.968835,
            40.668283
          ],
          [
            -73.968877,
            40.668368
          ],
          [
            -73.969063,
            40.668673
          ],
          [
            -73.969097,
            40.668744
          ],
          [
            -73.969141,
            40.66891
          ],
          [
            -73.969142,
            40.668991
          ],
          [
            -73.969131,
            40.669076
          ],
          [
            -73.969096,
            40.669205
          ],
          [
            -73.969056,
            40.669297
          ],
          [
            -73.968955,
            40.669467
          ],
          [
            -73.968682,
            40.669873
          ],
          [
            -73.968619,
            40.669993
          ],
          [
            -73.968579,
            40.670089
          ],
          [
            -73.96853,
            40.670262
          ],
          [
            -73.968525,
            40.670355
          ],
          [
            -73.968527,
            40.670439
          ],
          [
            -73.96854,
            40.670535
          ],
          [
            -73.968563,
            40.670611
          ],
          [
            -73.968642,
            40.670751
          ],
          [
            -73.968703,
            40.67083
          ],
          [
            -73.968781,
            40.670907
          ],
          [
            -73.968882,
            40.670985
          ],
          [
            -73.968982,
            40.671041
          ],
          [
            -73.969113,
            40.671106
          ],
          [
            -73.969232,
            40.671178
          ],
          [
            -73.969301,
            40.671228
          ],
          [
            -73.969401,
            40.671313
          ],
          [
            -73.969472,
            40.671391
          ],
          [
            -73.969539,
            40.671492
          ],
          [
            -73.969567,
            40.671567
          ],
          [
            -73.969675,
            40.672213
          ],
          [
            -73.969678,
            40.672242
          ],
          [
            -73.969686,
            40.672331
          ],
          [
            -73.969691,
            40.672442
          ],
          [
            -73.969685,
            40.672531
          ],
          [
            -73.969677,
            40.67256
          ],
          [
            -73.969653,
            40.672641
          ],
          [
            -73.96962,
            40.672758
          ],
          [
            -73.969623,
            40.673296
          ],
          [
            -73.969568,
            40.6735
          ],
          [
            -73.969561,
            40.673785
          ],
          [
            -73.969582,
            40.67395
          ],
          [
            -73.969615,
            40.674106
          ],
          [
            -73.969639,
            40.674183
          ],
          [
            -73.969719,
            40.674354
          ],
          [
            -73.969788,
            40.674427
          ],
          [
            -73.969917,
            40.674519
          ],
          [
            -73.970167,
            40.674624
          ],
          [
            -73.970263,
            40.674664
          ],
          [
            -73.970352,
            40.674701
          ],
          [
            -73.970683,
            40.674847
          ],
          [
            -73.97083,
            40.674927
          ],
          [
            -73.970969,
            40.675133
          ],
          [
            -73.971046,
            40.675248
          ],
          [
            -73.971098,
            40.675318
          ],
          [
            -73.971365,
            40.675677
          ],
          [
            -73.9714,
            40.675723
          ],
          [
            -73.971428,
            40.675762
          ],
          [
            -73.971842,
            40.676337
          ],
          [
            -73.971909,
            40.676425
          ],
          [
            -73.971989,
            40.676535
          ],
          [
            -73.972453,
            40.677173
          ],
          [
            -73.972516,
            40.677259
          ],
          [
            -73.972664,
            40.677462
          ],
          [
            -73.972717,
            40.677537
          ],
          [
            -73.97277,
            40.677609
          ],
          [
            -73.973005,
            40.677933
          ],
          [
            -73.973051,
            40.677997
          ],
          [
            -73.973088,
            40.678048
          ],
          [
            -73.973486,
            40.678595
          ],
          [
            -73.973547,
            40.67868
          ],
          [
            -73.973617,
            40.678776
          ],
          [
            -73.974259,
            40.67966
          ],
          [
            -73.974324,
            40.67975
          ],
          [
            -73.974386,
            40.679834
          ],
          [
            -73.974641,
            40.680186
          ],
          [
            -73.974695,
            40.680261
          ],
          [
            -73.974764,
            40.680355
          ],
          [
            -73.975048,
            40.680747
          ],
          [
            -73.975112,
            40.680834
          ],
          [
            -73.975198,
            40.680953
          ],
          [
            -73.975786,
            40.681766
          ],
          [
            -73.975851,
            40.681852
          ],
          [
            -73.975926,
            40.681955
          ],
          [
            -73.97618,
            40.682305
          ],
          [
            -73.976218,
            40.682357
          ],
          [
            -73.976283,
            40.682447
          ],
          [
            -73.976339,
            40.682523
          ],
          [
            -73.976363,
            40.682555
          ],
          [
            -73.976553,
            40.682812
          ],
          [
            -73.976737,
            40.683067
          ],
          [
            -73.976791,
            40.68315
          ],
          [
            -73.977018,
            40.68346
          ],
          [
            -73.977286,
            40.683802
          ],
          [
            -73.977337,
            40.68387
          ],
          [
            -73.977476,
            40.684064
          ],
          [
            -73.977624,
            40.684274
          ],
          [
            -73.977677,
            40.684347
          ],
          [
            -73.977953,
            40.684734
          ],
          [
            -73.97799,
            40.684785
          ],
          [
            -73.978061,
            40.684885
          ],
          [
            -73.978115,
            40.684971
          ],
          [
            -73.978153,
            40.685024
          ],
          [
            -73.978294,
            40.685216
          ],
          [
            -73.978357,
            40.685315
          ],
          [
            -73.97845,
            40.685459
          ],
          [
            -73.978475,
            40.685493
          ],
          [
            -73.979035,
            40.686271
          ],
          [
            -73.979282,
            40.686609
          ],
          [
            -73.97936,
            40.686691
          ],
          [
            -73.979415,
            40.686767
          ],
          [
            -73.979586,
            40.687002
          ],
          [
            -73.979813,
            40.687314
          ],
          [
            -73.979983,
            40.687548
          ],
          [
            -73.980069,
            40.687667
          ],
          [
            -73.980563,
            40.688366
          ],
          [
            -73.980603,
            40.688421
          ],
          [
            -73.980624,
            40.688451
          ],
          [
            -73.980645,
            40.688481
          ],
          [
            -73.980678,
            40.688526
          ],
          [
            -73.980843,
            40.688761
          ],
          [
            -73.980877,
            40.68881
          ],
          [
            -73.980939,
            40.688903
          ],
          [
            -73.980971,
            40.688949
          ],
          [
            -73.98097,
            40.689013
          ],
          [
            -73.980969,
            40.689117
          ],
          [
            -73.98134,
            40.689847
          ],
          [
            -73.98138,
            40.689925
          ],
          [
            -73.981426,
            40.690021
          ],
          [
            -73.982027,
            40.691228
          ],
          [
            -73.982054,
            40.691281
          ],
          [
            -73.982077,
            40.691334
          ],
          [
            -73.982391,
            40.69196
          ],
          [
            -73.982438,
            40.692054
          ],
          [
            -73.982475,
            40.692133
          ],
          [
            -73.982639,
            40.692464
          ],
          [
            -73.983143,
            40.693483
          ],
          [
            -73.983166,
            40.693529
          ],
          [
            -73.98319,
            40.69358
          ],
          [
            -73.983242,
            40.693687
          ],
          [
            -73.983283,
            40.693768
          ],
          [
            -73.98338,
            40.69396
          ],
          [
            -73.983767,
            40.694769
          ],
          [
            -73.9838,
            40.694833
          ],
          [
            -73.983831,
            40.694888
          ],
          [
            -73.98394,
            40.695101
          ],
          [
            -73.984067,
            40.695352
          ],
          [
            -73.98416,
            40.695537
          ],
          [
            -73.9843,
            40.69581
          ],
          [
            -73.984323,
            40.695852
          ],
          [
            -73.984383,
            40.695963
          ],
          [
            -73.98447,
            40.696123
          ],
          [
            -73.984676,
            40.696133
          ],
          [
            -73.98481,
            40.696139
          ],
          [
            -73.985062,
            40.696147
          ],
          [
            -73.985577,
            40.696151
          ],
          [
            -73.98617,
            40.69617
          ],
          [
            -73.986762,
            40.696188
          ],
          [
            -73.987355,
            40.696207
          ],
          [
            -73.987947,
            40.696225
          ],
          [
            -73.98854,
            40.696244
          ],
          [
            -73.988653,
            40.696247
          ],
          [
            -73.988627,
            40.696605
          ],
          [
            -73.988572,
            40.697537
          ],
          [
            -73.988527,
            40.698168
          ],
          [
            -73.988525,
            40.698596
          ],
          [
            -73.988497,
            40.69918
          ],
          [
            -73.988506,
            40.699333
          ],
          [
            -73.988529,
            40.699463
          ],
          [
            -73.988593,
            40.699633
          ],
          [
            -73.988676,
            40.699771
          ],
          [
            -73.988747,
            40.699863
          ],
          [
            -73.988804,
            40.699924
          ],
          [
            -73.989,
            40.7001
          ],
          [
            -73.9897,
            40.70055
          ],
          [
            -73.99005,
            40.7008
          ],
          [
            -73.9901,
            40.70084
          ],
          [
            -73.99012,
            40.70088
          ],
          [
            -73.9902,
            40.70094
          ],
          [
            -73.99045,
            40.70114
          ],
          [
            -73.9906,
            40.70126
          ],
          [
            -73.99123,
            40.70177
          ],
          [
            -73.99211,
            40.70247
          ],
          [
            -73.99311,
            40.70327
          ],
          [
            -73.99455,
            40.70443
          ],
          [
            -73.99734,
            40.70665
          ],
          [
            -73.99819,
            40.70733
          ],
          [
            -73.99844,
            40.7075
          ],
          [
            -73.99897,
            40.70791
          ],
          [
            -73.99921,
            40.70811
          ],
          [
            -73.99981,
            40.70858
          ],
          [
            -74.00078,
            40.70935
          ],
          [
            -74.00134,
            40.7098
          ],
          [
            -74.00309,
            40.71119
          ],
          [
            -74.00323,
            40.71128
          ],
          [
            -74.00327,
            40.71131
          ],
          [
            -74.00327,
            40.71137
          ],
          [
            -74.00328,
            40.7114
          ],
          [
            -74.00334,
            40.71153
          ],
          [
            -74.00332,
            40.71165
          ],
          [
            -74.0033,
            40.71169
          ],
          [
            -74.00317,
            40.71178
          ],
          [
            -74.00304,
            40.71181
          ],
          [
            -74.00293,
            40.7118
          ],
          [
            -74.00281,
            40.71175
          ],
          [
            -74.00272,
            40.71167
          ],
          [
            -74.00266,
            40.71156
          ],
          [
            -74.00261,
            40.71136
          ],
          [
            -74.00246,
            40.71108
          ],
          [
            -74.00234,
            40.71091
          ],
          [
            -74.00216,
            40.71071
          ],
          [
            -74.00211,
            40.71067
          ],
          [
            -74.00049,
            40.70937
          ],
          [
            -74.00033,
            40.70919
          ],
          [
            -74.00021,
            40.70902
          ],
          [
            -74.00017,
            40.70866
          ],
          [
            -74.00013,
            40.70847
          ],
          [
            -74.00006,
            40.70836
          ],
          [
            -73.99987,
            40.70821
          ],
          [
            -73.99972,
            40.70815
          ],
          [
            -73.99955,
            40.70812
          ],
          [
            -73.99942,
            40.70811
          ],
          [
            -73.99932,
            40.70811
          ],
          [
            -73.99913,
            40.70814
          ],
          [
            -73.99903,
            40.70817
          ],
          [
            -73.99886,
            40.70826
          ],
          [
            -73.99864,
            40.70837
          ],
          [
            -73.99818,
            40.70856
          ],
          [
            -73.99789,
            40.70865
          ],
          [
            -73.99699,
            40.70886
          ],
          [
            -73.99628,
            40.70897
          ],
          [
            -73.99602,
            40.709
          ],
          [
            -73.99425,
            40.70928
          ],
          [
            -73.99419,
            40.70932
          ],
          [
            -73.9941,
            40.70933
          ],
          [
            -73.99385,
            40.70936
          ],
          [
            -73.99361,
            40.70939
          ],
          [
            -73.99303,
            40.70947
          ],
          [
            -73.99223,
            40.70959
          ],
          [
            -73.99077,
            40.70978
          ],
          [
            -73.99007,
            40.70988
          ],
          [
            -73.98959,
            40.70995
          ],
          [
            -73.98827,
            40.71011
          ],
          [
            -73.98742,
            40.71021
          ],
          [
            -73.98527,
            40.71046
          ],
          [
            -73.98404,
            40.71057
          ],
          [
            -73.98309,
            40.71064
          ],
          [
            -73.98195,
            40.71072
          ],
          [
            -73.98052,
            40.71082
          ],
          [
            -73.97992,
            40.71092
          ],
          [
            -73.97939,
            40.71107
          ],
          [
            -73.97899,
            40.71124
          ],
          [
            -73.97878,
            40.71135
          ],
          [
            -73.97848,
            40.71154
          ],
          [
            -73.97816,
            40.71181
          ],
          [
            -73.97802,
            40.71194
          ],
          [
            -73.97778,
            40.71223
          ],
          [
            -73.97761,
            40.71251
          ],
          [
            -73.97696,
            40.71379
          ],
          [
            -73.9766,
            40.71449
          ],
          [
            -73.97609,
            40.71548
          ],
          [
            -73.97564,
            40.71635
          ],
          [
            -73.97542,
            40.71684
          ],
          [
            -73.97518,
            40.71747
          ],
          [
            -73.97506,
            40.71788
          ],
          [
            -73.9749,
            40.71867
          ],
          [
            -73.97454,
            40.72145
          ],
          [
            -73.97444,
            40.72205
          ],
          [
            -73.97434,
            40.72238
          ],
          [
            -73.97424,
            40.72256
          ],
          [
            -73.97413,
            40.72273
          ],
          [
            -73.97376,
            40.72334
          ],
          [
            -73.97315,
            40.72432
          ],
          [
            -73.97261,
            40.72517
          ],
          [
            -73.97226,
            40.72578
          ],
          [
            -73.97211,
            40.72606
          ],
          [
            -73.97202,
            40.72626
          ],
          [
            -73.97192,
            40.72658
          ],
          [
            -73.97186,
            40.72681
          ],
          [
            -73.9718,
            40.72723
          ],
          [
            -73.97169,
            40.72794
          ],
          [
            -73.97164,
            40.72851
          ],
          [
            -73.97168,
            40.72885
          ],
          [
            -73.97181,
            40.72927
          ],
          [
            -73.97187,
            40.72941
          ],
          [
            -73.97204,
            40.72969
          ],
          [
            -73.97217,
            40.72986
          ],
          [
            -73.97231,
            40.72999
          ],
          [
            -73.97285,
            40.73046
          ],
          [
            -73.97316,
            40.73071
          ],
          [
            -73.97341,
            40.73095
          ],
          [
            -73.97369,
            40.73132
          ],
          [
            -73.97387,
            40.73169
          ],
          [
            -73.97391,
            40.73179
          ],
          [
            -73.974,
            40.73214
          ],
          [
            -73.97411,
            40.73256
          ],
          [
            -73.97435,
            40.73351
          ],
          [
            -73.97474,
            40.73504
          ],
          [
            -73.9749,
            40.73569
          ],
          [
            -73.97492,
            40.73602
          ],
          [
            -73.97487,
            40.73638
          ],
          [
            -73.97473,
            40.7368
          ],
          [
            -73.9746,
            40.73701
          ],
          [
            -73.97396,
            40.73792
          ],
          [
            -73.97338,
            40.73873
          ],
          [
            -73.97321,
            40.73902
          ],
          [
            -73.97307,
            40.7394
          ],
          [
            -73.97279,
            40.74018
          ],
          [
            -73.97267,
            40.74061
          ],
          [
            -73.97241,
            40.7419
          ],
          [
            -73.97229,
            40.74245
          ],
          [
            -73.97221,
            40.74271
          ],
          [
            -73.97206,
            40.74308
          ],
          [
            -73.97192,
            40.74333
          ],
          [
            -73.97179,
            40.74353
          ],
          [
            -73.97135,
            40.7442
          ],
          [
            -73.97125,
            40.74436
          ],
          [
            -73.97113,
            40.74439
          ],
          [
            -73.97087,
            40.7447
          ],
          [
            -73.97077,
            40.74484
          ],
          [
            -73.97006,
            40.7457
          ],
          [
            -73.96909,
            40.74682
          ],
          [
            -73.96836,
            40.74768
          ],
          [
            -73.9682,
            40.74789
          ],
          [
            -73.96818,
            40.748
          ],
          [
            -73.96823,
            40.74813
          ],
          [
            -73.96837,
            40.74825
          ],
          [
            -73.96949,
            40.74873
          ],
          [
            -73.9697,
            40.74882
          ],
          [
            -73.96993,
            40.74891
          ],
          [
            -73.97005,
            40.74892
          ],
          [
            -73.97069,
            40.74919
          ],
          [
            -73.97108,
            40.74935
          ],
          [
            -73.97141,
            40.7495
          ],
          [
            -73.97258,
            40.75
          ],
          [
            -73.97409,
            40.75061
          ],
          [
            -73.97605,
            40.75145
          ],
          [
            -73.97719,
            40.75192
          ],
          [
            -73.97768,
            40.75213
          ],
          [
            -73.97817,
            40.75235
          ],
          [
            -73.97892,
            40.75265
          ],
          [
            -73.98048,
            40.75332
          ],
          [
            -73.98268,
            40.75424
          ],
          [
            -73.98638,
            40.7558
          ],
          [
            -73.9869,
            40.75602
          ],
          [
            -73.984977,
            40.758667
          ],
          [
            -73.981824,
            40.763003
          ],
          [
            -73.97971,
            40.765887
          ],
          [
            -73.979088,
            40.766838
          ],
          [
            -73.976019,
            40.765554
          ],
          [
            -73.973745,
            40.764652
          ],
          [
            -73.973573,
            40.764685
          ],
          [
            -73.973155,
            40.765132
          ],
          [
            -73.97312,
            40.76528
          ],
          [
            -73.97268,
            40.76579
          ],
          [
            -73.97258,
            40.76602
          ],
          [
            -73.97255,
            40.76613
          ],
          [
            -73.972539,
            40.76624
          ],
          [
            -73.972554,
            40.766346
          ],
          [
            -73.972591,
            40.766434
          ],
          [
            -73.972665,
            40.766552
          ],
          [
            -73.972816,
            40.766765
          ],
          [
            -73.972948,
            40.766993
          ],
          [
            -73.973044,
            40.76728
          ],
          [
            -73.973113,
            40.767594
          ],
          [
            -73.973126,
            40.767811
          ],
          [
            -73.973134,
            40.768101
          ],
          [
            -73.973091,
            40.768336
          ],
          [
            -73.973035,
            40.768548
          ],
          [
            -73.972928,
            40.768849
          ],
          [
            -73.972897,
            40.768939
          ],
          [
            -73.972834,
            40.769091
          ],
          [
            -73.97279,
            40.769149
          ],
          [
            -73.972676,
            40.769297
          ],
          [
            -73.972463,
            40.769452
          ],
          [
            -73.972242,
            40.769538
          ],
          [
            -73.972094,
            40.769577
          ],
          [
            -73.972031,
            40.7696
          ],
          [
            -73.971805,
            40.769703
          ],
          [
            -73.971601,
            40.769818
          ],
          [
            -73.971528,
            40.769866
          ],
          [
            -73.971421,
            40.769949
          ],
          [
            -73.971356,
            40.770012
          ],
          [
            -73.971294,
            40.770081
          ],
          [
            -73.971165,
            40.770269
          ],
          [
            -73.971095,
            40.770383
          ],
          [
            -73.97091,
            40.770731
          ],
          [
            -73.970823,
            40.770846
          ],
          [
            -73.970716,
            40.77095
          ],
          [
            -73.970586,
            40.771052
          ],
          [
            -73.970443,
            40.771143
          ],
          [
            -73.970083,
            40.771318
          ],
          [
            -73.969869,
            40.771421
          ],
          [
            -73.969757,
            40.77147
          ],
          [
            -73.969592,
            40.771566
          ],
          [
            -73.969524,
            40.771612
          ],
          [
            -73.969398,
            40.771718
          ],
          [
            -73.969262,
            40.771865
          ],
          [
            -73.96919,
            40.771965
          ],
          [
            -73.969008,
            40.772286
          ],
          [
            -73.968921,
            40.772453
          ],
          [
            -73.96886,
            40.772614
          ],
          [
            -73.968823,
            40.772743
          ],
          [
            -73.968798,
            40.772903
          ],
          [
            -73.9688,
            40.77296
          ],
          [
            -73.968802,
            40.773033
          ],
          [
            -73.968816,
            40.773102
          ],
          [
            -73.96888,
            40.773246
          ],
          [
            -73.96901,
            40.773352
          ],
          [
            -73.969109,
            40.773401
          ],
          [
            -73.969222,
            40.773443
          ],
          [
            -73.969312,
            40.773467
          ],
          [
            -73.969405,
            40.773478
          ],
          [
            -73.969515,
            40.773478
          ],
          [
            -73.969577,
            40.773473
          ],
          [
            -73.969831,
            40.77343
          ],
          [
            -73.969997,
            40.773421
          ],
          [
            -73.9701,
            40.773431
          ],
          [
            -73.970332,
            40.773489
          ],
          [
            -73.970595,
            40.773572
          ],
          [
            -73.970781,
            40.773623
          ],
          [
            -73.970869,
            40.773644
          ],
          [
            -73.970942,
            40.773662
          ],
          [
            -73.971184,
            40.773714
          ],
          [
            -73.971277,
            40.773735
          ],
          [
            -73.971373,
            40.773757
          ],
          [
            -73.971635,
            40.773814
          ],
          [
            -73.971774,
            40.773836
          ],
          [
            -73.971911,
            40.773841
          ],
          [
            -73.971985,
            40.773838
          ],
          [
            -73.972196,
            40.773814
          ],
          [
            -73.972297,
            40.773801
          ],
          [
            -73.972427,
            40.773786
          ],
          [
            -73.972646,
            40.773775
          ],
          [
            -73.972798,
            40.773786
          ],
          [
            -73.972931,
            40.773809
          ],
          [
            -73.972966,
            40.773816
          ],
          [
            -73.973048,
            40.773839
          ],
          [
            -73.973184,
            40.773889
          ],
          [
            -73.973322,
            40.773959
          ],
          [
            -73.973422,
            40.774029
          ],
          [
            -73.973527,
            40.774122
          ],
          [
            -73.973649,
            40.774247
          ],
          [
            -73.973778,
            40.774362
          ],
          [
            -73.973933,
            40.774476
          ],
          [
            -73.974112,
            40.774568
          ],
          [
            -73.974279,
            40.774632
          ],
          [
            -73.974457,
            40.77468
          ],
          [
            -73.974573,
            40.774689
          ],
          [
            -73.974614,
            40.774691
          ],
          [
            -73.974827,
            40.774705
          ],
          [
            -73.97513,
            40.774648
          ],
          [
            -73.97531,
            40.774587
          ],
          [
            -73.975435,
            40.774526
          ],
          [
            -73.975555,
            40.774441
          ],
          [
            -73.975657,
            40.774344
          ],
          [
            -73.975741,
            40.774246
          ],
          [
            -73.975938,
            40.773992
          ],
          [
            -73.976052,
            40.773837
          ],
          [
            -73.976154,
            40.773695
          ],
          [
            -73.976223,
            40.773578
          ],
          [
            -73.976271,
            40.773485
          ]
        ]
      }
    }
  ]
}