{
  "type": "FeatureCollection",
  "features": [
    {
      "type": "Feature",
      "properties": {
        "name": "RomaOstia Half Marathon",
        "source": "Reference GPX validated against official course map",
        "status": "reference"
      },
      "geometry": {
        "type": "LineString",
        "coordinates": [
          [
            12.46444389,
            41.82471058
          ],
          [
            12.46608943,
            41.82789251
          ],
          [
            12.46608943,
            41.82789251
          ],
          [
            12.46667147,
            41.82891381
          ],
          [
            12.46667147,
            41.82891381
          ],
          [
            12.4667573,
            41.82900775
          ],
          [
            12.4667573,
            41.82900775
          ],
          [
            12.46687531,
            41.82908769
          ],
          [
            12.46687531,
            41.82908769
          ],
          [
            12.46702015,
            41.82917363
          ],
          [
            12.46702015,
            41.82917363
          ],
          [
            12.467224,
            41.82925758
          ],
          [
            12.467224,
            41.82925758
          ],
          [
            12.46852487,
            41.82964331
          ],
          [
            12.46852487,
            41.82964331
          ],
          [
            12.46859998,
            41.82967329
          ],
          [
            12.46859998,
            41.82967329
          ],
          [
            12.46866435,
            41.82972325
          ],
          [
            12.46866435,
            41.82972325
          ],
          [
            12.46872872,
            41.8297992
          ],
          [
            12.46872872,
            41.8297992
          ],
          [
            12.46922493,
            41.83074452
          ],
          [
            12.46922493,
            41.83074452
          ],
          [
            12.46922158,
            41.83076951
          ],
          [
            12.46922158,
            41.83076951
          ],
          [
            12.46918236,
            41.83080099
          ],
          [
            12.46918236,
            41.83080099
          ],
          [
            12.46839748,
            41.83101634
          ],
          [
            12.46839748,
            41.83101634
          ],
          [
            12.46751906,
            41.83128814
          ],
          [
            12.46751906,
            41.83128814
          ],
          [
            12.46579975,
            41.83185172
          ],
          [
            12.46579975,
            41.83185172
          ],
          [
            12.46533573,
            41.83196364
          ],
          [
            12.46533573,
            41.83196364
          ],
          [
            12.46438622,
            41.83223344
          ],
          [
            12.46438622,
            41.83223344
          ],
          [
            12.46261865,
            41.83274306
          ],
          [
            12.46261865,
            41.83274306
          ],
          [
            12.46240139,
            41.83278902
          ],
          [
            12.46240139,
            41.83278902
          ],
          [
            12.4621439,
            41.832823
          ],
          [
            12.4621439,
            41.832823
          ],
          [
            12.46200979,
            41.832821
          ],
          [
            12.46200979,
            41.832821
          ],
          [
            12.46192664,
            41.83279901
          ],
          [
            12.46192664,
            41.83279901
          ],
          [
            12.46187836,
            41.83276504
          ],
          [
            12.46187836,
            41.83276504
          ],
          [
            12.4618113,
            41.8326911
          ],
          [
            12.4618113,
            41.8326911
          ],
          [
            12.46176034,
            41.83262914
          ],
          [
            12.46176034,
            41.83262914
          ],
          [
            12.46134996,
            41.83185771
          ],
          [
            12.46134996,
            41.83185771
          ],
          [
            12.46117562,
            41.83136008
          ],
          [
            12.46117562,
            41.83136008
          ],
          [
            12.46116489,
            41.83130412
          ],
          [
            12.46116489,
            41.83130412
          ],
          [
            12.46115685,
            41.83123017
          ],
          [
            12.46115685,
            41.83123017
          ],
          [
            12.46108711,
            41.8309124
          ],
          [
            12.46108711,
            41.8309124
          ],
          [
            12.46100396,
            41.83070355
          ],
          [
            12.46100396,
            41.83070355
          ],
          [
            12.46089935,
            41.8304987
          ],
          [
            12.46089935,
            41.8304987
          ],
          [
            12.46077061,
            41.83020091
          ],
          [
            12.46077061,
            41.83020091
          ],
          [
            12.46061504,
            41.82981918
          ],
          [
            12.46061504,
            41.82981918
          ],
          [
            12.46058822,
            41.82958635
          ],
          [
            12.46058822,
            41.82958635
          ],
          [
            12.46059224,
            41.82942096
          ],
          [
            12.46059224,
            41.82942096
          ],
          [
            12.46063985,
            41.82925233
          ],
          [
            12.46063985,
            41.82925233
          ],
          [
            12.46088628,
            41.82843052
          ],
          [
            12.46088628,
            41.82843052
          ],
          [
            12.4608955,
            41.82829043
          ],
          [
            12.4608955,
            41.82829043
          ],
          [
            12.46089072,
            41.8281934
          ],
          [
            12.46089072,
            41.8281934
          ],
          [
            12.46088297,
            41.82808892
          ],
          [
            12.46088297,
            41.82808892
          ],
          [
            12.46086568,
            41.82798272
          ],
          [
            12.46086568,
            41.82798272
          ],
          [
            12.4607283,
            41.82761383
          ],
          [
            12.4607283,
            41.82761383
          ],
          [
            12.46064351,
            41.82732945
          ],
          [
            12.46064351,
            41.82732945
          ],
          [
            12.46062525,
            41.82715527
          ],
          [
            12.46062525,
            41.82715527
          ],
          [
            12.4605893,
            41.82703621
          ],
          [
            12.4605893,
            41.82703621
          ],
          [
            12.46053874,
            41.82688852
          ],
          [
            12.46053874,
            41.82688852
          ],
          [
            12.46052305,
            41.82686275
          ],
          [
            12.46052305,
            41.82686275
          ],
          [
            12.46048992,
            41.82684197
          ],
          [
            12.46048992,
            41.82684197
          ],
          [
            12.46020245,
            41.82676962
          ],
          [
            12.46020245,
            41.82676962
          ],
          [
            12.46010431,
            41.82676943
          ],
          [
            12.46010431,
            41.82676943
          ],
          [
            12.46002037,
            41.82678132
          ],
          [
            12.46002037,
            41.82678132
          ],
          [
            12.45987112,
            41.82681325
          ],
          [
            12.45987112,
            41.82681325
          ],
          [
            12.45928686,
            41.82695713
          ],
          [
            12.45928686,
            41.82695713
          ],
          [
            12.4592081,
            41.82698311
          ],
          [
            12.4592081,
            41.82698311
          ],
          [
            12.45919554,
            41.8270021
          ],
          [
            12.45919554,
            41.8270021
          ],
          [
            12.45919908,
            41.82704307
          ],
          [
            12.45919908,
            41.82704307
          ],
          [
            12.45938488,
            41.82751475
          ],
          [
            12.45938488,
            41.82751475
          ],
          [
            12.45976184,
            41.82828223
          ],
          [
            12.45976184,
            41.82828223
          ],
          [
            12.4599557,
            41.82869045
          ],
          [
            12.4599557,
            41.82869045
          ],
          [
            12.46022696,
            41.82922833
          ],
          [
            12.46022696,
            41.82922833
          ],
          [
            12.4602166,
            41.82927256
          ],
          [
            12.4602166,
            41.82927256
          ],
          [
            12.4602166,
            41.82927256
          ],
          [
            12.4602166,
            41.82927256
          ],
          [
            12.4602166,
            41.82927256
          ],
          [
            12.4602166,
            41.82927256
          ],
          [
            12.46018589,
            41.82929355
          ],
          [
            12.46018589,
            41.82929355
          ],
          [
            12.46014833,
            41.82931054
          ],
          [
            12.46014833,
            41.82931054
          ],
          [
            12.46005714,
            41.82932303
          ],
          [
            12.46005714,
            41.82932303
          ],
          [
            12.4599579,
            41.82930754
          ],
          [
            12.4599579,
            41.82930754
          ],
          [
            12.45895207,
            41.82885585
          ],
          [
            12.45895207,
            41.82885585
          ],
          [
            12.45684117,
            41.82787053
          ],
          [
            12.45684117,
            41.82787053
          ],
          [
            12.45562613,
            41.82729491
          ],
          [
            12.45562613,
            41.82729491
          ],
          [
            12.45493948,
            41.82694914
          ],
          [
            12.45493948,
            41.82694914
          ],
          [
            12.45486975,
            41.82689718
          ],
          [
            12.45486975,
            41.82689718
          ],
          [
            12.45484293,
            41.82683522
          ],
          [
            12.45484293,
            41.82683522
          ],
          [
            12.45491266,
            41.82667732
          ],
          [
            12.45491266,
            41.82667732
          ],
          [
            12.45504409,
            41.82649544
          ],
          [
            12.45504409,
            41.82649544
          ],
          [
            12.45518625,
            41.82632155
          ],
          [
            12.45518625,
            41.82632155
          ],
          [
            12.45612234,
            41.8253082
          ],
          [
            12.45612234,
            41.8253082
          ],
          [
            12.45683581,
            41.82453669
          ],
          [
            12.45683581,
            41.82453669
          ],
          [
            12.45756805,
            41.82372519
          ],
          [
            12.45756805,
            41.82372519
          ],
          [
            12.45813936,
            41.82308158
          ],
          [
            12.45813936,
            41.82308158
          ],
          [
            12.46012688,
            41.82091084
          ],
          [
            12.46012688,
            41.82091084
          ],
          [
            12.46139824,
            41.81947564
          ],
          [
            12.46139824,
            41.81947564
          ],
          [
            12.46233165,
            41.81838022
          ],
          [
            12.46233165,
            41.81838022
          ],
          [
            12.46236116,
            41.81830826
          ],
          [
            12.46236116,
            41.81830826
          ],
          [
            12.46240944,
            41.81819232
          ],
          [
            12.46240944,
            41.81819232
          ],
          [
            12.46243358,
            41.8180404
          ],
          [
            12.46243358,
            41.8180404
          ],
          [
            12.46243358,
            41.81791846
          ],
          [
            12.46243358,
            41.81791846
          ],
          [
            12.46232629,
            41.81742871
          ],
          [
            12.46232629,
            41.81742871
          ],
          [
            12.46225923,
            41.81720883
          ],
          [
            12.46225923,
            41.81720883
          ],
          [
            12.4621439,
            41.81697694
          ],
          [
            12.4621439,
            41.81697694
          ],
          [
            12.4616611,
            41.81601542
          ],
          [
            12.4616611,
            41.81601542
          ],
          [
            12.46090472,
            41.81462608
          ],
          [
            12.46090472,
            41.81462608
          ],
          [
            12.45982647,
            41.81286688
          ],
          [
            12.45982647,
            41.81286688
          ],
          [
            12.45962262,
            41.812599
          ],
          [
            12.45962262,
            41.812599
          ],
          [
            12.45929539,
            41.81222716
          ],
          [
            12.45929539,
            41.81222716
          ],
          [
            12.45816886,
            41.81115561
          ],
          [
            12.45816886,
            41.81115561
          ],
          [
            12.45694578,
            41.81028397
          ],
          [
            12.45694578,
            41.81028397
          ],
          [
            12.4563396,
            41.80986413
          ],
          [
            12.4563396,
            41.80986413
          ],
          [
            12.45438159,
            41.80852065
          ],
          [
            12.45438159,
            41.80852065
          ],
          [
            12.4525255,
            41.80729709
          ],
          [
            12.4525255,
            41.80729709
          ],
          [
            12.44972527,
            41.80538973
          ],
          [
            12.44972527,
            41.80538973
          ],
          [
            12.44712889,
            41.80363028
          ],
          [
            12.44712889,
            41.80363028
          ],
          [
            12.44512796,
            41.80226667
          ],
          [
            12.44512796,
            41.80226667
          ],
          [
            12.44225264,
            41.80031117
          ],
          [
            12.44225264,
            41.80031117
          ],
          [
            12.44021952,
            41.79893949
          ],
          [
            12.44021952,
            41.79893949
          ],
          [
            12.43865311,
            41.79787572
          ],
          [
            12.43865311,
            41.79787572
          ],
          [
            12.43709743,
            41.79683193
          ],
          [
            12.43709743,
            41.79683193
          ],
          [
            12.43430257,
            41.79492826
          ],
          [
            12.43430257,
            41.79492826
          ],
          [
            12.43121266,
            41.79284456
          ],
          [
            12.43121266,
            41.79284456
          ],
          [
            12.42846608,
            41.79096477
          ],
          [
            12.42846608,
            41.79096477
          ],
          [
            12.42559075,
            41.78901293
          ],
          [
            12.42559075,
            41.78901293
          ],
          [
            12.42374003,
            41.787793
          ],
          [
            12.42374003,
            41.787793
          ],
          [
            12.42276371,
            41.78735702
          ],
          [
            12.42276371,
            41.78735702
          ],
          [
            12.42164254,
            41.78696104
          ],
          [
            12.42164254,
            41.78696104
          ],
          [
            12.42125094,
            41.78688104
          ],
          [
            12.42125094,
            41.78688104
          ],
          [
            12.41859555,
            41.78645305
          ],
          [
            12.41859555,
            41.78645305
          ],
          [
            12.41788208,
            41.78635305
          ],
          [
            12.41788208,
            41.78635305
          ],
          [
            12.41758704,
            41.78633305
          ],
          [
            12.41758704,
            41.78633305
          ],
          [
            12.41463661,
            41.78635305
          ],
          [
            12.41463661,
            41.78635305
          ],
          [
            12.41415381,
            41.78633305
          ],
          [
            12.41415381,
            41.78633305
          ],
          [
            12.41334379,
            41.78624906
          ],
          [
            12.41334379,
            41.78624906
          ],
          [
            12.41242647,
            41.78605306
          ],
          [
            12.41242647,
            41.78605306
          ],
          [
            12.41110682,
            41.78569707
          ],
          [
            12.41110682,
            41.78569707
          ],
          [
            12.40978181,
            41.78518907
          ],
          [
            12.40978181,
            41.78518907
          ],
          [
            12.40886717,
            41.78473908
          ],
          [
            12.40886717,
            41.78473908
          ],
          [
            12.40802765,
            41.78419707
          ],
          [
            12.40802765,
            41.78419707
          ],
          [
            12.40700841,
            41.78343306
          ],
          [
            12.40700841,
            41.78343306
          ],
          [
            12.40575045,
            41.78246904
          ],
          [
            12.40575045,
            41.78246904
          ],
          [
            12.40443349,
            41.781479
          ],
          [
            12.40443349,
            41.781479
          ],
          [
            12.40333378,
            41.78062895
          ],
          [
            12.40333378,
            41.78062895
          ],
          [
            12.40185857,
            41.77949487
          ],
          [
            12.40185857,
            41.77949487
          ],
          [
            12.4008742,
            41.7787508
          ],
          [
            12.4008742,
            41.7787508
          ],
          [
            12.39962697,
            41.7777847
          ],
          [
            12.39962697,
            41.7777847
          ],
          [
            12.39858359,
            41.77697661
          ],
          [
            12.39858359,
            41.77697661
          ],
          [
            12.39723444,
            41.77594848
          ],
          [
            12.39723444,
            41.77594848
          ],
          [
            12.39678919,
            41.77562643
          ],
          [
            12.39678919,
            41.77562643
          ],
          [
            12.39613742,
            41.77513436
          ],
          [
            12.39613742,
            41.77513436
          ],
          [
            12.39541322,
            41.77458028
          ],
          [
            12.39541322,
            41.77458028
          ],
          [
            12.39486605,
            41.77414421
          ],
          [
            12.39486605,
            41.77414421
          ],
          [
            12.39372075,
            41.77327806
          ],
          [
            12.39372075,
            41.77327806
          ],
          [
            12.39252985,
            41.77236989
          ],
          [
            12.39252985,
            41.77236989
          ],
          [
            12.39180565,
            41.77180578
          ],
          [
            12.39180565,
            41.77180578
          ],
          [
            12.3898825,
            41.77033147
          ],
          [
            12.3898825,
            41.77033147
          ],
          [
            12.38853335,
            41.76931123
          ],
          [
            12.38853335,
            41.76931123
          ],
          [
            12.38692671,
            41.76807092
          ],
          [
            12.38692671,
            41.76807092
          ],
          [
            12.38398433,
            41.7658143
          ],
          [
            12.38398433,
            41.7658143
          ],
          [
            12.38318503,
            41.76521812
          ],
          [
            12.38318503,
            41.76521812
          ],
          [
            12.3829329,
            41.76500605
          ],
          [
            12.3829329,
            41.76500605
          ],
          [
            12.38088369,
            41.76344556
          ],
          [
            12.38088369,
            41.76344556
          ],
          [
            12.37811029,
            41.76132082
          ],
          [
            12.37811029,
            41.76132082
          ],
          [
            12.37476289,
            41.75877184
          ],
          [
            12.37476289,
            41.75877184
          ],
          [
            12.37194121,
            41.75659092
          ],
          [
            12.37194121,
            41.75659092
          ],
          [
            12.36937165,
            41.75463003
          ],
          [
            12.36937165,
            41.75463003
          ],
          [
            12.36874402,
            41.7541458
          ],
          [
            12.36874402,
            41.7541458
          ],
          [
            12.36804128,
            41.75360955
          ],
          [
            12.36804128,
            41.75360955
          ],
          [
            12.36510158,
            41.75134441
          ],
          [
            12.36510158,
            41.75134441
          ],
          [
            12.36304164,
            41.74979158
          ],
          [
            12.36304164,
            41.74979158
          ],
          [
            12.36003757,
            41.74748228
          ],
          [
            12.36003757,
            41.74748228
          ],
          [
            12.35737681,
            41.74546508
          ],
          [
            12.35737681,
            41.74546508
          ],
          [
            12.35538661,
            41.74390411
          ],
          [
            12.35538661,
            41.74390411
          ],
          [
            12.35210896,
            41.74139447
          ],
          [
            12.35210896,
            41.74139447
          ],
          [
            12.3491317,
            41.73909688
          ],
          [
            12.3491317,
            41.73909688
          ],
          [
            12.34636903,
            41.73696332
          ],
          [
            12.34636903,
            41.73696332
          ],
          [
            12.34343469,
            41.73474564
          ],
          [
            12.34343469,
            41.73474564
          ],
          [
            12.34095097,
            41.73284013
          ],
          [
            12.34095097,
            41.73284013
          ],
          [
            12.33711541,
            41.72987767
          ],
          [
            12.33711541,
            41.72987767
          ],
          [
            12.33498573,
            41.72822023
          ],
          [
            12.33498573,
            41.72822023
          ],
          [
            12.33250737,
            41.72631453
          ],
          [
            12.33250737,
            41.72631453
          ],
          [
            12.32920289,
            41.72377216
          ],
          [
            12.32920289,
            41.72377216
          ],
          [
            12.32728243,
            41.72229074
          ],
          [
            12.32728243,
            41.72229074
          ],
          [
            12.32531369,
            41.72078126
          ],
          [
            12.32531369,
            41.72078126
          ],
          [
            12.32235253,
            41.71852297
          ],
          [
            12.32235253,
            41.71852297
          ],
          [
            12.3204428,
            41.71704543
          ],
          [
            12.3204428,
            41.71704543
          ],
          [
            12.32005656,
            41.71674912
          ],
          [
            12.32005656,
            41.71674912
          ],
          [
            12.31993318,
            41.71662899
          ],
          [
            12.31993318,
            41.71662899
          ],
          [
            12.31979907,
            41.71653689
          ],
          [
            12.31979907,
            41.71653689
          ],
          [
            12.3195523,
            41.7163567
          ],
          [
            12.3195523,
            41.7163567
          ],
          [
            12.31934309,
            41.71618852
          ],
          [
            12.31934309,
            41.71618852
          ],
          [
            12.3191607,
            41.71605638
          ],
          [
            12.3191607,
            41.71605638
          ],
          [
            12.31896758,
            41.71590021
          ],
          [
            12.31896758,
            41.71590021
          ],
          [
            12.31880665,
            41.71578209
          ],
          [
            12.31880665,
            41.71578209
          ],
          [
            12.31825143,
            41.71535363
          ],
          [
            12.31825143,
            41.71535363
          ],
          [
            12.31806535,
            41.71520001
          ],
          [
            12.31806535,
            41.71520001
          ],
          [
            12.31789722,
            41.71502577
          ]
        ]
      }
    }
  ]
}