<?xml version="1.0" encoding="UTF-8"?>
<gpx creator="StravaGPX" version="1.1" xmlns="http://www.topografix.com/GPX/1/1" xmlns:xsi="http://www.w3.org/2001/XMLSchema-instance" xsi:schemaLocation="http://www.topografix.com/GPX/1/1 http://www.topografix.com/GPX/1/1/gpx.xsd">
 <metadata>
  <name>Medio Maratón Valencia</name>
  <desc>Recorrido del Medio Maratón Valencia Trinidad Alfonso Zurich, el mejor medio maratón de España y uno de los más rápidos del mundo.</desc>
  <author>
   <name>Valencia Ciudad del Running</name>
   <link href="https://www.strava.com/athletes/31370230"/>
  </author>
  <copyright author="OpenStreetMap contributors">
   <year>2020</year>
   <license>https://www.openstreetmap.org/copyright</license>
  </copyright>
  <link href="https://www.strava.com/routes/3261998838475914006"/>
 </metadata>
 <trk>
  <name>Medio Maratón Valencia</name>
  <desc>Recorrido del Medio Maratón Valencia Trinidad Alfonso Zurich, el mejor medio maratón de España y uno de los más rápidos del mundo.</desc>
  <link href="https://www.strava.com/routes/3261998838475914006"/>
  <type>running</type>
  <trkseg>
   <trkpt lat="39.48113" lon="-0.34934000000000004">
    <ele>9.0</ele>
   </trkpt>
   <trkpt lat="39.48143" lon="-0.35036">
    <ele>9.430000000000001</ele>
   </trkpt>
   <trkpt lat="39.48158" lon="-0.35066">
    <ele>9.510000000000002</ele>
   </trkpt>
   <trkpt lat="39.48178" lon="-0.35042">
    <ele>9.92</ele>
   </trkpt>
   <trkpt lat="39.482110000000006" lon="-0.35077">
    <ele>10.15</ele>
   </trkpt>
   <trkpt lat="39.48225" lon="-0.35097">
    <ele>10.14</ele>
   </trkpt>
   <trkpt lat="39.48225" lon="-0.35109">
    <ele>10.14</ele>
   </trkpt>
   <trkpt lat="39.48228" lon="-0.35116">
    <ele>10.120000000000001</ele>
   </trkpt>
   <trkpt lat="39.482330000000005" lon="-0.3512">
    <ele>10.120000000000001</ele>
   </trkpt>
   <trkpt lat="39.48237" lon="-0.35125">
    <ele>10.040000000000001</ele>
   </trkpt>
   <trkpt lat="39.48236" lon="-0.35151000000000004">
    <ele>9.72</ele>
   </trkpt>
   <trkpt lat="39.48241" lon="-0.35150000000000003">
    <ele>9.72</ele>
   </trkpt>
   <trkpt lat="39.483251667609935" lon="-0.3517083207300409">
    <ele>9.91</ele>
   </trkpt>
   <trkpt lat="39.48409333484816" lon="-0.35191664650241367">
    <ele>9.73</ele>
   </trkpt>
   <trkpt lat="39.484935001714625" lon="-0.3521249773173892">
    <ele>9.420000000000002</ele>
   </trkpt>
   <trkpt lat="39.48577666820933" lon="-0.3523333131752381">
    <ele>9.23</ele>
   </trkpt>
   <trkpt lat="39.486618334332256" lon="-0.35254165407623117">
    <ele>9.290000000000001</ele>
   </trkpt>
   <trkpt lat="39.487460000000006" lon="-0.35275">
    <ele>9.430000000000001</ele>
   </trkpt>
   <trkpt lat="39.4876" lon="-0.35282">
    <ele>9.430000000000001</ele>
   </trkpt>
   <trkpt lat="39.487770000000005" lon="-0.35299">
    <ele>9.41</ele>
   </trkpt>
   <trkpt lat="39.48781" lon="-0.35319">
    <ele>9.58</ele>
   </trkpt>
   <trkpt lat="39.48785" lon="-0.35326">
    <ele>9.58</ele>
   </trkpt>
   <trkpt lat="39.48796" lon="-0.35337">
    <ele>9.58</ele>
   </trkpt>
   <trkpt lat="39.48803" lon="-0.35340000000000005">
    <ele>9.58</ele>
   </trkpt>
   <trkpt lat="39.48814" lon="-0.35341">
    <ele>9.65</ele>
   </trkpt>
   <trkpt lat="39.488240000000005" lon="-0.35338">
    <ele>9.65</ele>
   </trkpt>
   <trkpt lat="39.488310000000006" lon="-0.35332">
    <ele>9.65</ele>
   </trkpt>
   <trkpt lat="39.48836" lon="-0.35325">
    <ele>9.65</ele>
   </trkpt>
   <trkpt lat="39.48854" lon="-0.35325">
    <ele>9.65</ele>
   </trkpt>
   <trkpt lat="39.488580000000006" lon="-0.35326">
    <ele>9.65</ele>
   </trkpt>
   <trkpt lat="39.48930143594214" lon="-0.3537956809319825">
    <ele>9.63</ele>
   </trkpt>
   <trkpt lat="39.490022869426255" lon="-0.3543313729801132">
    <ele>9.930000000000001</ele>
   </trkpt>
   <trkpt lat="39.490744300452256" lon="-0.3548670761448703">
    <ele>10.17</ele>
   </trkpt>
   <trkpt lat="39.49146572902001" lon="-0.3554027904267317">
    <ele>10.38</ele>
   </trkpt>
   <trkpt lat="39.49218715512941" lon="-0.3559385158261756">
    <ele>10.75</ele>
   </trkpt>
   <trkpt lat="39.492908578780344" lon="-0.3564742523436799">
    <ele>11.01</ele>
   </trkpt>
   <trkpt lat="39.49363" lon="-0.35701000000000005">
    <ele>11.36</ele>
   </trkpt>
   <trkpt lat="39.49376" lon="-0.35721">
    <ele>11.48</ele>
   </trkpt>
   <trkpt lat="39.4938" lon="-0.35744000000000004">
    <ele>11.63</ele>
   </trkpt>
   <trkpt lat="39.49378" lon="-0.35769">
    <ele>11.63</ele>
   </trkpt>
   <trkpt lat="39.493790000000004" lon="-0.3578">
    <ele>11.840000000000002</ele>
   </trkpt>
   <trkpt lat="39.49383" lon="-0.35795000000000005">
    <ele>11.860000000000001</ele>
   </trkpt>
   <trkpt lat="39.4938" lon="-0.35808">
    <ele>11.860000000000001</ele>
   </trkpt>
   <trkpt lat="39.49372" lon="-0.35824">
    <ele>11.81</ele>
   </trkpt>
   <trkpt lat="39.493245003021556" lon="-0.3590750056428498">
    <ele>11.38</ele>
   </trkpt>
   <trkpt lat="39.49277" lon="-0.35991">
    <ele>11.09</ele>
   </trkpt>
   <trkpt lat="39.492720000000006" lon="-0.35988000000000003">
    <ele>11.19</ele>
   </trkpt>
   <trkpt lat="39.492340000000006" lon="-0.36048">
    <ele>10.88</ele>
   </trkpt>
   <trkpt lat="39.49203" lon="-0.36086">
    <ele>10.72</ele>
   </trkpt>
   <trkpt lat="39.49174" lon="-0.36125">
    <ele>10.870000000000001</ele>
   </trkpt>
   <trkpt lat="39.491400000000006" lon="-0.36179000000000006">
    <ele>10.990000000000002</ele>
   </trkpt>
   <trkpt lat="39.49093334760105" lon="-0.36260669409899965">
    <ele>11.370000000000001</ele>
   </trkpt>
   <trkpt lat="39.49046668948888" lon="-0.36342337723512397">
    <ele>12.020000000000001</ele>
   </trkpt>
   <trkpt lat="39.49000002566368" lon="-0.3642400494085679">
    <ele>13.57</ele>
   </trkpt>
   <trkpt lat="39.48953335612561" lon="-0.3650567106195264">
    <ele>14.790000000000001</ele>
   </trkpt>
   <trkpt lat="39.48906668087485" lon="-0.3658733608681942">
    <ele>15.120000000000001</ele>
   </trkpt>
   <trkpt lat="39.488600000000005" lon="-0.36669">
    <ele>15.57</ele>
   </trkpt>
   <trkpt lat="39.48859" lon="-0.36672000000000005">
    <ele>15.57</ele>
   </trkpt>
   <trkpt lat="39.48865" lon="-0.3668">
    <ele>15.250000000000002</ele>
   </trkpt>
   <trkpt lat="39.48854" lon="-0.36706000000000005">
    <ele>15.200000000000001</ele>
   </trkpt>
   <trkpt lat="39.48845" lon="-0.36739000000000005">
    <ele>15.360000000000001</ele>
   </trkpt>
   <trkpt lat="39.48838000000001" lon="-0.36759000000000003">
    <ele>15.410000000000002</ele>
   </trkpt>
   <trkpt lat="39.488020000000006" lon="-0.36822000000000005">
    <ele>15.92</ele>
   </trkpt>
   <trkpt lat="39.48794" lon="-0.36826000000000003">
    <ele>16.020000000000003</ele>
   </trkpt>
   <trkpt lat="39.48739167828363" lon="-0.36752330428333496">
    <ele>16.12</ele>
   </trkpt>
   <trkpt lat="39.48684335191861" lon="-0.36678662018487707">
    <ele>15.580000000000002</ele>
   </trkpt>
   <trkpt lat="39.48629502090509" lon="-0.3660499477043149">
    <ele>15.22</ele>
   </trkpt>
   <trkpt lat="39.48574668524327" lon="-0.36531328684133757">
    <ele>14.520000000000001</ele>
   </trkpt>
   <trkpt lat="39.48519834493331" lon="-0.3645766375956334">
    <ele>14.270000000000001</ele>
   </trkpt>
   <trkpt lat="39.48465" lon="-0.36384000000000005">
    <ele>13.15</ele>
   </trkpt>
   <trkpt lat="39.4844" lon="-0.36393000000000003">
    <ele>13.330000000000002</ele>
   </trkpt>
   <trkpt lat="39.48402" lon="-0.36411000000000004">
    <ele>13.22</ele>
   </trkpt>
   <trkpt lat="39.48330833599766" lon="-0.36446335141566133">
    <ele>13.64</ele>
   </trkpt>
   <trkpt lat="39.482596670925886" lon="-0.36481669559976665">
    <ele>13.770000000000001</ele>
   </trkpt>
   <trkpt lat="39.48188500478474" lon="-0.3651700325526361">
    <ele>14.040000000000001</ele>
   </trkpt>
   <trkpt lat="39.48117333757428" lon="-0.36552336227458965">
    <ele>14.23</ele>
   </trkpt>
   <trkpt lat="39.480461669294534" lon="-0.36587668476594754">
    <ele>14.650000000000002</ele>
   </trkpt>
   <trkpt lat="39.47975" lon="-0.36623000000000006">
    <ele>14.55</ele>
   </trkpt>
   <trkpt lat="39.47913333400603" lon="-0.36650333816533465">
    <ele>14.07</ele>
   </trkpt>
   <trkpt lat="39.478516667372126" lon="-0.36677667148408005">
    <ele>13.7</ele>
   </trkpt>
   <trkpt lat="39.477900000000005" lon="-0.36705000000000004">
    <ele>13.540000000000001</ele>
   </trkpt>
   <trkpt lat="39.477540000000005" lon="-0.36732000000000004">
    <ele>13.46</ele>
   </trkpt>
   <trkpt lat="39.47731" lon="-0.36761000000000005">
    <ele>13.590000000000002</ele>
   </trkpt>
   <trkpt lat="39.4772" lon="-0.36791">
    <ele>13.49</ele>
   </trkpt>
   <trkpt lat="39.477160000000005" lon="-0.36810000000000004">
    <ele>13.44</ele>
   </trkpt>
   <trkpt lat="39.477180000000004" lon="-0.36829">
    <ele>13.600000000000001</ele>
   </trkpt>
   <trkpt lat="39.477270000000004" lon="-0.36851">
    <ele>13.57</ele>
   </trkpt>
   <trkpt lat="39.47768333700629" lon="-0.3691599923606049">
    <ele>13.13</ele>
   </trkpt>
   <trkpt lat="39.47809667039392" lon="-0.36980999244588786">
    <ele>13.170000000000002</ele>
   </trkpt>
   <trkpt lat="39.47851" lon="-0.37046">
    <ele>13.14</ele>
   </trkpt>
   <trkpt lat="39.478910000000006" lon="-0.37131000000000003">
    <ele>13.370000000000001</ele>
   </trkpt>
   <trkpt lat="39.479130000000005" lon="-0.37157">
    <ele>13.65</ele>
   </trkpt>
   <trkpt lat="39.47937" lon="-0.37179">
    <ele>14.120000000000001</ele>
   </trkpt>
   <trkpt lat="39.479690000000005" lon="-0.37212">
    <ele>14.58</ele>
   </trkpt>
   <trkpt lat="39.480050000000006" lon="-0.37289000000000005">
    <ele>14.530000000000001</ele>
   </trkpt>
   <trkpt lat="39.480230000000006" lon="-0.37320000000000003">
    <ele>14.640000000000002</ele>
   </trkpt>
   <trkpt lat="39.48049" lon="-0.37355000000000005">
    <ele>14.700000000000001</ele>
   </trkpt>
   <trkpt lat="39.48102" lon="-0.37433000000000005">
    <ele>14.860000000000001</ele>
   </trkpt>
   <trkpt lat="39.48161" lon="-0.37512">
    <ele>15.66</ele>
   </trkpt>
   <trkpt lat="39.48183" lon="-0.37549000000000005">
    <ele>15.06</ele>
   </trkpt>
   <trkpt lat="39.4822500025445" lon="-0.3762649952686229">
    <ele>14.610000000000001</ele>
   </trkpt>
   <trkpt lat="39.482670000000006" lon="-0.37704000000000004">
    <ele>14.860000000000001</ele>
   </trkpt>
   <trkpt lat="39.482730000000004" lon="-0.37716000000000005">
    <ele>14.780000000000001</ele>
   </trkpt>
   <trkpt lat="39.482780000000005" lon="-0.37734">
    <ele>14.780000000000001</ele>
   </trkpt>
   <trkpt lat="39.482820000000004" lon="-0.37761000000000006">
    <ele>14.820000000000002</ele>
   </trkpt>
   <trkpt lat="39.4828733404839" lon="-0.3785233320278832">
    <ele>15.340000000000002</ele>
   </trkpt>
   <trkpt lat="39.48292667382282" lon="-0.3794366654566568">
    <ele>15.780000000000003</ele>
   </trkpt>
   <trkpt lat="39.482980000000005" lon="-0.38035">
    <ele>16.91</ele>
   </trkpt>
   <trkpt lat="39.48297" lon="-0.38056">
    <ele>17.07</ele>
   </trkpt>
   <trkpt lat="39.482800000000005" lon="-0.3815">
    <ele>16.330000000000002</ele>
   </trkpt>
   <trkpt lat="39.4827" lon="-0.38196">
    <ele>16.19</ele>
   </trkpt>
   <trkpt lat="39.48230500395914" lon="-0.3829200054224694">
    <ele>16.39</ele>
   </trkpt>
   <trkpt lat="39.481910000000006" lon="-0.38388000000000005">
    <ele>16.89</ele>
   </trkpt>
   <trkpt lat="39.481730000000006" lon="-0.38422">
    <ele>17.890000000000004</ele>
   </trkpt>
   <trkpt lat="39.481363338483305" lon="-0.3849933414289869">
    <ele>17.34</ele>
   </trkpt>
   <trkpt lat="39.48099667184417" lon="-0.3857666747041494">
    <ele>17.34</ele>
   </trkpt>
   <trkpt lat="39.480630000000005" lon="-0.38654000000000005">
    <ele>17.29</ele>
   </trkpt>
   <trkpt lat="39.48027500270569" lon="-0.3873350040598839">
    <ele>17.51</ele>
   </trkpt>
   <trkpt lat="39.47992" lon="-0.38813000000000003">
    <ele>17.69</ele>
   </trkpt>
   <trkpt lat="39.47972" lon="-0.38863000000000003">
    <ele>17.54</ele>
   </trkpt>
   <trkpt lat="39.47946000251074" lon="-0.3893950028463777">
    <ele>17.900000000000002</ele>
   </trkpt>
   <trkpt lat="39.479200000000006" lon="-0.39016">
    <ele>18.520000000000003</ele>
   </trkpt>
   <trkpt lat="39.479060000000004" lon="-0.39066">
    <ele>19.680000000000003</ele>
   </trkpt>
   <trkpt lat="39.47903" lon="-0.39086000000000004">
    <ele>20.310000000000002</ele>
   </trkpt>
   <trkpt lat="39.478930000000005" lon="-0.39084">
    <ele>19.900000000000002</ele>
   </trkpt>
   <trkpt lat="39.47887" lon="-0.39079">
    <ele>19.35</ele>
   </trkpt>
   <trkpt lat="39.47881" lon="-0.3909">
    <ele>19.3</ele>
   </trkpt>
   <trkpt lat="39.47872" lon="-0.39088">
    <ele>19.21</ele>
   </trkpt>
   <trkpt lat="39.47822000055412" lon="-0.3905199974116307">
    <ele>19.16</ele>
   </trkpt>
   <trkpt lat="39.477720000000005" lon="-0.39016">
    <ele>19.12</ele>
   </trkpt>
   <trkpt lat="39.4776" lon="-0.39010000000000006">
    <ele>19.24</ele>
   </trkpt>
   <trkpt lat="39.477520000000005" lon="-0.38991000000000003">
    <ele>19.49</ele>
   </trkpt>
   <trkpt lat="39.47746" lon="-0.38986000000000004">
    <ele>19.84</ele>
   </trkpt>
   <trkpt lat="39.47737" lon="-0.38980000000000004">
    <ele>20.060000000000002</ele>
   </trkpt>
   <trkpt lat="39.47729" lon="-0.38981000000000005">
    <ele>20.85</ele>
   </trkpt>
   <trkpt lat="39.47683000000001" lon="-0.38946000000000003">
    <ele>20.69</ele>
   </trkpt>
   <trkpt lat="39.476093860342864" lon="-0.38893454867357663">
    <ele>23.76</ele>
   </trkpt>
   <trkpt lat="39.475357718320986" lon="-0.38840910846783505">
    <ele>23.76</ele>
   </trkpt>
   <trkpt lat="39.47462157393451" lon="-0.3878836793822846">
    <ele>23.76</ele>
   </trkpt>
   <trkpt lat="39.473885427183546" lon="-0.38735826141643454">
    <ele>23.76</ele>
   </trkpt>
   <trkpt lat="39.4731492780682" lon="-0.386832854569794">
    <ele>23.76</ele>
   </trkpt>
   <trkpt lat="39.472413126588584" lon="-0.38630745884187245">
    <ele>23.76</ele>
   </trkpt>
   <trkpt lat="39.4716769727448" lon="-0.3857820742321791">
    <ele>17.550000000000004</ele>
   </trkpt>
   <trkpt lat="39.47094081653699" lon="-0.38525670074022333">
    <ele>17.550000000000004</ele>
   </trkpt>
   <trkpt lat="39.47020465796523" lon="-0.3847313383655145">
    <ele>17.550000000000004</ele>
   </trkpt>
   <trkpt lat="39.46946849702965" lon="-0.384205987107562">
    <ele>17.550000000000004</ele>
   </trkpt>
   <trkpt lat="39.468732333730365" lon="-0.38368064696587506">
    <ele>17.550000000000004</ele>
   </trkpt>
   <trkpt lat="39.46799616806749" lon="-0.38315531793996327">
    <ele>17.41</ele>
   </trkpt>
   <trkpt lat="39.46726" lon="-0.38263">
    <ele>17.63</ele>
   </trkpt>
   <trkpt lat="39.466710000000006" lon="-0.38227000000000005">
    <ele>17.37</ele>
   </trkpt>
   <trkpt lat="39.466010000000004" lon="-0.38177000000000005">
    <ele>18.0</ele>
   </trkpt>
   <trkpt lat="39.46594" lon="-0.38173">
    <ele>18.61</ele>
   </trkpt>
   <trkpt lat="39.466100000000004" lon="-0.38153000000000004">
    <ele>18.47</ele>
   </trkpt>
   <trkpt lat="39.466820000000006" lon="-0.38094000000000006">
    <ele>18.150000000000002</ele>
   </trkpt>
   <trkpt lat="39.46743500090772" lon="-0.38047000418307475">
    <ele>18.230000000000004</ele>
   </trkpt>
   <trkpt lat="39.468050000000005" lon="-0.38">
    <ele>18.71</ele>
   </trkpt>
   <trkpt lat="39.468090000000004" lon="-0.37997000000000003">
    <ele>18.71</ele>
   </trkpt>
   <trkpt lat="39.46815" lon="-0.37998000000000004">
    <ele>18.62</ele>
   </trkpt>
   <trkpt lat="39.46822" lon="-0.38019000000000003">
    <ele>18.410000000000004</ele>
   </trkpt>
   <trkpt lat="39.46828" lon="-0.38015000000000004">
    <ele>18.8</ele>
   </trkpt>
   <trkpt lat="39.468500000000006" lon="-0.38077000000000005">
    <ele>18.8</ele>
   </trkpt>
   <trkpt lat="39.46882" lon="-0.3815">
    <ele>19.05</ele>
   </trkpt>
   <trkpt lat="39.46932667016441" lon="-0.3821399906664465">
    <ele>19.000000000000004</ele>
   </trkpt>
   <trkpt lat="39.469833336820834" lon="-0.3827799906533823">
    <ele>19.020000000000003</ele>
   </trkpt>
   <trkpt lat="39.47034" lon="-0.38342000000000004">
    <ele>19.040000000000003</ele>
   </trkpt>
   <trkpt lat="39.47036000000001" lon="-0.38349000000000005">
    <ele>19.040000000000003</ele>
   </trkpt>
   <trkpt lat="39.47063" lon="-0.38361">
    <ele>19.32</ele>
   </trkpt>
   <trkpt lat="39.47109500036979" lon="-0.3837699990201989">
    <ele>19.470000000000002</ele>
   </trkpt>
   <trkpt lat="39.471560000000004" lon="-0.38393000000000005">
    <ele>19.82</ele>
   </trkpt>
   <trkpt lat="39.47191" lon="-0.384">
    <ele>20.05</ele>
   </trkpt>
   <trkpt lat="39.472640000000006" lon="-0.384">
    <ele>20.400000000000002</ele>
   </trkpt>
   <trkpt lat="39.473150000008445" lon="-0.3839550003298955">
    <ele>20.55</ele>
   </trkpt>
   <trkpt lat="39.47366" lon="-0.38391000000000003">
    <ele>21.0</ele>
   </trkpt>
   <trkpt lat="39.473760000000006" lon="-0.38392000000000004">
    <ele>21.220000000000002</ele>
   </trkpt>
   <trkpt lat="39.47425499993316" lon="-0.38397499959979536">
    <ele>21.42</ele>
   </trkpt>
   <trkpt lat="39.47475" lon="-0.38403000000000004">
    <ele>21.88</ele>
   </trkpt>
   <trkpt lat="39.4752300000161" lon="-0.3840949995512396">
    <ele>22.160000000000004</ele>
   </trkpt>
   <trkpt lat="39.47571000000001" lon="-0.38416000000000006">
    <ele>22.770000000000003</ele>
   </trkpt>
   <trkpt lat="39.476214999965066" lon="-0.3840950004786925">
    <ele>22.79</ele>
   </trkpt>
   <trkpt lat="39.47672" lon="-0.38403000000000004">
    <ele>22.69</ele>
   </trkpt>
   <trkpt lat="39.477500000187305" lon="-0.3838700017781777">
    <ele>22.53</ele>
   </trkpt>
   <trkpt lat="39.478280000000005" lon="-0.38371000000000005">
    <ele>22.36</ele>
   </trkpt>
   <trkpt lat="39.4784" lon="-0.38372">
    <ele>22.320000000000004</ele>
   </trkpt>
   <trkpt lat="39.47891000026342" lon="-0.383515001469533">
    <ele>22.05</ele>
   </trkpt>
   <trkpt lat="39.479420000000005" lon="-0.38331000000000004">
    <ele>21.79</ele>
   </trkpt>
   <trkpt lat="39.47990000030281" lon="-0.3831300011806596">
    <ele>21.45</ele>
   </trkpt>
   <trkpt lat="39.480380000000004" lon="-0.38295">
    <ele>17.820000000000004</ele>
   </trkpt>
   <trkpt lat="39.48049" lon="-0.38283">
    <ele>18.04</ele>
   </trkpt>
   <trkpt lat="39.480610000000006" lon="-0.38262">
    <ele>18.0</ele>
   </trkpt>
   <trkpt lat="39.48089500303553" lon="-0.38178500327621184">
    <ele>17.86</ele>
   </trkpt>
   <trkpt lat="39.48118" lon="-0.38095">
    <ele>17.580000000000002</ele>
   </trkpt>
   <trkpt lat="39.48122" lon="-0.38068">
    <ele>17.32</ele>
   </trkpt>
   <trkpt lat="39.48122" lon="-0.38046">
    <ele>17.29</ele>
   </trkpt>
   <trkpt lat="39.481170000000006" lon="-0.38015000000000004">
    <ele>17.17</ele>
   </trkpt>
   <trkpt lat="39.48102" lon="-0.37931000000000004">
    <ele>16.720000000000002</ele>
   </trkpt>
   <trkpt lat="39.480900000000005" lon="-0.37884">
    <ele>16.450000000000003</ele>
   </trkpt>
   <trkpt lat="39.48075" lon="-0.37845">
    <ele>16.19</ele>
   </trkpt>
   <trkpt lat="39.48042" lon="-0.37775000000000003">
    <ele>15.84</ele>
   </trkpt>
   <trkpt lat="39.480025002070214" lon="-0.37705499605596293">
    <ele>15.96</ele>
   </trkpt>
   <trkpt lat="39.47963" lon="-0.37636000000000003">
    <ele>16.53</ele>
   </trkpt>
   <trkpt lat="39.479530000000004" lon="-0.37615000000000004">
    <ele>16.55</ele>
   </trkpt>
   <trkpt lat="39.47948" lon="-0.37597">
    <ele>16.92</ele>
   </trkpt>
   <trkpt lat="39.479290000000006" lon="-0.37551">
    <ele>16.490000000000002</ele>
   </trkpt>
   <trkpt lat="39.479020000000006" lon="-0.3749">
    <ele>16.42</ele>
   </trkpt>
   <trkpt lat="39.47892" lon="-0.37470000000000003">
    <ele>16.39</ele>
   </trkpt>
   <trkpt lat="39.47862000220998" lon="-0.37397999687046807">
    <ele>15.860000000000003</ele>
   </trkpt>
   <trkpt lat="39.478320000000004" lon="-0.37326000000000004">
    <ele>15.940000000000003</ele>
   </trkpt>
   <trkpt lat="39.477903337210336" lon="-0.3725899920250906">
    <ele>15.540000000000001</ele>
   </trkpt>
   <trkpt lat="39.47748667057579" lon="-0.37191999207683707">
    <ele>15.14</ele>
   </trkpt>
   <trkpt lat="39.477070000000005" lon="-0.37125">
    <ele>14.790000000000001</ele>
   </trkpt>
   <trkpt lat="39.476850000000006" lon="-0.37098000000000003">
    <ele>14.600000000000001</ele>
   </trkpt>
   <trkpt lat="39.47617" lon="-0.37025">
    <ele>13.89</ele>
   </trkpt>
   <trkpt lat="39.475860000000004" lon="-0.36999000000000004">
    <ele>13.65</ele>
   </trkpt>
   <trkpt lat="39.475500000000004" lon="-0.36986">
    <ele>13.170000000000002</ele>
   </trkpt>
   <trkpt lat="39.475190000000005" lon="-0.36978000000000005">
    <ele>12.64</ele>
   </trkpt>
   <trkpt lat="39.474520000000005" lon="-0.36979">
    <ele>12.32</ele>
   </trkpt>
   <trkpt lat="39.47430000000001" lon="-0.36986">
    <ele>13.32</ele>
   </trkpt>
   <trkpt lat="39.47428" lon="-0.36981">
    <ele>12.22</ele>
   </trkpt>
   <trkpt lat="39.47422" lon="-0.3698">
    <ele>12.190000000000001</ele>
   </trkpt>
   <trkpt lat="39.47411" lon="-0.36984000000000006">
    <ele>12.190000000000001</ele>
   </trkpt>
   <trkpt lat="39.47373" lon="-0.36985">
    <ele>12.520000000000001</ele>
   </trkpt>
   <trkpt lat="39.472970000000004" lon="-0.37001">
    <ele>12.24</ele>
   </trkpt>
   <trkpt lat="39.472750000000005" lon="-0.37007">
    <ele>12.350000000000001</ele>
   </trkpt>
   <trkpt lat="39.47272" lon="-0.37012">
    <ele>12.350000000000001</ele>
   </trkpt>
   <trkpt lat="39.4727" lon="-0.37021000000000004">
    <ele>12.39</ele>
   </trkpt>
   <trkpt lat="39.47272" lon="-0.37028000000000005">
    <ele>12.34</ele>
   </trkpt>
   <trkpt lat="39.472770000000004" lon="-0.37026000000000003">
    <ele>12.34</ele>
   </trkpt>
   <trkpt lat="39.47299" lon="-0.37134">
    <ele>13.35</ele>
   </trkpt>
   <trkpt lat="39.47294" lon="-0.37137000000000003">
    <ele>13.19</ele>
   </trkpt>
   <trkpt lat="39.473133341335846" lon="-0.3723366612902659">
    <ele>14.010000000000002</ele>
   </trkpt>
   <trkpt lat="39.473326674668456" lon="-0.3733033279531766">
    <ele>14.96</ele>
   </trkpt>
   <trkpt lat="39.47352" lon="-0.37427000000000005">
    <ele>15.82</ele>
   </trkpt>
   <trkpt lat="39.473490000000005" lon="-0.3743">
    <ele>15.82</ele>
   </trkpt>
   <trkpt lat="39.47345" lon="-0.37431000000000003">
    <ele>15.82</ele>
   </trkpt>
   <trkpt lat="39.473200000000006" lon="-0.37431000000000003">
    <ele>15.56</ele>
   </trkpt>
   <trkpt lat="39.472820000000006" lon="-0.3744">
    <ele>15.75</ele>
   </trkpt>
   <trkpt lat="39.472750000000005" lon="-0.37446">
    <ele>15.75</ele>
   </trkpt>
   <trkpt lat="39.472570000000005" lon="-0.37446">
    <ele>15.84</ele>
   </trkpt>
   <trkpt lat="39.47185" lon="-0.37431000000000003">
    <ele>16.03</ele>
   </trkpt>
   <trkpt lat="39.47123999991238" lon="-0.3742449994188585">
    <ele>15.71</ele>
   </trkpt>
   <trkpt lat="39.47063" lon="-0.37418">
    <ele>15.490000000000002</ele>
   </trkpt>
   <trkpt lat="39.47055" lon="-0.37417000000000006">
    <ele>15.530000000000001</ele>
   </trkpt>
   <trkpt lat="39.47048" lon="-0.37408">
    <ele>15.530000000000001</ele>
   </trkpt>
   <trkpt lat="39.47041" lon="-0.37434">
    <ele>15.39</ele>
   </trkpt>
   <trkpt lat="39.470390001515355" lon="-0.37493500019126813">
    <ele>15.47</ele>
   </trkpt>
   <trkpt lat="39.47037" lon="-0.37553000000000003">
    <ele>15.790000000000001</ele>
   </trkpt>
   <trkpt lat="39.47034" lon="-0.37587000000000004">
    <ele>15.92</ele>
   </trkpt>
   <trkpt lat="39.470310000000005" lon="-0.3759">
    <ele>31.070000000000004</ele>
   </trkpt>
   <trkpt lat="39.47016" lon="-0.37593000000000004">
    <ele>29.110000000000003</ele>
   </trkpt>
   <trkpt lat="39.46951000000001" lon="-0.3758">
    <ele>16.439999999999998</ele>
   </trkpt>
   <trkpt lat="39.46941" lon="-0.37581000000000003">
    <ele>16.439999999999998</ele>
   </trkpt>
   <trkpt lat="39.469350000000006" lon="-0.37585">
    <ele>16.700000000000003</ele>
   </trkpt>
   <trkpt lat="39.469280000000005" lon="-0.37592000000000003">
    <ele>16.700000000000003</ele>
   </trkpt>
   <trkpt lat="39.46925" lon="-0.37603000000000003">
    <ele>17.16</ele>
   </trkpt>
   <trkpt lat="39.46925" lon="-0.37662">
    <ele>17.93</ele>
   </trkpt>
   <trkpt lat="39.469170000000005" lon="-0.37675000000000003">
    <ele>18.79</ele>
   </trkpt>
   <trkpt lat="39.46905" lon="-0.37681000000000003">
    <ele>19.69</ele>
   </trkpt>
   <trkpt lat="39.468630000000005" lon="-0.37687000000000004">
    <ele>19.87</ele>
   </trkpt>
   <trkpt lat="39.468630000000005" lon="-0.37683000000000005">
    <ele>19.87</ele>
   </trkpt>
   <trkpt lat="39.467800000000004" lon="-0.37692000000000003">
    <ele>19.380000000000003</ele>
   </trkpt>
   <trkpt lat="39.467600000000004" lon="-0.37677000000000005">
    <ele>18.89</ele>
   </trkpt>
   <trkpt lat="39.467600000000004" lon="-0.37676000000000004">
    <ele>18.89</ele>
   </trkpt>
   <trkpt lat="39.46740500247967" lon="-0.3759949977527483">
    <ele>18.26</ele>
   </trkpt>
   <trkpt lat="39.46721" lon="-0.37523">
    <ele>18.240000000000002</ele>
   </trkpt>
   <trkpt lat="39.46725" lon="-0.37492000000000003">
    <ele>18.48</ele>
   </trkpt>
   <trkpt lat="39.46716" lon="-0.37487000000000004">
    <ele>18.29</ele>
   </trkpt>
   <trkpt lat="39.467310000000005" lon="-0.37460000000000004">
    <ele>18.060000000000002</ele>
   </trkpt>
   <trkpt lat="39.46752" lon="-0.37429">
    <ele>18.1</ele>
   </trkpt>
   <trkpt lat="39.46806750793935" lon="-0.37350501849678036">
    <ele>18.28</ele>
   </trkpt>
   <trkpt lat="39.46861501060122" lon="-0.37272002464063597">
    <ele>18.12</ele>
   </trkpt>
   <trkpt lat="39.46916250798545" lon="-0.3719350184312509">
    <ele>17.95</ele>
   </trkpt>
   <trkpt lat="39.469710000000006" lon="-0.37115000000000004">
    <ele>17.61</ele>
   </trkpt>
   <trkpt lat="39.470085000964296" lon="-0.37069000240783534">
    <ele>17.17</ele>
   </trkpt>
   <trkpt lat="39.47046" lon="-0.37023">
    <ele>17.28</ele>
   </trkpt>
   <trkpt lat="39.47109500203678" lon="-0.36953500637766784">
    <ele>16.96</ele>
   </trkpt>
   <trkpt lat="39.47173" lon="-0.36884000000000006">
    <ele>16.84</ele>
   </trkpt>
   <trkpt lat="39.47186000000001" lon="-0.36873000000000006">
    <ele>16.77</ele>
   </trkpt>
   <trkpt lat="39.4718" lon="-0.36857">
    <ele>16.71</ele>
   </trkpt>
   <trkpt lat="39.4718" lon="-0.3684">
    <ele>16.61</ele>
   </trkpt>
   <trkpt lat="39.47184" lon="-0.36826000000000003">
    <ele>16.59</ele>
   </trkpt>
   <trkpt lat="39.471810000000005" lon="-0.36807">
    <ele>16.59</ele>
   </trkpt>
   <trkpt lat="39.471740000000004" lon="-0.36782000000000004">
    <ele>16.18</ele>
   </trkpt>
   <trkpt lat="39.47136333856358" lon="-0.3670399915949862">
    <ele>15.99</ele>
   </trkpt>
   <trkpt lat="39.47098667191635" lon="-0.3662599916353803">
    <ele>15.790000000000001</ele>
   </trkpt>
   <trkpt lat="39.47061" lon="-0.36548">
    <ele>15.770000000000003</ele>
   </trkpt>
   <trkpt lat="39.470650000000006" lon="-0.36529">
    <ele>16.64</ele>
   </trkpt>
   <trkpt lat="39.470600000000005" lon="-0.36523000000000005">
    <ele>14.33</ele>
   </trkpt>
   <trkpt lat="39.47043" lon="-0.36506000000000005">
    <ele>15.340000000000002</ele>
   </trkpt>
   <trkpt lat="39.470240000000004" lon="-0.36493000000000003">
    <ele>15.3</ele>
   </trkpt>
   <trkpt lat="39.469950000000004" lon="-0.36476000000000003">
    <ele>15.110000000000001</ele>
   </trkpt>
   <trkpt lat="39.469445000573124" lon="-0.3644249976300435">
    <ele>14.93</ele>
   </trkpt>
   <trkpt lat="39.46894" lon="-0.36409">
    <ele>14.74</ele>
   </trkpt>
   <trkpt lat="39.468650000000004" lon="-0.36387">
    <ele>14.640000000000002</ele>
   </trkpt>
   <trkpt lat="39.46808000045683" lon="-0.36350999698907566">
    <ele>13.950000000000001</ele>
   </trkpt>
   <trkpt lat="39.467510000000004" lon="-0.36315000000000003">
    <ele>13.36</ele>
   </trkpt>
   <trkpt lat="39.46708500029626" lon="-0.3628899984162005">
    <ele>13.21</ele>
   </trkpt>
   <trkpt lat="39.466660000000005" lon="-0.36263">
    <ele>13.080000000000002</ele>
   </trkpt>
   <trkpt lat="39.466185000509796" lon="-0.36231499790617283">
    <ele>12.900000000000002</ele>
   </trkpt>
   <trkpt lat="39.46571" lon="-0.36200000000000004">
    <ele>12.600000000000001</ele>
   </trkpt>
   <trkpt lat="39.46521000032976" lon="-0.36170499785518345">
    <ele>12.51</ele>
   </trkpt>
   <trkpt lat="39.464710000000004" lon="-0.36141">
    <ele>12.55</ele>
   </trkpt>
   <trkpt lat="39.46403500038413" lon="-0.361154997566659">
    <ele>12.620000000000001</ele>
   </trkpt>
   <trkpt lat="39.46336" lon="-0.36090000000000005">
    <ele>13.410000000000002</ele>
   </trkpt>
   <trkpt lat="39.46293" lon="-0.36076">
    <ele>12.950000000000001</ele>
   </trkpt>
   <trkpt lat="39.46248000031388" lon="-0.3605699988387784">
    <ele>12.730000000000002</ele>
   </trkpt>
   <trkpt lat="39.462030000000006" lon="-0.36038000000000003">
    <ele>12.66</ele>
   </trkpt>
   <trkpt lat="39.46184333981886" lon="-0.35950999534899186">
    <ele>12.81</ele>
   </trkpt>
   <trkpt lat="39.46165667315553" lon="-0.35863999536460034">
    <ele>12.560000000000002</ele>
   </trkpt>
   <trkpt lat="39.461470000000006" lon="-0.35777000000000003">
    <ele>11.98</ele>
   </trkpt>
   <trkpt lat="39.46134" lon="-0.35754">
    <ele>11.670000000000002</ele>
   </trkpt>
   <trkpt lat="39.46126" lon="-0.35752">
    <ele>11.670000000000002</ele>
   </trkpt>
   <trkpt lat="39.46119" lon="-0.35747">
    <ele>11.81</ele>
   </trkpt>
   <trkpt lat="39.4611" lon="-0.3573">
    <ele>11.840000000000002</ele>
   </trkpt>
   <trkpt lat="39.4611" lon="-0.35708">
    <ele>11.860000000000001</ele>
   </trkpt>
   <trkpt lat="39.46114" lon="-0.35695000000000005">
    <ele>11.860000000000001</ele>
   </trkpt>
   <trkpt lat="39.46112" lon="-0.35682">
    <ele>11.9</ele>
   </trkpt>
   <trkpt lat="39.46083" lon="-0.35631">
    <ele>11.97</ele>
   </trkpt>
   <trkpt lat="39.460510000000006" lon="-0.35559">
    <ele>12.06</ele>
   </trkpt>
   <trkpt lat="39.46036" lon="-0.35514">
    <ele>11.950000000000001</ele>
   </trkpt>
   <trkpt lat="39.46014" lon="-0.35421">
    <ele>11.670000000000002</ele>
   </trkpt>
   <trkpt lat="39.46007" lon="-0.35411000000000004">
    <ele>11.750000000000002</ele>
   </trkpt>
   <trkpt lat="39.459900000000005" lon="-0.35402">
    <ele>11.959999999999999</ele>
   </trkpt>
   <trkpt lat="39.459810000000004" lon="-0.35392">
    <ele>12.360000000000001</ele>
   </trkpt>
   <trkpt lat="39.459740000000004" lon="-0.35381">
    <ele>12.360000000000001</ele>
   </trkpt>
   <trkpt lat="39.459680000000006" lon="-0.35364">
    <ele>12.25</ele>
   </trkpt>
   <trkpt lat="39.45966000000001" lon="-0.35347">
    <ele>12.110000000000001</ele>
   </trkpt>
   <trkpt lat="39.45967" lon="-0.35328000000000004">
    <ele>11.88</ele>
   </trkpt>
   <trkpt lat="39.459610000000005" lon="-0.35315">
    <ele>11.61</ele>
   </trkpt>
   <trkpt lat="39.45906334675664" lon="-0.35235830225354037">
    <ele>9.959999999999999</ele>
   </trkpt>
   <trkpt lat="39.458516688145615" lon="-0.3515666169421898">
    <ele>8.77</ele>
   </trkpt>
   <trkpt lat="39.457970024167125" lon="-0.35077494406563337">
    <ele>8.3</ele>
   </trkpt>
   <trkpt lat="39.457423354821344" lon="-0.349983283623556">
    <ele>8.16</ele>
   </trkpt>
   <trkpt lat="39.45687668010847" lon="-0.3491916356156427">
    <ele>8.010000000000002</ele>
   </trkpt>
   <trkpt lat="39.45633" lon="-0.34840000000000004">
    <ele>7.96</ele>
   </trkpt>
   <trkpt lat="39.456210000000006" lon="-0.34828000000000003">
    <ele>7.65</ele>
   </trkpt>
   <trkpt lat="39.45611" lon="-0.34826">
    <ele>7.65</ele>
   </trkpt>
   <trkpt lat="39.45595" lon="-0.34818000000000005">
    <ele>7.65</ele>
   </trkpt>
   <trkpt lat="39.455850000000005" lon="-0.34809">
    <ele>7.73</ele>
   </trkpt>
   <trkpt lat="39.45577" lon="-0.34798">
    <ele>7.840000000000002</ele>
   </trkpt>
   <trkpt lat="39.455920000000006" lon="-0.34772000000000003">
    <ele>4.73</ele>
   </trkpt>
   <trkpt lat="39.455890000000004" lon="-0.34761000000000003">
    <ele>4.73</ele>
   </trkpt>
   <trkpt lat="39.45588" lon="-0.34748">
    <ele>4.87</ele>
   </trkpt>
   <trkpt lat="39.455890000000004" lon="-0.34736">
    <ele>4.86</ele>
   </trkpt>
   <trkpt lat="39.455920000000006" lon="-0.34725">
    <ele>4.82</ele>
   </trkpt>
   <trkpt lat="39.456010000000006" lon="-0.34712000000000004">
    <ele>4.5200000000000005</ele>
   </trkpt>
   <trkpt lat="39.45611" lon="-0.34703">
    <ele>4.03</ele>
   </trkpt>
   <trkpt lat="39.45664" lon="-0.34674000000000005">
    <ele>7.390000000000001</ele>
   </trkpt>
   <trkpt lat="39.457120007355186" lon="-0.3459825156948188">
    <ele>7.21</ele>
   </trkpt>
   <trkpt lat="39.45760000979652" lon="-0.34522502094311325">
    <ele>7.3100000000000005</ele>
   </trkpt>
   <trkpt lat="39.45808000732389" lon="-0.34446751574466766">
    <ele>7.130000000000001</ele>
   </trkpt>
   <trkpt lat="39.458560000000006" lon="-0.34371">
    <ele>6.960000000000001</ele>
   </trkpt>
   <trkpt lat="39.459030002412824" lon="-0.34295500514291466">
    <ele>6.95</ele>
   </trkpt>
   <trkpt lat="39.459500000000006" lon="-0.3422">
    <ele>7.2700000000000005</ele>
   </trkpt>
   <trkpt lat="39.4593300021009" lon="-0.34148999802523217">
    <ele>6.66</ele>
   </trkpt>
   <trkpt lat="39.459160000000004" lon="-0.34078">
    <ele>6.53</ele>
   </trkpt>
   <trkpt lat="39.45909" lon="-0.34039">
    <ele>6.840000000000001</ele>
   </trkpt>
   <trkpt lat="39.45897334319315" lon="-0.33931666301154934">
    <ele>6.37</ele>
   </trkpt>
   <trkpt lat="39.458856676520234" lon="-0.33824332962093956">
    <ele>6.37</ele>
   </trkpt>
   <trkpt lat="39.458740000000006" lon="-0.33717">
    <ele>6.24</ele>
   </trkpt>
   <trkpt lat="39.45880667423157" lon="-0.33623000183134616">
    <ele>6.12</ele>
   </trkpt>
   <trkpt lat="39.45887334089605" lon="-0.335290001862013">
    <ele>5.890000000000001</ele>
   </trkpt>
   <trkpt lat="39.458940000000005" lon="-0.33435000000000004">
    <ele>5.91</ele>
   </trkpt>
   <trkpt lat="39.45922" lon="-0.33342000000000005">
    <ele>5.630000000000001</ele>
   </trkpt>
   <trkpt lat="39.45931" lon="-0.33321">
    <ele>5.42</ele>
   </trkpt>
   <trkpt lat="39.45942" lon="-0.33284">
    <ele>5.38</ele>
   </trkpt>
   <trkpt lat="39.459720000000004" lon="-0.33295">
    <ele>5.44</ele>
   </trkpt>
   <trkpt lat="39.459880000000005" lon="-0.33296000000000003">
    <ele>5.890000000000001</ele>
   </trkpt>
   <trkpt lat="39.460060000000006" lon="-0.33293">
    <ele>5.64</ele>
   </trkpt>
   <trkpt lat="39.460080000000005" lon="-0.33284">
    <ele>6.03</ele>
   </trkpt>
   <trkpt lat="39.46018" lon="-0.33274000000000004">
    <ele>5.970000000000001</ele>
   </trkpt>
   <trkpt lat="39.460786670582216" lon="-0.3320633451356737">
    <ele>5.960000000000001</ele>
   </trkpt>
   <trkpt lat="39.46139333724322" lon="-0.3313866784755125">
    <ele>5.82</ele>
   </trkpt>
   <trkpt lat="39.462" lon="-0.33071">
    <ele>5.74</ele>
   </trkpt>
   <trkpt lat="39.462250000000004" lon="-0.33038">
    <ele>5.450000000000001</ele>
   </trkpt>
   <trkpt lat="39.46247" lon="-0.32996000000000003">
    <ele>5.32</ele>
   </trkpt>
   <trkpt lat="39.46266000000001" lon="-0.3295">
    <ele>5.48</ele>
   </trkpt>
   <trkpt lat="39.462610000000005" lon="-0.32938">
    <ele>5.48</ele>
   </trkpt>
   <trkpt lat="39.462610000000005" lon="-0.32918000000000003">
    <ele>5.51</ele>
   </trkpt>
   <trkpt lat="39.462680000000006" lon="-0.32902000000000003">
    <ele>5.51</ele>
   </trkpt>
   <trkpt lat="39.462810000000005" lon="-0.32892000000000005">
    <ele>5.44</ele>
   </trkpt>
   <trkpt lat="39.46289" lon="-0.32878">
    <ele>5.38</ele>
   </trkpt>
   <trkpt lat="39.46298" lon="-0.3284">
    <ele>5.4</ele>
   </trkpt>
   <trkpt lat="39.46309" lon="-0.32737000000000005">
    <ele>5.4</ele>
   </trkpt>
   <trkpt lat="39.463100000000004" lon="-0.32641000000000003">
    <ele>5.36</ele>
   </trkpt>
   <trkpt lat="39.46316" lon="-0.3264">
    <ele>5.36</ele>
   </trkpt>
   <trkpt lat="39.46316000154156" lon="-0.32580000005349635">
    <ele>5.140000000000001</ele>
   </trkpt>
   <trkpt lat="39.46316" lon="-0.32520000000000004">
    <ele>4.82</ele>
   </trkpt>
   <trkpt lat="39.463210000000004" lon="-0.3251">
    <ele>4.65</ele>
   </trkpt>
   <trkpt lat="39.463260000000005" lon="-0.3251">
    <ele>4.65</ele>
   </trkpt>
   <trkpt lat="39.46332" lon="-0.32501">
    <ele>4.65</ele>
   </trkpt>
   <trkpt lat="39.46349" lon="-0.32497000000000004">
    <ele>4.53</ele>
   </trkpt>
   <trkpt lat="39.464159999922494" lon="-0.32492500043901656">
    <ele>4.47</ele>
   </trkpt>
   <trkpt lat="39.464830000000006" lon="-0.32488">
    <ele>4.16</ele>
   </trkpt>
   <trkpt lat="39.465520000000005" lon="-0.3249">
    <ele>4.090000000000001</ele>
   </trkpt>
   <trkpt lat="39.46569" lon="-0.32494">
    <ele>4.08</ele>
   </trkpt>
   <trkpt lat="39.46604000000001" lon="-0.32497000000000004">
    <ele>4.08</ele>
   </trkpt>
   <trkpt lat="39.46674" lon="-0.32504000000000005">
    <ele>4.23</ele>
   </trkpt>
   <trkpt lat="39.467130000000004" lon="-0.32511">
    <ele>4.16</ele>
   </trkpt>
   <trkpt lat="39.467290000000006" lon="-0.32519000000000003">
    <ele>4.16</ele>
   </trkpt>
   <trkpt lat="39.4673" lon="-0.32529">
    <ele>4.3100000000000005</ele>
   </trkpt>
   <trkpt lat="39.46737" lon="-0.32539">
    <ele>4.32</ele>
   </trkpt>
   <trkpt lat="39.46743" lon="-0.32544">
    <ele>4.32</ele>
   </trkpt>
   <trkpt lat="39.467510000000004" lon="-0.32543000000000005">
    <ele>4.3</ele>
   </trkpt>
   <trkpt lat="39.467600000000004" lon="-0.32537000000000005">
    <ele>4.220000000000001</ele>
   </trkpt>
   <trkpt lat="39.467940000000006" lon="-0.32549">
    <ele>4.19</ele>
   </trkpt>
   <trkpt lat="39.46839000000001" lon="-0.32552000000000003">
    <ele>2.58</ele>
   </trkpt>
   <trkpt lat="39.46921571428313" lon="-0.32551714306059054">
    <ele>2.58</ele>
   </trkpt>
   <trkpt lat="39.47004142856621" lon="-0.32551428605337435">
    <ele>2.58</ele>
   </trkpt>
   <trkpt lat="39.470867142849194" lon="-0.32551142897834795">
    <ele>2.58</ele>
   </trkpt>
   <trkpt lat="39.47169285713212" lon="-0.32550857183550763">
    <ele>3.99</ele>
   </trkpt>
   <trkpt lat="39.47251857141497" lon="-0.3255057146248499">
    <ele>3.99</ele>
   </trkpt>
   <trkpt lat="39.47334428569776" lon="-0.3255028573463711">
    <ele>3.99</ele>
   </trkpt>
   <trkpt lat="39.47417" lon="-0.3255">
    <ele>4.07</ele>
   </trkpt>
   <trkpt lat="39.474360000000004" lon="-0.32552000000000003">
    <ele>4.07</ele>
   </trkpt>
   <trkpt lat="39.474410000000006" lon="-0.32575000000000004">
    <ele>3.89</ele>
   </trkpt>
   <trkpt lat="39.47446" lon="-0.32631000000000004">
    <ele>3.8100000000000005</ele>
   </trkpt>
   <trkpt lat="39.47446" lon="-0.32643000000000005">
    <ele>3.75</ele>
   </trkpt>
   <trkpt lat="39.4744" lon="-0.3266">
    <ele>3.8200000000000003</ele>
   </trkpt>
   <trkpt lat="39.47439000000001" lon="-0.32733">
    <ele>3.7900000000000005</ele>
   </trkpt>
   <trkpt lat="39.474410000000006" lon="-0.32764000000000004">
    <ele>3.52</ele>
   </trkpt>
   <trkpt lat="39.474470000000004" lon="-0.32773">
    <ele>3.16</ele>
   </trkpt>
   <trkpt lat="39.47458" lon="-0.32779">
    <ele>3.16</ele>
   </trkpt>
   <trkpt lat="39.474680000000006" lon="-0.32791000000000003">
    <ele>3.25</ele>
   </trkpt>
   <trkpt lat="39.474740000000004" lon="-0.32805">
    <ele>3.2700000000000005</ele>
   </trkpt>
   <trkpt lat="39.474940000000004" lon="-0.32871">
    <ele>3.43</ele>
   </trkpt>
   <trkpt lat="39.47524001416732" lon="-0.3297599864269644">
    <ele>3.37</ele>
   </trkpt>
   <trkpt lat="39.47554001889202" lon="-0.33080998191021016">
    <ele>3.52</ele>
   </trkpt>
   <trkpt lat="39.47584001417394" lon="-0.33185998644962694">
    <ele>3.73</ele>
   </trkpt>
   <trkpt lat="39.47614" lon="-0.33291000000000004">
    <ele>4.64</ele>
   </trkpt>
   <trkpt lat="39.476150000000004" lon="-0.33314000000000005">
    <ele>4.85</ele>
   </trkpt>
   <trkpt lat="39.4761" lon="-0.33332">
    <ele>4.85</ele>
   </trkpt>
   <trkpt lat="39.4761" lon="-0.33345">
    <ele>4.9</ele>
   </trkpt>
   <trkpt lat="39.47614" lon="-0.33358000000000004">
    <ele>4.9</ele>
   </trkpt>
   <trkpt lat="39.47621" lon="-0.33368000000000003">
    <ele>4.9</ele>
   </trkpt>
   <trkpt lat="39.47632" lon="-0.33377">
    <ele>4.9</ele>
   </trkpt>
   <trkpt lat="39.476400000000005" lon="-0.33387">
    <ele>5.16</ele>
   </trkpt>
   <trkpt lat="39.47646" lon="-0.33405">
    <ele>5.16</ele>
   </trkpt>
   <trkpt lat="39.476706673036205" lon="-0.3349099940226301">
    <ele>5.37</ele>
   </trkpt>
   <trkpt lat="39.47695333973781" lon="-0.3357699941443517">
    <ele>5.59</ele>
   </trkpt>
   <trkpt lat="39.4772" lon="-0.33663000000000004">
    <ele>5.85</ele>
   </trkpt>
  </trkseg>
 </trk>
</gpx>
