{
  "type": "FeatureCollection",
  "features": [
    {
      "type": "Feature",
      "properties": {
        "name": "Medio Maraton Valencia",
        "source": "GPX published by the event organization via Strava",
        "status": "reference"
      },
      "geometry": {
        "type": "LineString",
        "coordinates": [
          [
            -0.34934000000000004,
            39.48113
          ],
          [
            -0.35036,
            39.48143
          ],
          [
            -0.35066,
            39.48158
          ],
          [
            -0.35042,
            39.48178
          ],
          [
            -0.35077,
            39.482110000000006
          ],
          [
            -0.35097,
            39.48225
          ],
          [
            -0.35109,
            39.48225
          ],
          [
            -0.35116,
            39.48228
          ],
          [
            -0.3512,
            39.482330000000005
          ],
          [
            -0.35125,
            39.48237
          ],
          [
            -0.35151000000000004,
            39.48236
          ],
          [
            -0.35150000000000003,
            39.48241
          ],
          [
            -0.3517083207300409,
            39.483251667609935
          ],
          [
            -0.35191664650241367,
            39.48409333484816
          ],
          [
            -0.3521249773173892,
            39.484935001714625
          ],
          [
            -0.3523333131752381,
            39.48577666820933
          ],
          [
            -0.35254165407623117,
            39.486618334332256
          ],
          [
            -0.35275,
            39.487460000000006
          ],
          [
            -0.35282,
            39.4876
          ],
          [
            -0.35299,
            39.487770000000005
          ],
          [
            -0.35319,
            39.48781
          ],
          [
            -0.35326,
            39.48785
          ],
          [
            -0.35337,
            39.48796
          ],
          [
            -0.35340000000000005,
            39.48803
          ],
          [
            -0.35341,
            39.48814
          ],
          [
            -0.35338,
            39.488240000000005
          ],
          [
            -0.35332,
            39.488310000000006
          ],
          [
            -0.35325,
            39.48836
          ],
          [
            -0.35325,
            39.48854
          ],
          [
            -0.35326,
            39.488580000000006
          ],
          [
            -0.3537956809319825,
            39.48930143594214
          ],
          [
            -0.3543313729801132,
            39.490022869426255
          ],
          [
            -0.3548670761448703,
            39.490744300452256
          ],
          [
            -0.3554027904267317,
            39.49146572902001
          ],
          [
            -0.3559385158261756,
            39.49218715512941
          ],
          [
            -0.3564742523436799,
            39.492908578780344
          ],
          [
            -0.35701000000000005,
            39.49363
          ],
          [
            -0.35721,
            39.49376
          ],
          [
            -0.35744000000000004,
            39.4938
          ],
          [
            -0.35769,
            39.49378
          ],
          [
            -0.3578,
            39.493790000000004
          ],
          [
            -0.35795000000000005,
            39.49383
          ],
          [
            -0.35808,
            39.4938
          ],
          [
            -0.35824,
            39.49372
          ],
          [
            -0.3590750056428498,
            39.493245003021556
          ],
          [
            -0.35991,
            39.49277
          ],
          [
            -0.35988000000000003,
            39.492720000000006
          ],
          [
            -0.36048,
            39.492340000000006
          ],
          [
            -0.36086,
            39.49203
          ],
          [
            -0.36125,
            39.49174
          ],
          [
            -0.36179000000000006,
            39.491400000000006
          ],
          [
            -0.36260669409899965,
            39.49093334760105
          ],
          [
            -0.36342337723512397,
            39.49046668948888
          ],
          [
            -0.3642400494085679,
            39.49000002566368
          ],
          [
            -0.3650567106195264,
            39.48953335612561
          ],
          [
            -0.3658733608681942,
            39.48906668087485
          ],
          [
            -0.36669,
            39.488600000000005
          ],
          [
            -0.36672000000000005,
            39.48859
          ],
          [
            -0.3668,
            39.48865
          ],
          [
            -0.36706000000000005,
            39.48854
          ],
          [
            -0.36739000000000005,
            39.48845
          ],
          [
            -0.36759000000000003,
            39.48838000000001
          ],
          [
            -0.36822000000000005,
            39.488020000000006
          ],
          [
            -0.36826000000000003,
            39.48794
          ],
          [
            -0.36752330428333496,
            39.48739167828363
          ],
          [
            -0.36678662018487707,
            39.48684335191861
          ],
          [
            -0.3660499477043149,
            39.48629502090509
          ],
          [
            -0.36531328684133757,
            39.48574668524327
          ],
          [
            -0.3645766375956334,
            39.48519834493331
          ],
          [
            -0.36384000000000005,
            39.48465
          ],
          [
            -0.36393000000000003,
            39.4844
          ],
          [
            -0.36411000000000004,
            39.48402
          ],
          [
            -0.36446335141566133,
            39.48330833599766
          ],
          [
            -0.36481669559976665,
            39.482596670925886
          ],
          [
            -0.3651700325526361,
            39.48188500478474
          ],
          [
            -0.36552336227458965,
            39.48117333757428
          ],
          [
            -0.36587668476594754,
            39.480461669294534
          ],
          [
            -0.36623000000000006,
            39.47975
          ],
          [
            -0.36650333816533465,
            39.47913333400603
          ],
          [
            -0.36677667148408005,
            39.478516667372126
          ],
          [
            -0.36705000000000004,
            39.477900000000005
          ],
          [
            -0.36732000000000004,
            39.477540000000005
          ],
          [
            -0.36761000000000005,
            39.47731
          ],
          [
            -0.36791,
            39.4772
          ],
          [
            -0.36810000000000004,
            39.477160000000005
          ],
          [
            -0.36829,
            39.477180000000004
          ],
          [
            -0.36851,
            39.477270000000004
          ],
          [
            -0.3691599923606049,
            39.47768333700629
          ],
          [
            -0.36980999244588786,
            39.47809667039392
          ],
          [
            -0.37046,
            39.47851
          ],
          [
            -0.37131000000000003,
            39.478910000000006
          ],
          [
            -0.37157,
            39.479130000000005
          ],
          [
            -0.37179,
            39.47937
          ],
          [
            -0.37212,
            39.479690000000005
          ],
          [
            -0.37289000000000005,
            39.480050000000006
          ],
          [
            -0.37320000000000003,
            39.480230000000006
          ],
          [
            -0.37355000000000005,
            39.48049
          ],
          [
            -0.37433000000000005,
            39.48102
          ],
          [
            -0.37512,
            39.48161
          ],
          [
            -0.37549000000000005,
            39.48183
          ],
          [
            -0.3762649952686229,
            39.4822500025445
          ],
          [
            -0.37704000000000004,
            39.482670000000006
          ],
          [
            -0.37716000000000005,
            39.482730000000004
          ],
          [
            -0.37734,
            39.482780000000005
          ],
          [
            -0.37761000000000006,
            39.482820000000004
          ],
          [
            -0.3785233320278832,
            39.4828733404839
          ],
          [
            -0.3794366654566568,
            39.48292667382282
          ],
          [
            -0.38035,
            39.482980000000005
          ],
          [
            -0.38056,
            39.48297
          ],
          [
            -0.3815,
            39.482800000000005
          ],
          [
            -0.38196,
            39.4827
          ],
          [
            -0.3829200054224694,
            39.48230500395914
          ],
          [
            -0.38388000000000005,
            39.481910000000006
          ],
          [
            -0.38422,
            39.481730000000006
          ],
          [
            -0.3849933414289869,
            39.481363338483305
          ],
          [
            -0.3857666747041494,
            39.48099667184417
          ],
          [
            -0.38654000000000005,
            39.480630000000005
          ],
          [
            -0.3873350040598839,
            39.48027500270569
          ],
          [
            -0.38813000000000003,
            39.47992
          ],
          [
            -0.38863000000000003,
            39.47972
          ],
          [
            -0.3893950028463777,
            39.47946000251074
          ],
          [
            -0.39016,
            39.479200000000006
          ],
          [
            -0.39066,
            39.479060000000004
          ],
          [
            -0.39086000000000004,
            39.47903
          ],
          [
            -0.39084,
            39.478930000000005
          ],
          [
            -0.39079,
            39.47887
          ],
          [
            -0.3909,
            39.47881
          ],
          [
            -0.39088,
            39.47872
          ],
          [
            -0.3905199974116307,
            39.47822000055412
          ],
          [
            -0.39016,
            39.477720000000005
          ],
          [
            -0.39010000000000006,
            39.4776
          ],
          [
            -0.38991000000000003,
            39.477520000000005
          ],
          [
            -0.38986000000000004,
            39.47746
          ],
          [
            -0.38980000000000004,
            39.47737
          ],
          [
            -0.38981000000000005,
            39.47729
          ],
          [
            -0.38946000000000003,
            39.47683000000001
          ],
          [
            -0.38893454867357663,
            39.476093860342864
          ],
          [
            -0.38840910846783505,
            39.475357718320986
          ],
          [
            -0.3878836793822846,
            39.47462157393451
          ],
          [
            -0.38735826141643454,
            39.473885427183546
          ],
          [
            -0.386832854569794,
            39.4731492780682
          ],
          [
            -0.38630745884187245,
            39.472413126588584
          ],
          [
            -0.3857820742321791,
            39.4716769727448
          ],
          [
            -0.38525670074022333,
            39.47094081653699
          ],
          [
            -0.3847313383655145,
            39.47020465796523
          ],
          [
            -0.384205987107562,
            39.46946849702965
          ],
          [
            -0.38368064696587506,
            39.468732333730365
          ],
          [
            -0.38315531793996327,
            39.46799616806749
          ],
          [
            -0.38263,
            39.46726
          ],
          [
            -0.38227000000000005,
            39.466710000000006
          ],
          [
            -0.38177000000000005,
            39.466010000000004
          ],
          [
            -0.38173,
            39.46594
          ],
          [
            -0.38153000000000004,
            39.466100000000004
          ],
          [
            -0.38094000000000006,
            39.466820000000006
          ],
          [
            -0.38047000418307475,
            39.46743500090772
          ],
          [
            -0.38,
            39.468050000000005
          ],
          [
            -0.37997000000000003,
            39.468090000000004
          ],
          [
            -0.37998000000000004,
            39.46815
          ],
          [
            -0.38019000000000003,
            39.46822
          ],
          [
            -0.38015000000000004,
            39.46828
          ],
          [
            -0.38077000000000005,
            39.468500000000006
          ],
          [
            -0.3815,
            39.46882
          ],
          [
            -0.3821399906664465,
            39.46932667016441
          ],
          [
            -0.3827799906533823,
            39.469833336820834
          ],
          [
            -0.38342000000000004,
            39.47034
          ],
          [
            -0.38349000000000005,
            39.47036000000001
          ],
          [
            -0.38361,
            39.47063
          ],
          [
            -0.3837699990201989,
            39.47109500036979
          ],
          [
            -0.38393000000000005,
            39.471560000000004
          ],
          [
            -0.384,
            39.47191
          ],
          [
            -0.384,
            39.472640000000006
          ],
          [
            -0.3839550003298955,
            39.473150000008445
          ],
          [
            -0.38391000000000003,
            39.47366
          ],
          [
            -0.38392000000000004,
            39.473760000000006
          ],
          [
            -0.38397499959979536,
            39.47425499993316
          ],
          [
            -0.38403000000000004,
            39.47475
          ],
          [
            -0.3840949995512396,
            39.4752300000161
          ],
          [
            -0.38416000000000006,
            39.47571000000001
          ],
          [
            -0.3840950004786925,
            39.476214999965066
          ],
          [
            -0.38403000000000004,
            39.47672
          ],
          [
            -0.3838700017781777,
            39.477500000187305
          ],
          [
            -0.38371000000000005,
            39.478280000000005
          ],
          [
            -0.38372,
            39.4784
          ],
          [
            -0.383515001469533,
            39.47891000026342
          ],
          [
            -0.38331000000000004,
            39.479420000000005
          ],
          [
            -0.3831300011806596,
            39.47990000030281
          ],
          [
            -0.38295,
            39.480380000000004
          ],
          [
            -0.38283,
            39.48049
          ],
          [
            -0.38262,
            39.480610000000006
          ],
          [
            -0.38178500327621184,
            39.48089500303553
          ],
          [
            -0.38095,
            39.48118
          ],
          [
            -0.38068,
            39.48122
          ],
          [
            -0.38046,
            39.48122
          ],
          [
            -0.38015000000000004,
            39.481170000000006
          ],
          [
            -0.37931000000000004,
            39.48102
          ],
          [
            -0.37884,
            39.480900000000005
          ],
          [
            -0.37845,
            39.48075
          ],
          [
            -0.37775000000000003,
            39.48042
          ],
          [
            -0.37705499605596293,
            39.480025002070214
          ],
          [
            -0.37636000000000003,
            39.47963
          ],
          [
            -0.37615000000000004,
            39.479530000000004
          ],
          [
            -0.37597,
            39.47948
          ],
          [
            -0.37551,
            39.479290000000006
          ],
          [
            -0.3749,
            39.479020000000006
          ],
          [
            -0.37470000000000003,
            39.47892
          ],
          [
            -0.37397999687046807,
            39.47862000220998
          ],
          [
            -0.37326000000000004,
            39.478320000000004
          ],
          [
            -0.3725899920250906,
            39.477903337210336
          ],
          [
            -0.37191999207683707,
            39.47748667057579
          ],
          [
            -0.37125,
            39.477070000000005
          ],
          [
            -0.37098000000000003,
            39.476850000000006
          ],
          [
            -0.37025,
            39.47617
          ],
          [
            -0.36999000000000004,
            39.475860000000004
          ],
          [
            -0.36986,
            39.475500000000004
          ],
          [
            -0.36978000000000005,
            39.475190000000005
          ],
          [
            -0.36979,
            39.474520000000005
          ],
          [
            -0.36986,
            39.47430000000001
          ],
          [
            -0.36981,
            39.47428
          ],
          [
            -0.3698,
            39.47422
          ],
          [
            -0.36984000000000006,
            39.47411
          ],
          [
            -0.36985,
            39.47373
          ],
          [
            -0.37001,
            39.472970000000004
          ],
          [
            -0.37007,
            39.472750000000005
          ],
          [
            -0.37012,
            39.47272
          ],
          [
            -0.37021000000000004,
            39.4727
          ],
          [
            -0.37028000000000005,
            39.47272
          ],
          [
            -0.37026000000000003,
            39.472770000000004
          ],
          [
            -0.37134,
            39.47299
          ],
          [
            -0.37137000000000003,
            39.47294
          ],
          [
            -0.3723366612902659,
            39.473133341335846
          ],
          [
            -0.3733033279531766,
            39.473326674668456
          ],
          [
            -0.37427000000000005,
            39.47352
          ],
          [
            -0.3743,
            39.473490000000005
          ],
          [
            -0.37431000000000003,
            39.47345
          ],
          [
            -0.37431000000000003,
            39.473200000000006
          ],
          [
            -0.3744,
            39.472820000000006
          ],
          [
            -0.37446,
            39.472750000000005
          ],
          [
            -0.37446,
            39.472570000000005
          ],
          [
            -0.37431000000000003,
            39.47185
          ],
          [
            -0.3742449994188585,
            39.47123999991238
          ],
          [
            -0.37418,
            39.47063
          ],
          [
            -0.37417000000000006,
            39.47055
          ],
          [
            -0.37408,
            39.47048
          ],
          [
            -0.37434,
            39.47041
          ],
          [
            -0.37493500019126813,
            39.470390001515355
          ],
          [
            -0.37553000000000003,
            39.47037
          ],
          [
            -0.37587000000000004,
            39.47034
          ],
          [
            -0.3759,
            39.470310000000005
          ],
          [
            -0.37593000000000004,
            39.47016
          ],
          [
            -0.3758,
            39.46951000000001
          ],
          [
            -0.37581000000000003,
            39.46941
          ],
          [
            -0.37585,
            39.469350000000006
          ],
          [
            -0.37592000000000003,
            39.469280000000005
          ],
          [
            -0.37603000000000003,
            39.46925
          ],
          [
            -0.37662,
            39.46925
          ],
          [
            -0.37675000000000003,
            39.469170000000005
          ],
          [
            -0.37681000000000003,
            39.46905
          ],
          [
            -0.37687000000000004,
            39.468630000000005
          ],
          [
            -0.37683000000000005,
            39.468630000000005
          ],
          [
            -0.37692000000000003,
            39.467800000000004
          ],
          [
            -0.37677000000000005,
            39.467600000000004
          ],
          [
            -0.37676000000000004,
            39.467600000000004
          ],
          [
            -0.3759949977527483,
            39.46740500247967
          ],
          [
            -0.37523,
            39.46721
          ],
          [
            -0.37492000000000003,
            39.46725
          ],
          [
            -0.37487000000000004,
            39.46716
          ],
          [
            -0.37460000000000004,
            39.467310000000005
          ],
          [
            -0.37429,
            39.46752
          ],
          [
            -0.37350501849678036,
            39.46806750793935
          ],
          [
            -0.37272002464063597,
            39.46861501060122
          ],
          [
            -0.3719350184312509,
            39.46916250798545
          ],
          [
            -0.37115000000000004,
            39.469710000000006
          ],
          [
            -0.37069000240783534,
            39.470085000964296
          ],
          [
            -0.37023,
            39.47046
          ],
          [
            -0.36953500637766784,
            39.47109500203678
          ],
          [
            -0.36884000000000006,
            39.47173
          ],
          [
            -0.36873000000000006,
            39.47186000000001
          ],
          [
            -0.36857,
            39.4718
          ],
          [
            -0.3684,
            39.4718
          ],
          [
            -0.36826000000000003,
            39.47184
          ],
          [
            -0.36807,
            39.471810000000005
          ],
          [
            -0.36782000000000004,
            39.471740000000004
          ],
          [
            -0.3670399915949862,
            39.47136333856358
          ],
          [
            -0.3662599916353803,
            39.47098667191635
          ],
          [
            -0.36548,
            39.47061
          ],
          [
            -0.36529,
            39.470650000000006
          ],
          [
            -0.36523000000000005,
            39.470600000000005
          ],
          [
            -0.36506000000000005,
            39.47043
          ],
          [
            -0.36493000000000003,
            39.470240000000004
          ],
          [
            -0.36476000000000003,
            39.469950000000004
          ],
          [
            -0.3644249976300435,
            39.469445000573124
          ],
          [
            -0.36409,
            39.46894
          ],
          [
            -0.36387,
            39.468650000000004
          ],
          [
            -0.36350999698907566,
            39.46808000045683
          ],
          [
            -0.36315000000000003,
            39.467510000000004
          ],
          [
            -0.3628899984162005,
            39.46708500029626
          ],
          [
            -0.36263,
            39.466660000000005
          ],
          [
            -0.36231499790617283,
            39.466185000509796
          ],
          [
            -0.36200000000000004,
            39.46571
          ],
          [
            -0.36170499785518345,
            39.46521000032976
          ],
          [
            -0.36141,
            39.464710000000004
          ],
          [
            -0.361154997566659,
            39.46403500038413
          ],
          [
            -0.36090000000000005,
            39.46336
          ],
          [
            -0.36076,
            39.46293
          ],
          [
            -0.3605699988387784,
            39.46248000031388
          ],
          [
            -0.36038000000000003,
            39.462030000000006
          ],
          [
            -0.35950999534899186,
            39.46184333981886
          ],
          [
            -0.35863999536460034,
            39.46165667315553
          ],
          [
            -0.35777000000000003,
            39.461470000000006
          ],
          [
            -0.35754,
            39.46134
          ],
          [
            -0.35752,
            39.46126
          ],
          [
            -0.35747,
            39.46119
          ],
          [
            -0.3573,
            39.4611
          ],
          [
            -0.35708,
            39.4611
          ],
          [
            -0.35695000000000005,
            39.46114
          ],
          [
            -0.35682,
            39.46112
          ],
          [
            -0.35631,
            39.46083
          ],
          [
            -0.35559,
            39.460510000000006
          ],
          [
            -0.35514,
            39.46036
          ],
          [
            -0.35421,
            39.46014
          ],
          [
            -0.35411000000000004,
            39.46007
          ],
          [
            -0.35402,
            39.459900000000005
          ],
          [
            -0.35392,
            39.459810000000004
          ],
          [
            -0.35381,
            39.459740000000004
          ],
          [
            -0.35364,
            39.459680000000006
          ],
          [
            -0.35347,
            39.45966000000001
          ],
          [
            -0.35328000000000004,
            39.45967
          ],
          [
            -0.35315,
            39.459610000000005
          ],
          [
            -0.35235830225354037,
            39.45906334675664
          ],
          [
            -0.3515666169421898,
            39.458516688145615
          ],
          [
            -0.35077494406563337,
            39.457970024167125
          ],
          [
            -0.349983283623556,
            39.457423354821344
          ],
          [
            -0.3491916356156427,
            39.45687668010847
          ],
          [
            -0.34840000000000004,
            39.45633
          ],
          [
            -0.34828000000000003,
            39.456210000000006
          ],
          [
            -0.34826,
            39.45611
          ],
          [
            -0.34818000000000005,
            39.45595
          ],
          [
            -0.34809,
            39.455850000000005
          ],
          [
            -0.34798,
            39.45577
          ],
          [
            -0.34772000000000003,
            39.455920000000006
          ],
          [
            -0.34761000000000003,
            39.455890000000004
          ],
          [
            -0.34748,
            39.45588
          ],
          [
            -0.34736,
            39.455890000000004
          ],
          [
            -0.34725,
            39.455920000000006
          ],
          [
            -0.34712000000000004,
            39.456010000000006
          ],
          [
            -0.34703,
            39.45611
          ],
          [
            -0.34674000000000005,
            39.45664
          ],
          [
            -0.3459825156948188,
            39.457120007355186
          ],
          [
            -0.34522502094311325,
            39.45760000979652
          ],
          [
            -0.34446751574466766,
            39.45808000732389
          ],
          [
            -0.34371,
            39.458560000000006
          ],
          [
            -0.34295500514291466,
            39.459030002412824
          ],
          [
            -0.3422,
            39.459500000000006
          ],
          [
            -0.34148999802523217,
            39.4593300021009
          ],
          [
            -0.34078,
            39.459160000000004
          ],
          [
            -0.34039,
            39.45909
          ],
          [
            -0.33931666301154934,
            39.45897334319315
          ],
          [
            -0.33824332962093956,
            39.458856676520234
          ],
          [
            -0.33717,
            39.458740000000006
          ],
          [
            -0.33623000183134616,
            39.45880667423157
          ],
          [
            -0.335290001862013,
            39.45887334089605
          ],
          [
            -0.33435000000000004,
            39.458940000000005
          ],
          [
            -0.33342000000000005,
            39.45922
          ],
          [
            -0.33321,
            39.45931
          ],
          [
            -0.33284,
            39.45942
          ],
          [
            -0.33295,
            39.459720000000004
          ],
          [
            -0.33296000000000003,
            39.459880000000005
          ],
          [
            -0.33293,
            39.460060000000006
          ],
          [
            -0.33284,
            39.460080000000005
          ],
          [
            -0.33274000000000004,
            39.46018
          ],
          [
            -0.3320633451356737,
            39.460786670582216
          ],
          [
            -0.3313866784755125,
            39.46139333724322
          ],
          [
            -0.33071,
            39.462
          ],
          [
            -0.33038,
            39.462250000000004
          ],
          [
            -0.32996000000000003,
            39.46247
          ],
          [
            -0.3295,
            39.46266000000001
          ],
          [
            -0.32938,
            39.462610000000005
          ],
          [
            -0.32918000000000003,
            39.462610000000005
          ],
          [
            -0.32902000000000003,
            39.462680000000006
          ],
          [
            -0.32892000000000005,
            39.462810000000005
          ],
          [
            -0.32878,
            39.46289
          ],
          [
            -0.3284,
            39.46298
          ],
          [
            -0.32737000000000005,
            39.46309
          ],
          [
            -0.32641000000000003,
            39.463100000000004
          ],
          [
            -0.3264,
            39.46316
          ],
          [
            -0.32580000005349635,
            39.46316000154156
          ],
          [
            -0.32520000000000004,
            39.46316
          ],
          [
            -0.3251,
            39.463210000000004
          ],
          [
            -0.3251,
            39.463260000000005
          ],
          [
            -0.32501,
            39.46332
          ],
          [
            -0.32497000000000004,
            39.46349
          ],
          [
            -0.32492500043901656,
            39.464159999922494
          ],
          [
            -0.32488,
            39.464830000000006
          ],
          [
            -0.3249,
            39.465520000000005
          ],
          [
            -0.32494,
            39.46569
          ],
          [
            -0.32497000000000004,
            39.46604000000001
          ],
          [
            -0.32504000000000005,
            39.46674
          ],
          [
            -0.32511,
            39.467130000000004
          ],
          [
            -0.32519000000000003,
            39.467290000000006
          ],
          [
            -0.32529,
            39.4673
          ],
          [
            -0.32539,
            39.46737
          ],
          [
            -0.32544,
            39.46743
          ],
          [
            -0.32543000000000005,
            39.467510000000004
          ],
          [
            -0.32537000000000005,
            39.467600000000004
          ],
          [
            -0.32549,
            39.467940000000006
          ],
          [
            -0.32552000000000003,
            39.46839000000001
          ],
          [
            -0.32551714306059054,
            39.46921571428313
          ],
          [
            -0.32551428605337435,
            39.47004142856621
          ],
          [
            -0.32551142897834795,
            39.470867142849194
          ],
          [
            -0.32550857183550763,
            39.47169285713212
          ],
          [
            -0.3255057146248499,
            39.47251857141497
          ],
          [
            -0.3255028573463711,
            39.47334428569776
          ],
          [
            -0.3255,
            39.47417
          ],
          [
            -0.32552000000000003,
            39.474360000000004
          ],
          [
            -0.32575000000000004,
            39.474410000000006
          ],
          [
            -0.32631000000000004,
            39.47446
          ],
          [
            -0.32643000000000005,
            39.47446
          ],
          [
            -0.3266,
            39.4744
          ],
          [
            -0.32733,
            39.47439000000001
          ],
          [
            -0.32764000000000004,
            39.474410000000006
          ],
          [
            -0.32773,
            39.474470000000004
          ],
          [
            -0.32779,
            39.47458
          ],
          [
            -0.32791000000000003,
            39.474680000000006
          ],
          [
            -0.32805,
            39.474740000000004
          ],
          [
            -0.32871,
            39.474940000000004
          ],
          [
            -0.3297599864269644,
            39.47524001416732
          ],
          [
            -0.33080998191021016,
            39.47554001889202
          ],
          [
            -0.33185998644962694,
            39.47584001417394
          ],
          [
            -0.33291000000000004,
            39.47614
          ],
          [
            -0.33314000000000005,
            39.476150000000004
          ],
          [
            -0.33332,
            39.4761
          ],
          [
            -0.33345,
            39.4761
          ],
          [
            -0.33358000000000004,
            39.47614
          ],
          [
            -0.33368000000000003,
            39.47621
          ],
          [
            -0.33377,
            39.47632
          ],
          [
            -0.33387,
            39.476400000000005
          ],
          [
            -0.33405,
            39.47646
          ],
          [
            -0.3349099940226301,
            39.476706673036205
          ],
          [
            -0.3357699941443517,
            39.47695333973781
          ],
          [
            -0.33663000000000004,
            39.4772
          ]
        ]
      }
    }
  ]
}